{
"type": "FeatureCollection",
"name": "PalitanaStudyArea",
"crs": { "type": "name", "properties": { "name": "urn:ogc:def:crs:OGC:1.3:CRS84" } },
"features": [
{"type":"Feature","properties":{"Name":"Shatrunjay hill area outline perimeter 49.1 km , area 8,397 acres","area":3395.963,"areaSqKm":33.9596},"geometry":{"type":"MultiPolygon","coordinates":[[[[71.812006354059932,21.505561173641006,0.0],[71.812941813174518,21.505474658919717,0.0],[71.81328566047371,21.505427565853608,0.0],[71.813618991940217,21.505333640609116,0.0],[71.813620361444208,21.505256877891558,0.0],[71.814269184528229,21.505213380399429,0.0],[71.814450329174434,21.5051558621727,0.0],[71.814747847019476,21.50511788322645,0.0],[71.814831341493488,21.505078364445623,0.0],[71.815080306928238,21.50500898281032,0.0],[71.815646108501767,21.504891395168919,0.0],[71.815771315747341,21.50487885948953,0.0],[71.816266917588905,21.504774498542538,0.0],[71.816592012798722,21.504674482386033,0.0],[71.816945327687108,21.504504909034466,0.0],[71.817276318593528,21.504248033390262,0.0],[71.81765321450851,21.504016191695534,0.0],[71.818008531388188,21.50384891985053,0.0],[71.818056079226977,21.503607351647851,0.0],[71.818109335190869,21.503429070184787,0.0],[71.818371687548904,21.503186305080803,0.0],[71.818493807656992,21.50298032995061,0.0],[71.818610549852608,21.502862573591617,0.0],[71.818687635808743,21.502770477994144,0.0],[71.818762419270627,21.50274241029318,0.0],[71.818846417219746,21.502660856518396,0.0],[71.818880069495364,21.502549408503132,0.0],[71.818954124852795,21.502513296440881,0.0],[71.819091240453929,21.50225245585964,0.0],[71.820182743826877,21.50166535691573,0.0],[71.8201523560314,21.500780569526896,0.0],[71.820135152145156,21.499855211461487,0.0],[71.820062397857896,21.499248512463993,0.0],[71.820050052398813,21.49846474589685,0.0],[71.820058275884762,21.497641332418333,0.0],[71.820237597463063,21.496760758502141,0.0],[71.82047835033778,21.495670941570356,0.0],[71.820645686396688,21.494699688640498,0.0],[71.82070998990865,21.49415669420873,0.0],[71.82125064653998,21.491842413050314,0.0],[71.820676552876151,21.491697194377522,0.0],[71.820462583951894,21.491270868548561,0.0],[71.820424027713671,21.490961583066341,0.0],[71.820423085231369,21.490409829722378,0.0],[71.820323183397022,21.4901700284538,0.0],[71.820340037638957,21.489965711491557,0.0],[71.820640741848365,21.489836897191282,0.0],[71.820030045653056,21.489441505454998,0.0],[71.819766919397225,21.489119997083254,0.0],[71.819802746000036,21.488520873405761,0.0],[71.819514937449156,21.487826986502949,0.0],[71.81977773043107,21.48776903823666,0.0],[71.820101169562179,21.487493564747457,0.0],[71.820478832589146,21.487322666431876,0.0],[71.821050762119853,21.48741568935678,0.0],[71.821822704372323,21.487496489248759,0.0],[71.821754275352205,21.486797210857883,0.0],[71.821638196044859,21.486246458782855,0.0],[71.821440509999903,21.485546322224884,0.0],[71.821210676108436,21.484905414250964,0.0],[71.821077601967218,21.48439795108246,0.0],[71.820911342463504,21.483891911786962,0.0],[71.820557306294376,21.483395035788568,0.0],[71.82045321041997,21.483314923418391,0.0],[71.820257334526417,21.483419263388317,0.0],[71.820154178566881,21.48345089448258,0.0],[71.819858789140724,21.483125716101345,0.0],[71.819545816181602,21.482818926330427,0.0],[71.819377190790803,21.482717323691418,0.0],[71.819219089875261,21.482645944995319,0.0],[71.819044387997408,21.48247846425194,0.0],[71.818684036065946,21.48230447936745,0.0],[71.818335405178317,21.482147941897331,0.0],[71.818056931722808,21.482042602725148,0.0],[71.817730452927165,21.482022528241881,0.0],[71.817525451433951,21.481975727253861,0.0],[71.817322149121765,21.481855880317497,0.0],[71.817150805273968,21.481864329096339,0.0],[71.817025234070982,21.481390288415941,0.0],[71.817008887113715,21.48097074971313,0.0],[71.816847128877598,21.480690997185565,0.0],[71.816929078091732,21.48033466635189,0.0],[71.816758809734409,21.479709504891936,0.0],[71.816403069569674,21.47919779745396,0.0],[71.816162210788619,21.479056859199375,0.0],[71.816306682984958,21.478701370876156,0.0],[71.816150774064695,21.478380570035974,0.0],[71.815664763173118,21.478462606096361,0.0],[71.815438249433214,21.478363052725609,0.0],[71.815212364961681,21.478316478895746,0.0],[71.814799088319745,21.478362242692729,0.0],[71.814343425930645,21.478334008004587,0.0],[71.813869070765108,21.478374970663879,0.0],[71.81310470000254,21.478246005861326,0.0],[71.812968102761644,21.478174809893851,0.0],[71.812943620722692,21.477941510895388,0.0],[71.813062780883925,21.47774232105386,0.0],[71.813304782715647,21.477581462861821,0.0],[71.813545422143264,21.477615776479595,0.0],[71.813764402525422,21.477563503816882,0.0],[71.813766905757561,21.477423015808117,0.0],[71.813963427229751,21.47723780225353,0.0],[71.814262554856526,21.477139787692735,0.0],[71.814623141675042,21.476968783407337,0.0],[71.815165929059063,21.476987251736887,0.0],[71.814943647411354,21.47581803920432,0.0],[71.814511312631154,21.47531894790237,0.0],[71.814097468018218,21.475111663420499,0.0],[71.813790413296076,21.474598175718693,0.0],[71.81354108242904,21.473949267542945,0.0],[71.813386854473038,21.473355053820828,0.0],[71.813251094671614,21.472535499035345,0.0],[71.813151181286287,21.471919351714778,0.0],[71.813082764620617,21.471761788077153,0.0],[71.812938574660876,21.471671735284666,0.0],[71.812614185078743,21.471751828689715,0.0],[71.812467188042788,21.471696424810581,0.0],[71.812257566277196,21.471449796690816,0.0],[71.812102317277805,21.471201215591577,0.0],[71.811992620675454,21.470927795315923,0.0],[71.811835096513747,21.470672456361452,0.0],[71.811678704291154,21.470478578043018,0.0],[71.811506936718402,21.470329927038112,0.0],[71.811387477943512,21.470320000087611,0.0],[71.81118026047065,21.47033290725296,0.0],[71.81097224395748,21.470263824797126,0.0],[71.810754323440335,21.470145003097457,0.0],[71.810643110036665,21.469926137243789,0.0],[71.810584743901813,21.46966768978486,0.0],[71.810419526652353,21.469513654963805,0.0],[71.810211407149978,21.469435820486506,0.0],[71.809978286584496,21.46933436986485,0.0],[71.80978577469692,21.469080606194023,0.0],[71.809425657362254,21.468977642128756,0.0],[71.809141543374295,21.468945349565566,0.0],[71.808880258700114,21.46895105927851,0.0],[71.808405432989829,21.468864896463938,0.0],[71.808233125048375,21.46885156942567,0.0],[71.808117616768669,21.468761860954217,0.0],[71.808235111103514,21.468466135894751,0.0],[71.8083950049148,21.468057555592903,0.0],[71.808300149816731,21.467567559502694,0.0],[71.808375336077802,21.467277342960692,0.0],[71.808173622889186,21.46689827464991,0.0],[71.808156085370598,21.466533161354157,0.0],[71.807840349862602,21.465533780110821,0.0],[71.807676153558958,21.465536898362721,0.0],[71.807524153218921,21.46543138096261,0.0],[71.807588915023828,21.465217724088092,0.0],[71.807751178496687,21.465111277416977,0.0],[71.807936487230563,21.46503020050282,0.0],[71.808075812011012,21.464883552892864,0.0],[71.808282742147355,21.464755427076987,0.0],[71.808092046989756,21.464598007557221,0.0],[71.808068088117125,21.464424995866242,0.0],[71.80806818764529,21.464242938519519,0.0],[71.808160463181807,21.463810470459119,0.0],[71.80819734860313,21.462566872300606,0.0],[71.808249596862765,21.462436906269431,0.0],[71.808292219844134,21.462176789544031,0.0],[71.808391964625756,21.461827567659114,0.0],[71.808347631035559,21.461478813562746,0.0],[71.808315411872684,21.461210348156293,0.0],[71.808211675155206,21.460775147743512,0.0],[71.808047341462512,21.460242117384681,0.0],[71.807901155857735,21.460117027577162,0.0],[71.80766401039844,21.460006951146269,0.0],[71.807500243605816,21.459961407263314,0.0],[71.807406411021901,21.459796530255719,0.0],[71.807343019990228,21.459595012211437,0.0],[71.807377970024859,21.459451162764864,0.0],[71.807505112722367,21.459361803842036,0.0],[71.807685978522684,21.459378906136347,0.0],[71.807891062156685,21.459389300382988,0.0],[71.807877422466561,21.459189199610655,0.0],[71.807514090765537,21.458869048012442,0.0],[71.807251776630238,21.458652822433979,0.0],[71.806886741997076,21.458459744813059,0.0],[71.806587627699216,21.458364129934665,0.0],[71.806254588606365,21.458312265541078,0.0],[71.805923033633093,21.458303213197208,0.0],[71.80547986587105,21.458333816193761,0.0],[71.805180813897664,21.458350955926836,0.0],[71.805001391403295,21.45837036842477,0.0],[71.804271254424819,21.45904954053756,0.0],[71.804110097342402,21.459150030267867,0.0],[71.803810943699546,21.459026958625202,0.0],[71.8034300782044,21.458869952486047,0.0],[71.803110369964955,21.458733881303228,0.0],[71.80282519436976,21.458611795355111,0.0],[71.80257949700939,21.458473036381967,0.0],[71.802257334509463,21.458350281424298,0.0],[71.802076917799013,21.45814686977382,0.0],[71.801794162001997,21.45769394400212,0.0],[71.800976697711974,21.458204179713675,0.0],[71.800582752655984,21.458221878717691,0.0],[71.800360785343869,21.458084774761026,0.0],[71.800098662841904,21.458095253159787,0.0],[71.799481498004241,21.457969524807009,0.0],[71.798979427995349,21.45779406277828,0.0],[71.798782018651195,21.457694691125521,0.0],[71.79870390902903,21.457568693076599,0.0],[71.798712610328764,21.45749110120623,0.0],[71.798952908467768,21.457257125099193,0.0],[71.800795890989605,21.455688610067952,0.0],[71.800524438049393,21.455554839451779,0.0],[71.800145199277921,21.455419482755094,0.0],[71.799859684662906,21.455254574296706,0.0],[71.799359919139903,21.455126663514477,0.0],[71.798929181469532,21.455309393999379,0.0],[71.798247672813702,21.455049757853125,0.0],[71.797866197346181,21.454992033758277,0.0],[71.797207569851039,21.454791656340365,0.0],[71.797104529416572,21.454814534407681,0.0],[71.797043346619034,21.454912865557084,0.0],[71.796923054934638,21.455155724909268,0.0],[71.796447251599915,21.455239658966224,0.0],[71.795460320239172,21.455139479444952,0.0],[71.794444838221068,21.454747014329591,0.0],[71.793799590071075,21.454293534181723,0.0],[71.793356421464523,21.453842972568935,0.0],[71.793101176079773,21.453167776274935,0.0],[71.793033897966339,21.45248054261334,0.0],[71.79250654327322,21.452310773696119,0.0],[71.791072287167609,21.452073690764159,0.0],[71.790038012675851,21.451982147986229,0.0],[71.789345901979814,21.451971159457944,0.0],[71.788929208786328,21.452052244925188,0.0],[71.788643792792612,21.452262598227549,0.0],[71.788473934836091,21.452464508352943,0.0],[71.788336240691677,21.452727350734211,0.0],[71.788286767030939,21.453021809629465,0.0],[71.788235671736814,21.453417740051922,0.0],[71.788338816857419,21.453832708865697,0.0],[71.789644045925783,21.453971589268626,0.0],[71.790207596639419,21.454095955429601,0.0],[71.79018655157644,21.454462939635285,0.0],[71.789838084154596,21.455197499308088,0.0],[71.789748828335803,21.455314754283631,0.0],[71.789372184343492,21.4553251225956,0.0],[71.788840893511434,21.455253505576561,0.0],[71.788649239121852,21.455474410491831,0.0],[71.788538830937,21.455896984116219,0.0],[71.788144343412682,21.456926032612312,0.0],[71.78784955256377,21.458143639442088,0.0],[71.787524087924467,21.45911492911404,0.0],[71.787302686360505,21.459720687604552,0.0],[71.787084028107458,21.459850586346679,0.0],[71.786593101466096,21.459913086897945,0.0],[71.785633277357562,21.460027424591196,0.0],[71.784799628583116,21.460443552504771,0.0],[71.784326377655589,21.460724458897364,0.0],[71.783961309072168,21.460937114642434,0.0],[71.783229386399796,21.460884407356907,0.0],[71.782954531568265,21.459492784714328,0.0],[71.782887988500391,21.459235633517057,0.0],[71.782791748042897,21.459153127177061,0.0],[71.782013954428962,21.458907367822334,0.0],[71.781151008225592,21.459002836882046,0.0],[71.780551366609814,21.459005043213157,0.0],[71.779281605129285,21.458692457034747,0.0],[71.778706923499527,21.458592775024435,0.0],[71.778313267949855,21.458393911860753,0.0],[71.777942410167782,21.45785685033719,0.0],[71.77778563562957,21.457281604493712,0.0],[71.777510636293584,21.456637536221887,0.0],[71.777114283900971,21.456048480703945,0.0],[71.776611494589815,21.455600931255319,0.0],[71.775311594429013,21.455675622695978,0.0],[71.774538308891707,21.45587677499919,0.0],[71.773402594014428,21.455936782757867,0.0],[71.772718630097259,21.456059569696716,0.0],[71.772375555830166,21.456124754455956,0.0],[71.772126774278618,21.456198512434678,0.0],[71.771703945408404,21.455915217365451,0.0],[71.771533596863691,21.455641555857568,0.0],[71.771296769151931,21.455393292991015,0.0],[71.770748401240837,21.455197155063182,0.0],[71.770183253565875,21.455092311324211,0.0],[71.769936115815469,21.45515861386215,0.0],[71.769776203078536,21.455166602771477,0.0],[71.76981965488956,21.455774046276591,0.0],[71.770016901423062,21.455801037828991,0.0],[71.769974603847331,21.45605423111699,0.0],[71.769807070575553,21.45625071231299,0.0],[71.769816730172067,21.456372837431616,0.0],[71.770319191879622,21.456272408630891,0.0],[71.770508511169282,21.456263857588876,0.0],[71.770679458244302,21.456735572234866,0.0],[71.769946209801674,21.456959525146008,0.0],[71.77000033906323,21.457092990461575,0.0],[71.770086893237377,21.457249032726597,0.0],[71.770295509248967,21.45755148900124,0.0],[71.770536809217859,21.457587456849293,0.0],[71.770796553938467,21.457692377057057,0.0],[71.771127124775191,21.457796793046455,0.0],[71.771306629292852,21.458266729517476,0.0],[71.771342925346843,21.458795343421315,0.0],[71.771212329852048,21.459298684597648,0.0],[71.771395593899342,21.459555380397379,0.0],[71.771567823321647,21.459640019527583,0.0],[71.7721491075459,21.461248753414029,0.0],[71.771632111528007,21.461268227670146,0.0],[71.771215315252306,21.46166314049125,0.0],[71.771141530509581,21.462041633258508,0.0],[71.771015438321797,21.463352216400995,0.0],[71.770868934439022,21.46341611650023,0.0],[71.769177065321017,21.462909654548234,0.0],[71.768364111786198,21.463003410355821,0.0],[71.767814971647567,21.462919668187226,0.0],[71.767608929658934,21.462901965260418,0.0],[71.767279990282361,21.462665482593447,0.0],[71.767080700169558,21.462391828511855,0.0],[71.767110135381756,21.461761351750905,0.0],[71.765949399066685,21.46162035025193,0.0],[71.765408476879202,21.461690021646771,0.0],[71.765183952177409,21.461712147018709,0.0],[71.765065882174326,21.461816347726636,0.0],[71.764965097002175,21.46188882581043,0.0],[71.764880127865311,21.462005711834369,0.0],[71.764615939487371,21.462131288388683,0.0],[71.764230402306865,21.462192920078753,0.0],[71.764189220182843,21.462677290332575,0.0],[71.764049880243519,21.462939909054018,0.0],[71.763897883118531,21.463182483871666,0.0],[71.763843506809565,21.463475136980076,0.0],[71.76367806410282,21.463733599964119,0.0],[71.763498785061017,21.463828829850694,0.0],[71.763175904805507,21.463734117192281,0.0],[71.763012375485204,21.463729160874422,0.0],[71.762548095634642,21.463650450019919,0.0],[71.762093291416136,21.463613608997623,0.0],[71.761641426690119,21.463810433753206,0.0],[71.761669181876954,21.463954514517436,0.0],[71.761510634598324,21.464192841106396,0.0],[71.761378267074704,21.464736386876993,0.0],[71.761377111541776,21.464931827549691,0.0],[71.761105953940358,21.464955050857291,0.0],[71.760788170790221,21.465021761238855,0.0],[71.760480628151967,21.465198735137768,0.0],[71.760072545790521,21.465235984075637,0.0],[71.760006680912312,21.465104043633261,0.0],[71.76003439595479,21.46494872776919,0.0],[71.760238612008294,21.464248410706187,0.0],[71.760267774907277,21.463827901843519,0.0],[71.760335255036878,21.463329663010096,0.0],[71.760410130777629,21.463104469397585,0.0],[71.760399607006519,21.462969307676836,0.0],[71.759791830916754,21.463021423371014,0.0],[71.759671492986058,21.462909797723327,0.0],[71.759600274903264,21.462703238559811,0.0],[71.759597110599813,21.462406844775472,0.0],[71.759529705204741,21.46218107148815,0.0],[71.759439914742174,21.461947497595819,0.0],[71.759171145894442,21.461717415479686,0.0],[71.759139576277917,21.461519508080883,0.0],[71.759179145584028,21.461409781197155,0.0],[71.759363782525909,21.461149962597482,0.0],[71.759496655886338,21.460784993702521,0.0],[71.759651369931277,21.460095793613011,0.0],[71.759769707315854,21.459776617211528,0.0],[71.759666729907025,21.459772970568054,0.0],[71.759620720429837,21.459681659228565,0.0],[71.759597894995352,21.459592065980864,0.0],[71.759340017011894,21.459625959253369,0.0],[71.759416383326936,21.460021104865373,0.0],[71.7593956204378,21.460303937567804,0.0],[71.758972774921531,21.460423513613414,0.0],[71.758845472100361,21.460299666835031,0.0],[71.758887933868934,21.460083522731665,0.0],[71.758827799369911,21.459967388981934,0.0],[71.758633186300486,21.45990088146495,0.0],[71.758665588568931,21.459629085503401,0.0],[71.758670992667803,21.45936253398326,0.0],[71.758548537480223,21.459316640670913,0.0],[71.7584731801293,21.459366225380535,0.0],[71.758407874390016,21.459475868333264,0.0],[71.758442412185246,21.459680469661411,0.0],[71.758355447870628,21.459922511933485,0.0],[71.758257888603609,21.46009733478337,0.0],[71.757951303817677,21.460122657739657,0.0],[71.757804712977162,21.460201568779802,0.0],[71.757681800031364,21.460116495429187,0.0],[71.757715555130275,21.459990835048458,0.0],[71.757761600643718,21.459814251297868,0.0],[71.757426182967222,21.459793101656679,0.0],[71.757185454425965,21.459717309197146,0.0],[71.757124666928476,21.46007767057575,0.0],[71.756908665814834,21.460641724484201,0.0],[71.756773723047502,21.460755118647018,0.0],[71.756500771199015,21.461112580298735,0.0],[71.756283916946131,21.461491847579023,0.0],[71.756127029194246,21.461572940435062,0.0],[71.755837138366743,21.461563707132953,0.0],[71.755633194257584,21.461558053247682,0.0],[71.755398849271003,21.461710255967031,0.0],[71.755321832409223,21.461811607396715,0.0],[71.755286398391661,21.461950166470061,0.0],[71.755166929151954,21.46203176482728,0.0],[71.755102248246232,21.462108072625217,0.0],[71.754929688195233,21.462067217593738,0.0],[71.754772712606908,21.462049963467251,0.0],[71.754611337355669,21.462293879209927,0.0],[71.75473852721997,21.46257415347479,0.0],[71.755090163214447,21.462694778078969,0.0],[71.755020830904982,21.462882218385396,0.0],[71.754539347762247,21.463131501562092,0.0],[71.754203035913392,21.463230066261406,0.0],[71.753748600100792,21.463431486505758,0.0],[71.753502666210522,21.463360361324284,0.0],[71.753261191341466,21.463834917930228,0.0],[71.753008538668354,21.46424613631109,0.0],[71.752782279308235,21.464386251269659,0.0],[71.752315479467768,21.46441905310316,0.0],[71.751989290776351,21.464470927852432,0.0],[71.751622083692027,21.464818001648073,0.0],[71.751310983516206,21.464967535873775,0.0],[71.751209919751687,21.464862351371256,0.0],[71.751101463781893,21.464540996565471,0.0],[71.750751927952734,21.464224337459942,0.0],[71.750042079702226,21.464071227040101,0.0],[71.749630759027013,21.463975178046855,0.0],[71.749500848538361,21.463991909554569,0.0],[71.749059823049976,21.464011033229376,0.0],[71.748500651640853,21.464073872788827,0.0],[71.748133093787104,21.464104735370721,0.0],[71.747699709593448,21.464022577589102,0.0],[71.747554545422645,21.463902750147081,0.0],[71.74733305830712,21.463847893459697,0.0],[71.746739487001719,21.463719807641493,0.0],[71.746501391429788,21.463429067756856,0.0],[71.746267727191992,21.463415969464887,0.0],[71.745884714516592,21.463372849328625,0.0],[71.745335688735594,21.463299180653177,0.0],[71.744853669517283,21.463180259774436,0.0],[71.744551662954166,21.463101230218008,0.0],[71.744272007897479,21.463070897729054,0.0],[71.743829848302298,21.463017078857835,0.0],[71.743590586425938,21.463097248127287,0.0],[71.743581066935263,21.463365651669669,0.0],[71.74340195986008,21.463629428506273,0.0],[71.743140173129021,21.463776813916805,0.0],[71.743371704395344,21.464311958476078,0.0],[71.743366023057817,21.464651499845406,0.0],[71.74328804005475,21.464843458959471,0.0],[71.74314547170043,21.465075472368593,0.0],[71.742888227121242,21.465168708296087,0.0],[71.742547867292004,21.465201385783342,0.0],[71.742209471404522,21.465211675481811,0.0],[71.741843683634556,21.465072742396437,0.0],[71.741556640393782,21.464960780465898,0.0],[71.740976442594317,21.464602627819932,0.0],[71.740691419716015,21.464537618519117,0.0],[71.740385340086334,21.464373311536153,0.0],[71.740129484600359,21.464377850401895,0.0],[71.739695262281174,21.464603472374812,0.0],[71.739242970960902,21.464745394335299,0.0],[71.738863179760301,21.464772920045675,0.0],[71.738695668944672,21.464813742034899,0.0],[71.738575529867646,21.464550631930042,0.0],[71.738231140025746,21.464619710376187,0.0],[71.738010099766214,21.464539582219007,0.0],[71.737986134266791,21.464401888680648,0.0],[71.738405709113565,21.463315673303807,0.0],[71.738501515708222,21.462998542368844,0.0],[71.738397740508958,21.462990906736696,0.0],[71.738037574132818,21.463103748013655,0.0],[71.737716414585279,21.462994923882331,0.0],[71.737578345511977,21.4627665584275,0.0],[71.73761398124185,21.462575756391601,0.0],[71.737704225800456,21.46247504297957,0.0],[71.738124337018306,21.462079152856099,0.0],[71.738334087893691,21.461900144425929,0.0],[71.738674340079385,21.461596332818083,0.0],[71.739043154250624,21.461166488090619,0.0],[71.739149399605438,21.460957753004205,0.0],[71.739147684463148,21.460545026847942,0.0],[71.739526752796976,21.460312439042092,0.0],[71.739341890530497,21.459913101903595,0.0],[71.738925657094427,21.459847531339641,0.0],[71.738472384118154,21.459718886905559,0.0],[71.738136656485111,21.459667555200838,0.0],[71.737752275044542,21.459600208507993,0.0],[71.737354657090009,21.459841013396023,0.0],[71.737097986410745,21.460081038511792,0.0],[71.736562318164204,21.46023885204233,0.0],[71.736273955370422,21.460283433437734,0.0],[71.735961448095679,21.460193962504039,0.0],[71.735747072864612,21.460834050724319,0.0],[71.735358197449628,21.461167365181559,0.0],[71.735001254427246,21.461232702299387,0.0],[71.734748461152151,21.461137817863531,0.0],[71.734535468256752,21.460837017599751,0.0],[71.734606898935624,21.459680940749447,0.0],[71.733468479068634,21.460157872520615,0.0],[71.733319151443226,21.460240280149424,0.0],[71.733338361898277,21.460649568079951,0.0],[71.733028817627144,21.460728507025912,0.0],[71.732932014506062,21.460388703054221,0.0],[71.732661534129349,21.460498077677119,0.0],[71.732570107388526,21.461060754493996,0.0],[71.73254435414367,21.461355326796628,0.0],[71.732242545838687,21.461383031474515,0.0],[71.732277498878489,21.461490042941008,0.0],[71.732235587854092,21.461701351173016,0.0],[71.73217456816117,21.461954048897127,0.0],[71.7320672210124,21.461959798674023,0.0],[71.731798192647332,21.461785472496018,0.0],[71.731702307195619,21.461753858170439,0.0],[71.731602549143247,21.461779095488328,0.0],[71.731494763304028,21.46177176833752,0.0],[71.731372601923113,21.461781370318565,0.0],[71.731184076633937,21.461819070137526,0.0],[71.731050146264465,21.461824093315915,0.0],[71.730916295909523,21.461919926941949,0.0],[71.730748753071879,21.46195279699521,0.0],[71.7306634899861,21.461965168188399,0.0],[71.730241364255988,21.46209239283424,0.0],[71.730044666409611,21.462684037050867,0.0],[71.72992860866799,21.463198967995083,0.0],[71.729654264667715,21.463773807445843,0.0],[71.729546414286958,21.464194404612456,0.0],[71.729302566369483,21.463928623862582,0.0],[71.729116522430374,21.463708881007864,0.0],[71.72889098561275,21.463728841951955,0.0],[71.728690957241838,21.463748586363764,0.0],[71.728476343518736,21.463772907231935,0.0],[71.728533359613152,21.46411987702275,0.0],[71.728530520686917,21.464436228097842,0.0],[71.728592044085033,21.464907087628408,0.0],[71.728635034356714,21.465298730709673,0.0],[71.728719356733521,21.465652984177328,0.0],[71.728792309142236,21.466103532378732,0.0],[71.728890642674529,21.466507785535683,0.0],[71.728998544063799,21.466817506153916,0.0],[71.72915398024044,21.46749061663694,0.0],[71.729218214651638,21.467957190720046,0.0],[71.72911687655278,21.468459233310945,0.0],[71.729772743031575,21.468632319003586,0.0],[71.730074949292785,21.468761116433143,0.0],[71.731111041717966,21.468922845980916,0.0],[71.731230311283184,21.469152223977744,0.0],[71.73171171885329,21.469243870376182,0.0],[71.732043382298855,21.469282881826061,0.0],[71.732378333586226,21.469342868237611,0.0],[71.732630438155113,21.469242818053814,0.0],[71.732894736230378,21.470976900679918,0.0],[71.732448649564986,21.471398203009677,0.0],[71.732101078854754,21.471722626010873,0.0],[71.731882296514755,21.471892326923946,0.0],[71.731794942686321,21.472018338523789,0.0],[71.731208913164707,21.472678852184341,0.0],[71.730334389702747,21.473536666833684,0.0],[71.73015368843015,21.473725728291178,0.0],[71.730345990156536,21.474473404872803,0.0],[71.730766683983518,21.475663759318181,0.0],[71.73102737970288,21.476606204606313,0.0],[71.73109844010898,21.476807291574303,0.0],[71.731366083565788,21.477523598101357,0.0],[71.731866561176901,21.478806594543119,0.0],[71.732568100245473,21.480752246724077,0.0],[71.733771810900421,21.483074588394224,0.0],[71.734102498731758,21.483707279827971,0.0],[71.734989192145179,21.484625541643009,0.0],[71.735271996483661,21.484685063144195,0.0],[71.73547726076454,21.484540597611034,0.0],[71.73564362066503,21.484245077100741,0.0],[71.735729349124938,21.483858328798796,0.0],[71.735870687437469,21.483328219688662,0.0],[71.735915374548526,21.482881441735287,0.0],[71.735923460495101,21.482785742375079,0.0],[71.735962451728042,21.482630395264817,0.0],[71.736133088703767,21.48253470446404,0.0],[71.736482004540591,21.48264047225884,0.0],[71.736641500832022,21.48282722958724,0.0],[71.736936211150322,21.48306665678847,0.0],[71.737137829193614,21.483219958592581,0.0],[71.737452041782348,21.483270224572717,0.0],[71.73772435054714,21.483236895800868,0.0],[71.737981706902445,21.483203593741536,0.0],[71.738222798458452,21.483064157304831,0.0],[71.738125389194252,21.482290757495175,0.0],[71.738431400377308,21.481909630832821,0.0],[71.739583765715054,21.48171366912775,0.0],[71.740417863039596,21.481653728250826,0.0],[71.740625481988744,21.481720819039797,0.0],[71.740764815682425,21.481739571055261,0.0],[71.741008908670523,21.481597808001936,0.0],[71.741142091353311,21.481492700498819,0.0],[71.741281899915194,21.481377023804836,0.0],[71.741449491139818,21.481292202625244,0.0],[71.74153429496198,21.481195036172455,0.0],[71.741596286800259,21.481018460817335,0.0],[71.741656794223232,21.480886243497029,0.0],[71.741671954327145,21.480735915872547,0.0],[71.741747480243689,21.480511678105291,0.0],[71.741764134265722,21.480323904678052,0.0],[71.741895094012435,21.480120082432681,0.0],[71.741970581571024,21.479903541228403,0.0],[71.742005661731639,21.479671597497468,0.0],[71.742004030293757,21.479478874611488,0.0],[71.74208647353511,21.479260836288098,0.0],[71.742068720172909,21.479052954210264,0.0],[71.742089185803252,21.478844790329113,0.0],[71.74205955578158,21.47865627886474,0.0],[71.742078632140036,21.478515401095702,0.0],[71.742028400093091,21.478353021003841,0.0],[71.7419558808961,21.478171004740791,0.0],[71.741721067459125,21.477807409672891,0.0],[71.741579189937141,21.477630846687248,0.0],[71.741525109883426,21.477374028242949,0.0],[71.74166298556392,21.477155801288625,0.0],[71.741827379429608,21.476952255054851,0.0],[71.7421599314399,21.47658014498754,0.0],[71.742478670904759,21.476108970817705,0.0],[71.742700087122543,21.475809611402497,0.0],[71.742776952172392,21.475581028707687,0.0],[71.742827797277201,21.475416255055119,0.0],[71.742782575668585,21.475304400973467,0.0],[71.742755223924505,21.475240737275946,0.0],[71.742725962327242,21.475150012746404,0.0],[71.74272811403074,21.474804613439041,0.0],[71.742657496537262,21.474470554748795,0.0],[71.742594093662973,21.474217336040081,0.0],[71.742480353521827,21.474085238440228,0.0],[71.742451067283611,21.47397870899151,0.0],[71.742509781726071,21.473903917088773,0.0],[71.7425806874231,21.473901290971323,0.0],[71.742615465127869,21.473967027642669,0.0],[71.742890079912527,21.474147292886698,0.0],[71.743095983125087,21.474193879355383,0.0],[71.743271866469001,21.474259877321352,0.0],[71.743509794784103,21.47429342443959,0.0],[71.743656892070078,21.47415398274801,0.0],[71.743729848912182,21.473971499332141,0.0],[71.743779941359293,21.473769110974871,0.0],[71.743902962946692,21.473714291334151,0.0],[71.7443685312832,21.474323931238061,0.0],[71.745130823840697,21.474411035073476,0.0],[71.745234669191532,21.474602355923711,0.0],[71.74543841130199,21.47454910880111,0.0],[71.745828357729309,21.474665336895384,0.0],[71.745818602605468,21.47459343875148,0.0],[71.745500457419311,21.474158888095218,0.0],[71.745407397853469,21.473951028372678,0.0],[71.745323510079061,21.473890841308918,0.0],[71.745015685088077,21.473065778186758,0.0],[71.745063107759009,21.472888987361632,0.0],[71.74516694433737,21.472816364752788,0.0],[71.745313558617823,21.4727145497348,0.0],[71.745497580330706,21.472612475856312,0.0],[71.745745512947153,21.472582216674517,0.0],[71.746101219644189,21.472580284160479,0.0],[71.746507575944136,21.472618769602555,0.0],[71.746936547774311,21.472678220295549,0.0],[71.747263988731163,21.472682197788899,0.0],[71.74759465260604,21.472792142600039,0.0],[71.747570843100661,21.472650960956614,0.0],[71.747674746236413,21.472463239582325,0.0],[71.747820042834945,21.472367015264801,0.0],[71.748011509853953,21.472442022882582,0.0],[71.748163197468287,21.472653791726607,0.0],[71.748355302044601,21.472722961835316,0.0],[71.74879289857509,21.472797569442548,0.0],[71.749048088557956,21.47284982725747,0.0],[71.749298302012846,21.472872178957942,0.0],[71.749664863296417,21.472953732332186,0.0],[71.750047931832228,21.473039991229346,0.0],[71.750444739275309,21.473152870955552,0.0],[71.750713011174014,21.473171007622366,0.0],[71.751089900797794,21.47326756049895,0.0],[71.751443888058375,21.473355611960741,0.0],[71.751554119719145,21.47370599093178,0.0],[71.751467563305823,21.474043934736248,0.0],[71.751455029801789,21.474221899357605,0.0],[71.751410109441096,21.474387565397112,0.0],[71.751377462448716,21.474534226180388,0.0],[71.751738151434225,21.47465382187524,0.0],[71.751914461440208,21.474846723850643,0.0],[71.751959150914146,21.47514113451297,0.0],[71.752147538757896,21.47606289333493,0.0],[71.752326760740686,21.476225100375871,0.0],[71.752502055886481,21.476071480848145,0.0],[71.75278793128598,21.475976371710743,0.0],[71.752866111978292,21.476086046740935,0.0],[71.75301114759435,21.476260738478047,0.0],[71.753357891899753,21.476905602463464,0.0],[71.753425738642022,21.477125580791615,0.0],[71.753348390177905,21.477203500928734,0.0],[71.753310028326581,21.477386369024213,0.0],[71.753277642459011,21.477544791988787,0.0],[71.753284048907645,21.477893793671264,0.0],[71.753362641350279,21.478251357608137,0.0],[71.753403403220332,21.478555433437378,0.0],[71.753480477702553,21.478798903874626,0.0],[71.753659981290539,21.479312460920035,0.0],[71.753650216267928,21.479593821449967,0.0],[71.75363162617387,21.479928814529032,0.0],[71.753414420111071,21.480233444170075,0.0],[71.753306757694432,21.480301304492599,0.0],[71.753215523196957,21.480377095425077,0.0],[71.752915126325291,21.480542333614768,0.0],[71.752170924319373,21.481007051494899,0.0],[71.752024218257901,21.481705569809719,0.0],[71.752009553889977,21.482816146146298,0.0],[71.752296194851297,21.48348244066235,0.0],[71.752435674976354,21.483786434788097,0.0],[71.752559583368324,21.483837012473426,0.0],[71.752711662432716,21.483761207763656,0.0],[71.752816071542995,21.483801427087485,0.0],[71.752802313103558,21.483955611055666,0.0],[71.752877849453611,21.484357146935022,0.0],[71.752876515113925,21.484830744914809,0.0],[71.752755655541122,21.485047882302293,0.0],[71.752581824256936,21.485360216511609,0.0],[71.752505116829738,21.485462729677838,0.0],[71.752378099688798,21.485478150575641,0.0],[71.752163759241029,21.485470586529424,0.0],[71.751955009105671,21.485497612759637,0.0],[71.751781270088571,21.485532080148666,0.0],[71.75160549218333,21.485732556587337,0.0],[71.751487804003943,21.485884367319265,0.0],[71.751347707488833,21.486175497649146,0.0],[71.751208858352697,21.486328125498019,0.0],[71.750999826593116,21.486593918067186,0.0],[71.75083179216962,21.487230119611699,0.0],[71.750815366348277,21.48752554169058,0.0],[71.750765120185676,21.487694644011583,0.0],[71.750672986284101,21.488032187385542,0.0],[71.750512252106901,21.48875297022936,0.0],[71.750726848096051,21.48891773123097,0.0],[71.750930407770852,21.489203959283827,0.0],[71.750996076581643,21.489462663055157,0.0],[71.750946799000161,21.489698831818821,0.0],[71.751197012269628,21.489980955539696,0.0],[71.751450737049595,21.490199557932854,0.0],[71.751439856159664,21.490441632342471,0.0],[71.751617564051372,21.490661540331399,0.0],[71.752004952622414,21.490705454837503,0.0],[71.752310977456844,21.490786533605846,0.0],[71.752562741645662,21.490883477286125,0.0],[71.752635954125765,21.491134711639685,0.0],[71.752658408620377,21.49138717772021,0.0],[71.752721120136101,21.491603834598724,0.0],[71.752931009843962,21.491806166691639,0.0],[71.753099716678477,21.492069762324071,0.0],[71.753257817494216,21.492355014974169,0.0],[71.753401663829365,21.492612110327489,0.0],[71.753637586046523,21.492924615961194,0.0],[71.754089074469576,21.493427231101748,0.0],[71.754512478096714,21.493664971902533,0.0],[71.754788720947985,21.493895170641117,0.0],[71.7550574547124,21.49429566295527,0.0],[71.755220863553646,21.494807376373586,0.0],[71.75537271761894,21.495320300533141,0.0],[71.755119216325426,21.496176378762293,0.0],[71.754821336497884,21.496245686895307,0.0],[71.754528044532677,21.496446249840602,0.0],[71.754715549156515,21.497008215296603,0.0],[71.754714644385345,21.497163705322571,0.0],[71.754541103081479,21.497302384873571,0.0],[71.75451875244795,21.497632965550991,0.0],[71.754604008194406,21.497866803003461,0.0],[71.75476735672369,21.498159169658887,0.0],[71.754905831692525,21.498449857777924,0.0],[71.755058061242778,21.498784093325689,0.0],[71.755184943687397,21.499010161946316,0.0],[71.755324085132983,21.499204257856356,0.0],[71.755171741456735,21.499843232361677,0.0],[71.754210049796541,21.499913751874949,0.0],[71.753930717052214,21.500121091143061,0.0],[71.753671914199984,21.500560790743766,0.0],[71.753580755351251,21.500839706211679,0.0],[71.753443236908964,21.501197225863841,0.0],[71.753242042094527,21.501704354188149,0.0],[71.753004647099203,21.501812307230246,0.0],[71.752739114433894,21.501994547992805,0.0],[71.75272799794422,21.502222660914988,0.0],[71.752897584045073,21.502440938135504,0.0],[71.753318874421836,21.502773212753056,0.0],[71.753592188273899,21.503127050034738,0.0],[71.753949786219877,21.503454674933273,0.0],[71.754376745785734,21.50381214685213,0.0],[71.754596841829269,21.503969251572798,0.0],[71.755077609154398,21.504295500084236,0.0],[71.755545786895581,21.504731963560019,0.0],[71.75591341262394,21.504873892711931,0.0],[71.756499490386673,21.504680800741557,0.0],[71.757240175586048,21.504774400229532,0.0],[71.757961412725209,21.504817276372176,0.0],[71.758482182514015,21.504882238483614,0.0],[71.758888638997618,21.504980508501905,0.0],[71.759180424863715,21.50522526095785,0.0],[71.759665322153808,21.505585650506568,0.0],[71.760303520893174,21.505604901915795,0.0],[71.760920907423255,21.505648186081132,0.0],[71.761570594288912,21.505725398009258,0.0],[71.76201365250725,21.505909326969793,0.0],[71.762127744701914,21.50606170257835,0.0],[71.762394576840663,21.506969547173309,0.0],[71.762570707066445,21.507669515524238,0.0],[71.762622242845495,21.507294458290311,0.0],[71.762558965854069,21.5064162545481,0.0],[71.762819889931777,21.506224679487136,0.0],[71.76297239775748,21.506102642859481,0.0],[71.763281044980403,21.506191957649992,0.0],[71.763531983592131,21.505887006608898,0.0],[71.763777389206496,21.505114567793331,0.0],[71.764109010707458,21.50464156576486,0.0],[71.764368984363145,21.504522521183262,0.0],[71.764861318067588,21.504583278539233,0.0],[71.765657117419821,21.505016323630443,0.0],[71.765479780155133,21.504243295156957,0.0],[71.765568486361346,21.503935301791934,0.0],[71.765760701021364,21.50321432623587,0.0],[71.766023356644212,21.502896644095738,0.0],[71.76628346611561,21.502616592663635,0.0],[71.766418416313741,21.502341936932208,0.0],[71.766570115066912,21.501896643467429,0.0],[71.766944645332089,21.501518017180487,0.0],[71.76727828567698,21.501274284879269,0.0],[71.767515924985688,21.500902562392653,0.0],[71.767718111713251,21.500430424383605,0.0],[71.767693006491768,21.500040521724046,0.0],[71.76778060380839,21.49962346257308,0.0],[71.767931257840701,21.499121478124881,0.0],[71.768033131674102,21.49859692953396,0.0],[71.768118156073811,21.49806561734092,0.0],[71.768108469994871,21.49764364520523,0.0],[71.768451829195826,21.497324590675547,0.0],[71.7686389818452,21.496896578333327,0.0],[71.768626454151473,21.496447931772991,0.0],[71.768447780581113,21.496007721246578,0.0],[71.768108281060236,21.495440780205353,0.0],[71.767773516689815,21.49499068672883,0.0],[71.767854037825913,21.494647309265421,0.0],[71.768023078187966,21.494384724293312,0.0],[71.76824563346311,21.494367787439856,0.0],[71.768354128770468,21.494580836393858,0.0],[71.768673912792892,21.494470688093692,0.0],[71.768723976844981,21.494106287592999,0.0],[71.768519660193064,21.493942457972658,0.0],[71.768035002496418,21.49367661232727,0.0],[71.76802065340091,21.493587581796216,0.0],[71.767957780708556,21.49269317188552,0.0],[71.767885365459009,21.492377106988435,0.0],[71.767428395666002,21.492222805973153,0.0],[71.766959644199488,21.49209758505944,0.0],[71.766364242938224,21.491735461660227,0.0],[71.765990305241488,21.491292702382466,0.0],[71.765741215864196,21.490868540986938,0.0],[71.764976974555637,21.490787249193875,0.0],[71.764729742910475,21.490773450032368,0.0],[71.764571416802951,21.490498772158769,0.0],[71.764180787427804,21.489942821260765,0.0],[71.76395392609065,21.489966692865305,0.0],[71.763755117436062,21.489802986511069,0.0],[71.763682277709393,21.489549751753774,0.0],[71.763245771038555,21.48941331416049,0.0],[71.762908616979473,21.489131215806605,0.0],[71.762534751382958,21.488843252835849,0.0],[71.762201218652706,21.488740144329459,0.0],[71.761792134003727,21.488491752938661,0.0],[71.761469427336223,21.488268086863982,0.0],[71.761195967713689,21.488053214987236,0.0],[71.761168070696513,21.487753775774735,0.0],[71.761226138760648,21.487532883837481,0.0],[71.761431267854618,21.487131884832852,0.0],[71.761671057704959,21.486847076947779,0.0],[71.762499329506582,21.486343452488544,0.0],[71.762910453145338,21.485833458276595,0.0],[71.763141944983303,21.485498479770097,0.0],[71.763636811701261,21.486006446210773,0.0],[71.764200137791562,21.48661605772952,0.0],[71.764570574352305,21.487312283803433,0.0],[71.764939113053416,21.487784688028171,0.0],[71.765531681346715,21.488004926025091,0.0],[71.765658647775183,21.487579071678681,0.0],[71.766325885573522,21.487726739065785,0.0],[71.766615847307079,21.487894373784009,0.0],[71.766845727667061,21.48797771104384,0.0],[71.767396922592411,21.488001747129726,0.0],[71.767910416199442,21.487742577866445,0.0],[71.768190656695751,21.487445109283719,0.0],[71.767999254611752,21.486661785979415,0.0],[71.76793160904171,21.48659352953489,0.0],[71.768028027678923,21.486349175576557,0.0],[71.768108992951909,21.486120877716502,0.0],[71.768202977698436,21.485867889651473,0.0],[71.768298085313631,21.485692048928609,0.0],[71.76848883571229,21.485479487007581,0.0],[71.768611482575622,21.485394876318239,0.0],[71.769193658792474,21.485251815991543,0.0],[71.769643544621758,21.485318531576066,0.0],[71.76989180557905,21.485426708910367,0.0],[71.770421092306734,21.485564595553971,0.0],[71.770909764836006,21.48556139146703,0.0],[71.771352755343742,21.485416474274341,0.0],[71.771815003808683,21.485299317354087,0.0],[71.771730620509359,21.484913388536942,0.0],[71.771844765628174,21.484885481257461,0.0],[71.772000334084893,21.484860138448386,0.0],[71.772073215685026,21.484390882368832,0.0],[71.772205146450418,21.48408814179535,0.0],[71.772420615088009,21.483832037632183,0.0],[71.772753242828884,21.483601340070731,0.0],[71.773062758712484,21.483276514201091,0.0],[71.773462258628868,21.482866251223591,0.0],[71.773766442908993,21.482515880630533,0.0],[71.77392700476689,21.482067987703442,0.0],[71.773979353802446,21.481655421572601,0.0],[71.773836993859717,21.481389580554552,0.0],[71.773395878129776,21.481267341259866,0.0],[71.772958433797371,21.481228822727772,0.0],[71.772553272935795,21.48116258914083,0.0],[71.772359285104073,21.481053888366421,0.0],[71.772464511708122,21.480860970665592,0.0],[71.772732570759487,21.480831239913226,0.0],[71.773059850359061,21.48067807099034,0.0],[71.773386146604594,21.480484465517151,0.0],[71.773535400258154,21.480028765053518,0.0],[71.773594267438014,21.479592851154589,0.0],[71.773836112062156,21.479535112320555,0.0],[71.774091885238875,21.479546697038575,0.0],[71.77422424660972,21.479699280811989,0.0],[71.774265660843383,21.479129726515115,0.0],[71.774406425193206,21.478799919842977,0.0],[71.774782312633235,21.478701151749721,0.0],[71.775140417957672,21.478697665711707,0.0],[71.775542877982076,21.478775044278692,0.0],[71.775931818054687,21.4790159284133,0.0],[71.776248463866779,21.479300358301042,0.0],[71.776671020323747,21.479489071403638,0.0],[71.77719884187745,21.479594363676725,0.0],[71.777272867013224,21.480001778202489,0.0],[71.777303448479742,21.480487083777756,0.0],[71.777432697647697,21.481197546272103,0.0],[71.777619485394297,21.482192323875431,0.0],[71.777818436405269,21.483392759539417,0.0],[71.777984008491273,21.484098578646631,0.0],[71.778035791077428,21.484576986060691,0.0],[71.778091793403405,21.484931383977823,0.0],[71.778214030085138,21.48508571695206,0.0],[71.778297515039554,21.485221501503325,0.0],[71.778521042940085,21.48587235846443,0.0],[71.778895329913084,21.486798375217308,0.0],[71.779332790913301,21.488047050421347,0.0],[71.77981540106488,21.48915920553301,0.0],[71.779849226361762,21.490149269605524,0.0],[71.779855360603321,21.49085462434925,0.0],[71.780474268131968,21.491900246086875,0.0],[71.781052613897629,21.49247438756445,0.0],[71.781238199335021,21.493293484225411,0.0],[71.781217325422304,21.493709736285705,0.0],[71.78139243428744,21.494795466788091,0.0],[71.781843001773282,21.495194730453992,0.0],[71.782460175684676,21.495716746000916,0.0],[71.783168143193308,21.496336514333986,0.0],[71.783695384593173,21.496872189923831,0.0],[71.784313124578375,21.497327935406702,0.0],[71.785067586520853,21.4972288595098,0.0],[71.785415770044054,21.497198143779379,0.0],[71.785815148421563,21.497071220717899,0.0],[71.785996900093963,21.496768583036417,0.0],[71.78631736764541,21.496510027792183,0.0],[71.786615051429564,21.496388636016395,0.0],[71.787129461088597,21.496090239624522,0.0],[71.78777571391511,21.495592288957184,0.0],[71.788246777108299,21.495374929768744,0.0],[71.788668404039655,21.495130414715067,0.0],[71.788594134690086,21.494463411309141,0.0],[71.788711174689055,21.49433927242227,0.0],[71.78906805205601,21.494281267793639,0.0],[71.78956032510068,21.494262791565021,0.0],[71.790080611824408,21.494230350887026,0.0],[71.790126426451621,21.494487770471594,0.0],[71.78986709741892,21.495363453055653,0.0],[71.789649423819554,21.49628069572509,0.0],[71.789479175272575,21.497024820200149,0.0],[71.789250244391496,21.497562391886923,0.0],[71.788897210714936,21.498326212336195,0.0],[71.788689880174559,21.49896078845082,0.0],[71.788697501310736,21.499445301815232,0.0],[71.78906549399629,21.500030949452153,0.0],[71.78928943529607,21.500257270567602,0.0],[71.789583011967139,21.500427170409299,0.0],[71.789745345082949,21.500722326635554,0.0],[71.789773334617948,21.500974325674431,0.0],[71.789779347977515,21.501229847431016,0.0],[71.78998188630267,21.501458860282074,0.0],[71.789747699282387,21.501488062255746,0.0],[71.789346621784176,21.501401866310239,0.0],[71.789179202807389,21.501332798948024,0.0],[71.788937072323776,21.501304805884441,0.0],[71.788686431897176,21.501292604543256,0.0],[71.788445592472769,21.50127880451355,0.0],[71.78818927089803,21.501308214533239,0.0],[71.787919327652006,21.501342640454244,0.0],[71.787772205561069,21.501409818802124,0.0],[71.787470585189126,21.501589201014632,0.0],[71.787169444066464,21.501914048766086,0.0],[71.786311984179534,21.502862252472422,0.0],[71.786112383985113,21.503408794660835,0.0],[71.785914016228432,21.504164455035585,0.0],[71.786055914812067,21.504651432590087,0.0],[71.786341616451224,21.505020132517885,0.0],[71.786608253230241,21.505786326308559,0.0],[71.787093728049555,21.506303228600231,0.0],[71.788088169926908,21.506572907148076,0.0],[71.788181252400662,21.506752798248275,0.0],[71.788044591258156,21.507045934943278,0.0],[71.787909569793968,21.507212062800374,0.0],[71.78787065927834,21.507385501601611,0.0],[71.788156767646385,21.507798255398566,0.0],[71.788307384108393,21.508027367238487,0.0],[71.788214926503215,21.508457162799459,0.0],[71.788358681520918,21.508960789243051,0.0],[71.788716008033319,21.509287620952552,0.0],[71.789254209139074,21.509676259955626,0.0],[71.789539283810171,21.509958356473931,0.0],[71.789947216048262,21.509879738264651,0.0],[71.790353997344667,21.510062025747306,0.0],[71.790876867038008,21.510448285806834,0.0],[71.791329309840208,21.510649964685939,0.0],[71.791710107049255,21.510731178292762,0.0],[71.791949941606873,21.510555162724071,0.0],[71.792419521751597,21.510560645307287,0.0],[71.793005485123544,21.510666247045688,0.0],[71.793304187240821,21.51076858254984,0.0],[71.793796861302965,21.510989664157695,0.0],[71.793973114424873,21.511147355750989,0.0],[71.794054519510766,21.511333453842873,0.0],[71.794459161841615,21.511487779520504,0.0],[71.795971024328054,21.512007903163379,0.0],[71.796187943575134,21.511732383032914,0.0],[71.796271499870031,21.511250587467678,0.0],[71.7962476188588,21.510864055307447,0.0],[71.796156682533436,21.510468064509226,0.0],[71.795947285761386,21.510207241740694,0.0],[71.795835730591776,21.510078216424994,0.0],[71.795618779193745,21.509993593485692,0.0],[71.795654558152634,21.50977975505598,0.0],[71.795922195160571,21.509763603096534,0.0],[71.796389851456325,21.509703213621833,0.0],[71.796891200483699,21.509585524169239,0.0],[71.797246331339323,21.509455377101855,0.0],[71.797671211286271,21.509283051830469,0.0],[71.798042047361719,21.509070261949532,0.0],[71.798441025294025,21.508706930387785,0.0],[71.798732810480459,21.508503540545913,0.0],[71.799213010084017,21.508329438065399,0.0],[71.799828312184559,21.508182923818101,0.0],[71.800242431942252,21.508122779982376,0.0],[71.801347105227336,21.508083677370209,0.0],[71.801978619632635,21.508133294230955,0.0],[71.802862242401361,21.507984657178657,0.0],[71.803956672493754,21.5076505373655,0.0],[71.804509321131903,21.507440863875971,0.0],[71.8046595878766,21.506760768727979,0.0],[71.804856823182021,21.506349990354998,0.0],[71.805349472180083,21.505803894257966,0.0],[71.806018801151126,21.5053108733029,0.0],[71.80652639096904,21.505168528921939,0.0],[71.806810655137326,21.505600026688949,0.0],[71.807205233129693,21.505742734459446,0.0],[71.807813965894283,21.505690640320921,0.0],[71.808499848010513,21.50552175504167,0.0],[71.808932561896427,21.505426105921277,0.0],[71.810199666880052,21.505275039029776,0.0],[71.810650467948065,21.505324328931842,0.0],[71.811440506405873,21.505452332333697,0.0],[71.812006354059932,21.505561173641006,0.0]]]]}}
]
}
