{
"type": "FeatureCollection",
"name": "Tracks",
"crs": { "type": "name", "properties": { "name": "urn:ogc:def:crs:OGC:1.3:CRS84" } },
"features": [
{"type":"Feature","properties":{"id":1,"Name":"Track"},"geometry":{"type":"MultiLineString","coordinates":[[[71.766437788291682,21.461447946590951],[71.766324556071197,21.461529008989075],[71.766180838252893,21.461589805758077],[71.765649517833765,21.461642496270706],[71.765248849976714,21.461683027421298],[71.765004965194152,21.461865417459471],[71.764730594813784,21.462193718952967],[71.764382187981568,21.462546338251855],[71.764270362876218,21.462814315861046],[71.764240516343875,21.463191286659338],[71.763967633762533,21.463429372976883],[71.763880226060721,21.463600001265174],[71.763794950254052,21.463766661260866],[71.763607343479393,21.463861895458546],[71.763185228236395,21.463973001943845],[71.762746057832089,21.464044427496795],[71.761799496378117,21.464302352813224],[71.761611889603458,21.464619798729792],[71.761442537641969,21.464979140721677],[71.761420696090454,21.465541510350388],[71.761686434967231,21.465795592302118],[71.762039540050097,21.465920939235108],[71.762294358151138,21.465971755528571],[71.762345213676753,21.465977434880745],[71.762418445633628,21.465952824353078],[71.762703236577039,21.465860061557585],[71.762994130183486,21.46568778763783],[71.76327610818997,21.465544403917054],[71.76353483027836,21.465433484338167],[71.763860413131198,21.465327975392082],[71.764098786291299,21.465317153957393],[71.764255763738205,21.465322564674832],[71.764613323478358,21.46540913612662],[71.765023209034126,21.465495707526969],[71.765302280050847,21.465555225334874],[71.765469431961904,21.465717546505591],[71.765611874460006,21.465866340753234],[71.765757223947887,21.466031366922902],[71.765838619661096,21.466101705889223],[71.765826991702056,21.466144991390095],[71.765760130937636,21.466136875359659],[71.765585711552205,21.466036777613819],[71.765341524412577,21.465947501187898],[71.765074081354911,21.465906920976213],[71.764899661969451,21.465863635404638],[71.764690358706929,21.465863635404638],[71.764379310802894,21.465925858409737],[71.764133670168405,21.466020545540449],[71.763959250782932,21.466117937953562],[71.76376157547945,21.466247794403106],[71.763619132981333,21.466404704125235],[71.763575528134979,21.466510212291638],[71.763706342674041,21.466426346832264],[71.763845878182408,21.466374945397806],[71.763994134660038,21.466350597343581],[71.764212158891851,21.466296490541847],[71.764348787410441,21.466288374519852],[71.764526113785621,21.4663289546253],[71.764784835874053,21.466437168184569],[71.764938906331182,21.46651832830128],[71.765148209593718,21.466648184393989],[71.764970883218524,21.466659005729817],[71.764738324037936,21.466626541719904],[71.764491229908558,21.466650889728022],[71.764284833635784,21.466691469732499],[71.764113321240103,21.466756397716168],[71.764005762619078,21.466818620340028],[71.763970878741958,21.466883548267031],[71.764040646496142,21.466897074914847],[71.764252856748456,21.466891664255868],[71.764491229908529,21.466951181493563],[71.764691812201804,21.467051278611205],[71.764927278372141,21.467186544877137],[71.765177279491283,21.467384033399899],[71.765328442958676,21.467516594038994],[71.765404024692359,21.467619396084242],[71.765459257497753,21.467719492742816],[71.765479606426055,21.467843937141353],[71.765444722548963,21.467933212405267],[71.76530518704061,21.468071183160067],[71.765142395614205,21.46825784926741],[71.765026116023904,21.468409346222199]]]}},
{"type":"Feature","properties":{"id":1,"Name":"Track"},"geometry":{"type":"MultiLineString","coordinates":[[[71.765026116023904,21.468409346222199],[71.765145165548887,21.468442695325638],[71.765425025133581,21.468462193710341],[71.765612097048503,21.468519296107679],[71.765746788827229,21.468652999194404],[71.765908418961715,21.468751883690018],[71.766004199782145,21.468774167510752],[71.766092497725992,21.468756061906664],[71.766197257998328,21.468694781383835],[71.766291542243437,21.468630715355133],[71.766450179227277,21.468558292853988],[71.766590857307278,21.468510939660689],[71.766892665489678,21.468470748323572],[71.767065416477848,21.468551130986715],[71.767244337144163,21.468729121011563],[71.767447936523041,21.468912852422015],[71.767545108953897,21.469047780029015],[71.767668502516869,21.469096583600773],[71.767973901585222,21.4690736172161],[71.768168246446891,21.469036296833284],[71.768544596813953,21.468953043637168],[71.768876217014423,21.468858307183734],[71.769098325427763,21.468832469958461],[71.76929575512851,21.468823857549022],[71.769591899679625,21.468889886008391],[71.769912722943346,21.469039167632303],[71.770440230425052,21.469277443753548],[71.77074871433247,21.469426724980337],[71.770932262257375,21.469573135265716],[71.77111735260182,21.469719545403954],[71.771524551359633,21.469616197086356],[71.771743574933893,21.469610455511006],[71.771870053335945,21.469731028545819],[71.77199344689889,21.469883180090207],[71.772153858530771,21.470118584053285],[71.772545633093188,21.470262122868469],[71.772827895868488,21.470285089065776],[71.773253603660734,21.470285089065776],[71.773707075004623,21.470290830614545],[71.77419756441742,21.470305184485451],[71.774774429324296,21.470256381318585],[71.77507365871449,21.470187482702229],[71.775838698804904,21.470175999596332],[71.776054637540113,21.470173128819724],[71.776211964332902,21.470227673565727],[71.776344612413084,21.470256381318585],[71.776411643745888,21.470279313813762],[71.776552719752772,21.470289236622563],[71.776591180966747,21.470291208657464]]]}},
{"type":"Feature","properties":{"id":1,"Name":"Track"},"geometry":{"type":"MultiLineString","coordinates":[[[71.769921803164792,21.464799385905877],[71.770026950105674,21.464588316752064],[71.770155921023573,21.464433706908821],[71.770407305016036,21.464191620114224],[71.770625899792108,21.464165173633308],[71.770752684762215,21.464207894869329],[71.77084886646368,21.464277062558246],[71.771227035426278,21.464089902853651],[71.771008079221659,21.463714462749671],[71.770899925870353,21.463575465875415],[71.770642417891082,21.463426882863214],[71.770178903528347,21.463124923371637]]]}},
{"type":"Feature","properties":{"id":1,"Name":"Track"},"geometry":{"type":"MultiLineString","coordinates":[[[71.791936917821133,21.483151149926289],[71.792036617006502,21.483526484165601],[71.792050310435329,21.483733216767686],[71.792144656180525,21.483905662785968],[71.792338401907273,21.484264663386927],[71.792473181543272,21.484459056355941],[71.792682089979095,21.484708317928302],[71.792875835705843,21.484860382954654],[71.793057788214441,21.484987364968351],[71.793239740723067,21.485167647883934],[71.793450333904318,21.485369878019188],[71.793685355894596,21.485589352266668],[71.793934698221207,21.48574141637264],[71.79425311511126,21.485943645710755],[71.794472974392477,21.486045544108002],[71.794772859082599,21.48614117176977],[71.795027255645564,21.486266585001438],[71.795264804754026,21.486330859240795],[71.795560477580494,21.486354374199323],[71.79587047074331,21.486255611347982],[71.796098753751778,21.48616468675894],[71.796314401169397,21.486094141780029],[71.796457604532648,21.486051814776278],[71.796678306186607,21.486036138105096],[71.796960501049483,21.486076897446654],[71.7972907111577,21.486081600446862],[71.797486984002632,21.48605024710923],[71.797855100883467,21.485968728399769]]]}},
{"type":"Feature","properties":{"id":1,"Name":"Track"},"geometry":{"type":"MultiLineString","coordinates":[]}},
{"type":"Feature","properties":{"id":1,"Name":"Track"},"geometry":{"type":"MultiLineString","coordinates":[]}},
{"type":"Feature","properties":{"id":1,"Name":"Track"},"geometry":{"type":"MultiLineString","coordinates":[]}},
{"type":"Feature","properties":{"id":1,"Name":"Track"},"geometry":{"type":"MultiLineString","coordinates":[]}},
{"type":"Feature","properties":{"id":1,"Name":"Track"},"geometry":{"type":"MultiLineString","coordinates":[]}},
{"type":"Feature","properties":{"id":1,"Name":"Track"},"geometry":{"type":"MultiLineString","coordinates":[]}},
{"type":"Feature","properties":{"id":1,"Name":"Track"},"geometry":{"type":"MultiLineString","coordinates":[[[71.778230109922092,21.484356081610034],[71.778496183008073,21.484279161763723],[71.778919833358543,21.484043594481534],[71.779167823807597,21.483947444460899],[71.779389981918214,21.483971481972013],[71.779550142416568,21.484067631976774],[71.779699969979546,21.484192626888028],[71.779860130477886,21.484336851652266],[71.780044831697765,21.484557996013237],[71.780091329906966,21.484769525087614],[71.780096496374654,21.485029128531533],[71.78028378082837,21.485317576259547],[71.780345778440648,21.485500259524986],[71.780601518591212,21.485985811300182],[71.780801719214153,21.48629108312165],[71.78099287851866,21.486557894976706],[71.781153039016985,21.48674538409578],[71.781153039016985,21.487012195118062],[71.781393279764515,21.487242950202379],[71.781426861804505,21.487336694350883],[71.781411362401428,21.487425631051341],[71.781217619863114,21.487697248205507],[71.781150455783148,21.487865506365331],[71.781083291703212,21.48814914110871],[71.781111707275485,21.488221251548556],[71.781209870161561,21.488312591387746],[71.781300283346141,21.488454408392879],[71.781328698918415,21.488533729708372],[71.781305449813814,21.488716408937208],[71.781295116878425,21.488810152136661],[71.781527607924431,21.488867840229386]]]}},
{"type":"Feature","properties":{"id":1,"Name":"Track"},"geometry":{"type":"MultiLineString","coordinates":[[[71.796434110335738,21.484566984765227],[71.79639750820796,21.484591597287288],[71.796233788251797,21.48465716751506],[71.796342606543874,21.484746049075355],[71.796825056977085,21.48509404155762],[71.797018276273263,21.48523999342645],[71.797157334199213,21.48535959133217],[71.797218365755043,21.485395720635751],[71.797331997412797,21.485441297171047],[71.797429784167122,21.485504651721566],[71.79750130511178,21.48562054299116],[71.797541853955295,21.485642718223318],[71.797636488801331,21.485684585043437],[71.797663154765999,21.485698264175596],[71.797671254921809,21.485716525088865],[71.797691564107183,21.485806345071687],[71.797735160490987,21.485849976187403],[71.797787053997894,21.485916261206892],[71.797852748861018,21.485967997279577]]]}},
{"type":"Feature","properties":{"id":1,"Name":"Track"},"geometry":{"type":"MultiLineString","coordinates":[[[71.801311274677445,21.489812824692898],[71.801554546270424,21.489978677207521],[71.801766435487423,21.490195682759641],[71.801854648626843,21.490273255765526],[71.801979241843071,21.490311345851978],[71.802022489290891,21.490342467939374],[71.802036352069663,21.490395747275585],[71.802086306259326,21.490463782894263],[71.802204257136722,21.490567742320373],[71.80236286431176,21.490662743251384],[71.802575355607601,21.490778250622022],[71.802745140159629,21.490890775955585],[71.802926740352731,21.490991626383611],[71.803005194714089,21.491051552317192],[71.803086710635228,21.491182943196531],[71.803104817631137,21.491253614400911],[71.803100733147602,21.491334679748579],[71.803126999797541,21.491402261479479],[71.803185857743244,21.491459648227689],[71.803281361664787,21.491532883556687],[71.803337553998247,21.491606447930927],[71.803370470251139,21.491687139954021],[71.803417844017304,21.491741060972593],[71.803602554751421,21.491911212917245],[71.803740446032251,21.492028536290505],[71.803877053413345,21.492125278606562],[71.803962465627492,21.49218425549758],[71.804009227958232,21.492213280635102],[71.804110584196977,21.492230368051516],[71.80428436107178,21.492266152564472],[71.804593036554905,21.492397564078125],[71.804852439321166,21.492482591458376],[71.804957661800586,21.492534373694383],[71.805032346497086,21.492555277717077],[71.80511476796157,21.492539544657781],[71.805178039081895,21.49255373866313],[71.805230674039109,21.492578548232132],[71.805262343864158,21.492610529937341],[71.805333725082946,21.492676811073935],[71.805383681579642,21.492744845975505],[71.805547529955504,21.492811814807926],[71.805620489993103,21.492911665458493]]]}},
{"type":"Feature","properties":{"id":1,"Name":"Track"},"geometry":{"type":"MultiLineString","coordinates":[[[71.804117647145048,21.496374721247633],[71.804243168864417,21.496323682607528],[71.804391490330318,21.496255902562901],[71.804465546749157,21.496226782114935],[71.8045268711532,21.49622032166836],[71.804575502993742,21.49620139737215],[71.804610343582269,21.496195746798996],[71.804659133168826,21.49616960534453],[71.804749296414869,21.496103642623012],[71.80485140174639,21.496020760604473],[71.804943825708193,21.495983721651879],[71.805032058594279,21.495961945239461],[71.805082204150054,21.495962002661027],[71.805135535159948,21.495992806702162],[71.805214515932718,21.496001010013],[71.80525285424423,21.496022774093106],[71.805300943082642,21.496065755013941],[71.805359429830631,21.49610033168765],[71.805447130901328,21.496106789976388],[71.80552847632697,21.496123641675361],[71.805607009363129,21.496128968483347],[71.805662330983552,21.496121424056305],[71.805767015286591,21.496098573747197],[71.805868448671546,21.496084264421487],[71.80599730478049,21.496030331240647],[71.806086894299909,21.495973734674827],[71.806160927777753,21.495951253453754],[71.806261778462385,21.495916858420042],[71.806326581201546,21.495896112319702],[71.806398115270824,21.495847773337886],[71.806499552196144,21.495739783575821],[71.806585943622508,21.495665918958419],[71.806661143997715,21.495636768380457],[71.80677007882349,21.495606351355701],[71.806848674328336,21.495608810989168],[71.80690920161048,21.495690266238736],[71.806950808416104,21.495796213405676],[71.807001856382826,21.495844030090808],[71.807159607883833,21.495916830155124],[71.807223594975937,21.495980189031137],[71.807324671871285,21.4960289626848],[71.807401453631712,21.496067712342448],[71.807547955324679,21.496094412722492],[71.807693155132995,21.496110572955999],[71.807747176522923,21.496097600883271],[71.807884634702319,21.49615752461704],[71.808033970753556,21.49623422719969],[71.808161771008344,21.496300332087216],[71.808267564753322,21.49631508746798],[71.808511309339266,21.496283395074002]]]}},
{"type":"Feature","properties":{"id":1,"Name":"Track"},"geometry":{"type":"MultiLineString","coordinates":[[[71.798877214114825,21.502003793053632],[71.798549925234553,21.502128153838747],[71.798306860034842,21.50223126804196],[71.798165415559851,21.50223508592693],[71.797659132719872,21.502246525744592],[71.797312631449387,21.502187799944998],[71.797137883534191,21.502226756975869],[71.797025140639363,21.502292941748539],[71.796916850143063,21.502354329838706],[71.796821426834171,21.502344361237597],[71.796713310230174,21.502278818830909],[71.796590120395507,21.502186949304484],[71.79649411341947,21.502163950485532],[71.796332388777543,21.502164100172713],[71.796222204107011,21.502192904333427],[71.796027827057088,21.502334006586828],[71.795766019623059,21.502576336975796],[71.79571971748797,21.502668535755088],[71.795710127275825,21.50273751833862],[71.795713037668307,21.502788976844752],[71.795741160235195,21.502832604397337],[71.795785092974924,21.502865638704133],[71.795868788790472,21.502901695577446],[71.79595797552966,21.502935034113779],[71.796009651207413,21.502972735038682],[71.796042255726249,21.50302701218158],[71.796024727703426,21.50311082305263],[71.795967745960311,21.503177498609066],[71.795781770321,21.503264851653906],[71.795609515539056,21.503345691004125],[71.795395085593114,21.503464687717265],[71.79516319353236,21.503526873943549],[71.795005381868222,21.503582011632417],[71.794974920051857,21.503622653061473],[71.794981598042739,21.503675867608106],[71.795014660402714,21.503709258061463],[71.795056477454864,21.503728697987302],[71.795164231634715,21.503740933228045],[71.795334894461021,21.503746470234983],[71.795549959583198,21.503722363474541],[71.79563449759614,21.503720033833641],[71.795687123272018,21.503741940182888],[71.795696718612788,21.503799728738219],[71.795664840016272,21.503849943811979],[71.795617710843999,21.503880099811067],[71.795493910214674,21.503911606982822],[71.795177780911743,21.503976128487217],[71.794989017603797,21.503997916223739],[71.794760333538107,21.503996346941857],[71.794603912623259,21.504001813127051],[71.7945018482351,21.504019053682399],[71.794436035617011,21.504061839550236],[71.794409875568178,21.504153955498143],[71.794434371944448,21.504357735165708],[71.794477104998236,21.504527980374419],[71.79449558364783,21.504620953955861],[71.794506959813745,21.504707578858937],[71.794538184190543,21.504769736217288],[71.794593091085062,21.504811452918155],[71.794647576148705,21.50483113635336],[71.794723669564007,21.50482864500766],[71.794817037252812,21.504808978312763],[71.794902856611429,21.50480328524278],[71.795010178152125,21.504835278515365],[71.795076331628593,21.504873257884739],[71.795126764051417,21.504912629486771],[71.795167247670051,21.504965363911968],[71.795177747656069,21.505023169855605],[71.795176527207303,21.50513383693178],[71.795125305926234,21.505295500300985],[71.795081158775474,21.505492313877653],[71.794934884774378,21.506091244284963],[71.794894122726291,21.50627071821074],[71.794765102264932,21.506599594254393],[71.794584183930112,21.506969886381956],[71.794528059894219,21.507074841516115],[71.794335558381434,21.50719838281206],[71.793990387767067,21.507308386626192],[71.793795499844535,21.507331732158345],[71.793712349354621,21.507288852649936],[71.793663090878411,21.507209213204931],[71.793544470617732,21.507023747007743],[71.793460290892526,21.506902154903155],[71.793362821692853,21.506695164401133],[71.793312289121417,21.50657937915744],[71.793278462762771,21.506550347994146],[71.793223287716287,21.506551867531289],[71.79319237818936,21.506578364323008],[71.793189952973094,21.50662604934325],[71.793199269465774,21.506766843248897],[71.793218836498028,21.50700587755378],[71.793213372285592,21.507066404599193],[71.793193514667735,21.507091823775703],[71.793157432805671,21.507102740592622],[71.793116348575055,21.507090340447206],[71.793044929835929,21.507015435053159],[71.792927547515902,21.506930615739428],[71.792849852793779,21.506890420816678],[71.792775414452223,21.506890279824034],[71.792682807809229,21.506901399903029],[71.792576610464295,21.506966440469682],[71.792393530321618,21.507111275483506],[71.792292334936818,21.507199632791792],[71.792235772317468,21.507264337416114],[71.792179851444885,21.507362595479812],[71.792138238696538,21.507499829942056],[71.792113954313493,21.507601276387071],[71.79207507852648,21.507676641377628],[71.791989266744721,21.507754973910025],[71.791871402994673,21.507786248461731],[71.791731076539051,21.507773229477234],[71.79165919552392,21.507782167417595],[71.791648247032342,21.507841298819887],[71.791721213199565,21.507908494279807],[71.791834404849581,21.507995813942753],[71.791875876018736,21.508053373361996],[71.791854385195052,21.508090371315493],[71.791831346475277,21.508135079754034],[71.791760314848943,21.508105332771439],[71.791662403465509,21.50804410778181],[71.791524172554759,21.507935665750487],[71.791459077806294,21.507886682200983],[71.791409923994422,21.507865096124107],[71.791353030679289,21.507882062446146],[71.791340902338746,21.507932140823872],[71.791403854394119,21.508015914351873],[71.79161217254547,21.508259868885826],[71.791728422143777,21.508396269076119],[71.791747902367788,21.508450825514249],[71.79173327300721,21.508489245443517],[71.791692745266701,21.508514266859002],[71.791626998845615,21.508494941791501],[71.791478696926205,21.508405656629026],[71.791379549138753,21.508337957473024],[71.791327129433199,21.508339529303495],[71.791289159368503,21.50837363010946],[71.791278380594136,21.508425024474793],[71.791296256079178,21.508489870420082],[71.791503149777228,21.508673165738013],[71.791591934671615,21.508741955580454],[71.791689931408413,21.508799312167842],[71.791799093671756,21.508850433226847],[71.791907246182618,21.508884764246247],[71.792013152512411,21.508895831232177],[71.792150950663,21.508898481129716],[71.792349606556442,21.508891980792725],[71.792602456769131,21.508865881531754],[71.792740481462786,21.508858214945263],[71.792963035151814,21.508893454732348],[71.793181983793033,21.508967326250229],[71.793361508955357,21.509015928842096],[71.793487019463598,21.509107354498639],[71.793611416577548,21.509218109340878],[71.793728055415727,21.509305494188894],[71.793919728422665,21.509365940130518],[71.794049146140253,21.509373587613634],[71.794193390850381,21.50933378828104],[71.794421446687821,21.509243997588875],[71.794594552559332,21.509145410406589],[71.794705555497217,21.509112712106223],[71.794789442951256,21.509122064228436],[71.79491240662901,21.509235370749828],[71.794998344510063,21.50937118664503],[71.795036042859508,21.509475114597052],[71.795042633248997,21.509614566149878],[71.794976286412066,21.509873880622237],[71.794897271198636,21.510019427622908],[71.794811176220179,21.51011065662523],[71.794712000051831,21.510232595297861],[71.794657711976498,21.510319275195481],[71.794583472425387,21.510498454925372],[71.794503370023548,21.510567868104378],[71.794483823329557,21.510579102881024],[71.794154566148777,21.510568905066265],[71.793959522554204,21.510567736492128],[71.793611143430411,21.510549429812585],[71.793090373146882,21.510534258430763],[71.792753075077997,21.510513582921231],[71.792435550539267,21.510471356235506],[71.7923144850499,21.510459997886883],[71.792202640788489,21.510468167426687],[71.792110305377676,21.510529603827237],[71.792023915998541,21.510602764906061],[71.7919039159991,21.510793963435116],[71.791768823545638,21.511013252493441],[71.791657015756613,21.51114526638613],[71.791583348574747,21.511235442424248],[71.791440477860249,21.511463611792969],[71.791440477860249,21.511463611792969]]]}},
{"type":"Feature","properties":{"id":1,"Name":"track"},"geometry":{"type":"MultiLineString","coordinates":[[[71.804461102077468,21.506534133458089],[71.80443780706419,21.50670644616029],[71.804384207867116,21.506803426935342],[71.804375221821672,21.506889634253884],[71.804402195123899,21.506954935510223],[71.80447490233621,21.507039385356585],[71.8045101566575,21.507127333346247],[71.804530949742357,21.507213824977043],[71.80454099819508,21.507272985498439],[71.804526776288427,21.507347012830174],[71.804504535488547,21.507384326370218],[71.804380715635716,21.507456254341665],[71.804251727744884,21.507533980011438],[71.804104860226303,21.507593672635466],[71.803684365502065,21.507717704982721],[71.803072962476534,21.507898225172575],[71.802828025134417,21.507976086290256],[71.802537633406743,21.508057793243744],[71.80239957249151,21.508089348405097],[71.802230817748509,21.508083754957241],[71.80205476261186,21.508066227804125],[71.801911677952205,21.508068202276164],[71.801727062771434,21.508038717094465],[71.80162615390995,21.508042679258967],[71.801571597613915,21.50805932365467],[71.801478479528981,21.508052820872297],[71.801350651365198,21.508077495183688],[71.801117288322899,21.508087172809827],[71.800895598620826,21.508081742310114],[71.800668405279936,21.508097434404711],[71.800414757251303,21.508112618793447],[71.800211731477518,21.508118159561768],[71.80000593813422,21.508163745133498],[71.799749434848081,21.508194205356045],[71.79964027022163,21.508229850553487],[71.799491181051962,21.508247039363393],[71.79940407773482,21.508253623732578],[71.799304196150345,21.508268218381666],[71.798992174385631,21.508416727164594],[71.798808038535086,21.508480417080069],[71.798658839658344,21.50856010886352],[71.798450142029012,21.508709419958507],[71.79828310932875,21.508826508469273],[71.798204998498619,21.508882797690617],[71.798058421786038,21.508957821761598],[71.7979662726583,21.509022096882365],[71.797896902352605,21.50908209177447],[71.797797566023959,21.50915802237424],[71.797547656672307,21.509290030062132],[71.797313648908101,21.509415266496067],[71.797169797561452,21.509480907163994],[71.79704931959202,21.509515153914929],[71.796640454196833,21.509596933747694],[71.796416572736675,21.509633911698693],[71.796206609569992,21.509697102433968],[71.795951588788839,21.509774759034791],[71.795780522570809,21.509845772425145],[71.79567129694972,21.50994156062189],[71.795573176254635,21.510048176236801],[71.795491674224337,21.51017280133091],[71.795371257990112,21.510319086478507],[71.795175652968481,21.510474541114757],[71.794986370814001,21.510542844870578],[71.794843319412522,21.510571938734266],[71.794610324400637,21.510593407346644],[71.794483823329557,21.510579102881021]]]}},
{"type":"Feature","properties":{"id":1,"Name":"Track"},"geometry":{"type":"MultiLineString","coordinates":[[[71.815191782164533,21.504188205150381],[71.815693689090992,21.504075638110734],[71.816013992722361,21.503984531947118],[71.81656831428198,21.503730284303355],[71.816878491098265,21.503647927064861],[71.81708127864205,21.503582194208349],[71.817323366419402,21.503544372273147],[71.817493034546217,21.503500075881032],[71.817743929784328,21.503474304475429],[71.81781187038645,21.503436555517112],[71.817892759868741,21.503303988054615],[71.817979273722557,21.503163039811369],[71.818054428897781,21.503078935246275],[71.818169971253809,21.503031319886958],[71.818291905893119,21.502966906762559],[71.818490389563081,21.502846614596383],[71.818605859189987,21.502779258010541],[71.818890632147216,21.502547813346858],[71.819172628310895,21.502328534859871],[71.819332156522222,21.502152040279938],[71.819455194260556,21.502036888441637],[71.819468242444458,21.501945019414684],[71.81945673848719,21.501735185287064],[71.819428415753322,21.501605868595629],[71.819406795908478,21.501537778165204],[71.819372187302264,21.501512679091444],[71.819290862634247,21.501511128934823],[71.819165954694668,21.50148148862004],[71.819008518832817,21.50144652824924],[71.818861191989441,21.501339382261925],[71.818817761328205,21.50128121572433],[71.818784380081411,21.501199741352369],[71.8187085443097,21.501130617266242],[71.818569763145021,21.501046193427872],[71.818418913652181,21.500962479366585],[71.818170709194035,21.500944587145135],[71.818019073246646,21.500920076248541],[71.817933690537643,21.500874269210922],[71.817840645650236,21.500857455271994],[71.817713998152669,21.500861619909625],[71.817543347771149,21.500833926051431],[71.817459768683804,21.500797552945183],[71.817395267050415,21.500807602460732],[71.817291333787253,21.500852618942481],[71.817254740514628,21.500873488271971],[71.817151452807281,21.500863706895675],[71.817106925794874,21.500838642548697],[71.817063964374498,21.500780019458929],[71.817023898181191,21.500741760969451],[71.816972288400478,21.500735308612803],[71.8168881915729,21.500764168519996],[71.816751803667074,21.500779532789139],[71.816624422414435,21.500764604698983],[71.816498930983315,21.500739557879971],[71.816371243652426,21.500738684097993],[71.816271498490934,21.500757871575548],[71.816167036474539,21.500763689790208],[71.816028111548334,21.500780567310606],[71.815822558133476,21.500752430078737],[71.815580839216324,21.500736881645757],[71.815431604503573,21.500745711074906],[71.815251301888367,21.500812334360685],[71.815107540370732,21.500856300100413],[71.814876978109595,21.500875254141636],[71.814765713228766,21.500891295137706],[71.814590641356205,21.500845136158222]]]}},
{"type":"Feature","properties":{"id":1,"Name":"Track"},"geometry":{"type":"MultiLineString","coordinates":[[[71.814440062677775,21.502236648541547],[71.81467178168613,21.502155412907609],[71.814794062162136,21.502076266390244],[71.814914726031191,21.502020070670902],[71.81501283236598,21.502002293221789],[71.815138797570626,21.502003186004092],[71.815349386364886,21.50197590493282],[71.815602791971642,21.501950692726457],[71.815737531701288,21.501906939418799],[71.815897899492356,21.501915007741005],[71.816028601147778,21.501933777995596],[71.816178734084716,21.501920366458148],[71.81626958922287,21.501925856052821],[71.816369396563459,21.501950296666063],[71.816470404935274,21.501981020225688],[71.81660028746677,21.501975986077497],[71.816732217606713,21.501999787302491],[71.816875502081587,21.502055105479769],[71.816986691225139,21.502109811302166],[71.817089309783015,21.502128045043271],[71.81714839678682,21.502117903966688],[71.817179727352112,21.502092209205284],[71.817204149910125,21.501953701016724],[71.817234824546347,21.501896693268208],[71.817297730842469,21.501834040201654],[71.817364539984808,21.501776469619795],[71.817460524548025,21.501730723630086],[71.817630687796793,21.501657595874452],[71.817800987153319,21.501578210427219],[71.817960944186439,21.50154370024994],[71.818180317004249,21.501545379416235],[71.818369313257335,21.501528950829609],[71.818519663818577,21.501505525103163],[71.818589231032874,21.501505599451757],[71.818645016511724,21.501524191312413],[71.818677114227782,21.501586152234168],[71.818746631726157,21.501711427551648],[71.818818071185703,21.50177914658034],[71.818913540228962,21.501818527230466],[71.819025274994743,21.50184820175193],[71.819110508759934,21.501866102837734],[71.819196396318389,21.50185396786086],[71.819324911795661,21.501788808527955],[71.81945673848719,21.501735185287064],[71.819619441584209,21.501656700206983],[71.81974618365976,21.501611539039882],[71.819828358709003,21.501585560730195],[71.81990889685342,21.501573323409978],[71.820013872752881,21.501513974972678],[71.820058028262693,21.501452215400114],[71.820097814847927,21.501345299797812],[71.820128975465778,21.501204415230955],[71.820145664749504,21.500929288625354],[71.820245741671911,21.50087986279485]]]}},
{"type":"Feature","properties":{"id":1,"Name":"Track"},"geometry":{"type":"MultiLineString","coordinates":[[[71.81218937642484,21.504408620856729],[71.812030035143948,21.504490199062381],[71.811837602010272,21.504518576121935],[71.811605481292148,21.504482086441424],[71.811361849371025,21.504435486103098],[71.81112267558332,21.504355764659991],[71.810994097376735,21.504342821043778],[71.810714311089839,21.504326987042365],[71.810424735295868,21.504246301205534],[71.810041803651927,21.504121885698812],[71.809689407324157,21.50401028701171],[71.809506505246503,21.503919405601895],[71.809331757080969,21.503797221692651],[71.809145768028074,21.503762206672],[71.808935775685853,21.503800134943265],[71.808743270841603,21.503806939178855],[71.808514613721982,21.503758873611044],[71.808386799696905,21.503710989085778],[71.808184923103354,21.503719361094056],[71.807975426855634,21.503734577797509],[71.807883230801451,21.503766019853479],[71.807827797343961,21.503824380381275],[71.807808515852386,21.503937610593191],[71.807818266135371,21.504004208924062],[71.807875632904796,21.504199298798468],[71.807968124808767,21.504410789779296],[71.808172775537187,21.504617435717211],[71.808311596938026,21.504759905719048],[71.808562768227532,21.504888795631693],[71.808788321694976,21.504950783388772],[71.809001474305362,21.505024767441949],[71.809190397256103,21.505096540178045],[71.809398064464617,21.505165175816209],[71.809452198488188,21.505251847386646],[71.809505818801014,21.505319284636347]]]}},
{"type":"Feature","properties":{"id":1,"Name":"Track"},"geometry":{"type":"MultiLineString","coordinates":[[[71.806959176226513,21.505880475700472],[71.806887993776826,21.505769581118063],[71.806816170044897,21.505688033393209],[71.806746048551418,21.505528603557476],[71.806688432710018,21.505349087499795],[71.806682478623003,21.505290255239203],[71.806714309773668,21.5052140790139],[71.806711754713376,21.505110143885389],[71.806664967004494,21.504987294984531],[71.806533110603198,21.504836846280607],[71.806433277540194,21.504711852816602],[71.806362117911391,21.50465516003397],[71.806325541681105,21.504617196378586],[71.806302726437465,21.504556912170756],[71.806287518115553,21.504479835604517],[71.806285012641354,21.504373643049782],[71.806305917194194,21.504245314642674],[71.806273184253683,21.504141931078408],[71.806235454109469,21.504046356241048],[71.806232161906109,21.50392095226405],[71.806298759556753,21.503634281581245],[71.806312947856185,21.503426780741474],[71.806287309138952,21.503219646770855],[71.80622653105732,21.503046845332804],[71.806109865589434,21.502863940531782],[71.806050905223941,21.50277360529466],[71.805948905465698,21.502692608945257],[71.8059156548766,21.502612928602694],[71.805848293076977,21.502437742665364],[71.805759309007257,21.502230525260394],[71.805728575187686,21.502035714924158],[71.805711698013425,21.501869399791044],[71.805690289628799,21.501744778226257],[71.805639525981533,21.501665891797316],[71.805598893850018,21.501537514623152],[71.805488871802112,21.501437168165864]]]}},
{"type":"Feature","properties":{"id":1,"Name":"Track"},"geometry":{"type":"MultiLineString","coordinates":[[[71.794952479954105,21.457347446319567],[71.795212498055037,21.457368817670329],[71.795217840892718,21.457457864965164],[71.795093174679948,21.458006396301354],[71.79502193684408,21.45828066196945],[71.794996986260315,21.458401181891141],[71.794959560384669,21.458804549661917],[71.794969956461244,21.458920985719459],[71.795021936844066,21.458977124532918],[71.795109263887227,21.458970886886977]]]}},
{"type":"Feature","properties":{"id":1,"Name":"Track"},"geometry":{"type":"MultiLineString","coordinates":[[[71.794952479954105,21.457347446319567],[71.794862489756241,21.457343126885199],[71.79480020428251,21.457389840990494],[71.794748299721078,21.45747029306072],[71.794709371300002,21.457606542534489],[71.794693799931565,21.457636387657317],[71.794561443299912,21.457654554253818],[71.79447580077354,21.457741494394227],[71.794426491440177,21.457810267938129],[71.794407027229639,21.457916672289073],[71.794408324843673,21.458139861903248],[71.794435574738429,21.4583513729911],[71.794426491440177,21.458389003798139],[71.794353825054159,21.458588836359667],[71.794333063229587,21.458674478886039],[71.794329170387485,21.458788668921194],[71.794351229826091,21.458914537482677],[71.794401187966471,21.459050786956446],[71.794459580598087,21.459115667658242],[71.794549115966561,21.459159786535462],[71.79469055589648,21.459198714956539],[71.794838483896569,21.459224667237258],[71.794912447896621,21.4592116910969],[71.794998090422993,21.4591610841495],[71.795055185440575,21.459081929693308],[71.795109263887227,21.458970886886977],[71.795214791966984,21.458818514044019],[71.795337416493382,21.45866669320182],[71.795424356633788,21.458547312710518],[71.795468475511001,21.458521360429799],[71.795522975300514,21.458521360429799],[71.795550225195271,21.458542122254375],[71.795567094177727,21.458566776921057],[71.795611213054954,21.458770502324693],[71.795633921300578,21.459006668079226],[71.795665064037436,21.459076739237165],[71.795741623265556,21.459198714956539],[71.795781849300681,21.459292143167126],[71.795862301370903,21.459412821272462],[71.79592458684462,21.459523118465516],[71.795944051055159,21.459580213483093],[71.795953134353411,21.459759284220045],[71.795962217651663,21.459831950606056],[71.795992062774488,21.459855307658703],[71.796019312669245,21.459844926746417],[71.796042669721899,21.459826760149912],[71.796069919616642,21.459768367518297],[71.796081598142976,21.459704784430539],[71.79608938382718,21.459645094184886],[71.796116633721937,21.459623034746276],[71.796152966914946,21.459626927588381],[71.796173728739518,21.459651582255066],[71.796185407265838,21.459694403518249],[71.796199681020241,21.459755391377939],[71.796203573862343,21.459829355377984],[71.796168538283382,21.459938354957],[71.796150371686878,21.45999415236054],[71.796060836318389,21.460143377974671],[71.795942753441125,21.46030817495723],[71.795892795300745,21.460369162816914],[71.79577471242348,21.460474269553824],[71.795740974458539,21.460533959799477],[71.795665712844468,21.460688375869747],[71.79560472498477,21.460846684782126],[71.795522975300514,21.461032243589262],[71.795467177896967,21.46112307657177],[71.795430844703958,21.461187957273566],[71.795397106739031,21.461254135589396],[71.795388023440779,21.461319016291192],[71.795415273335536,21.461447480080746],[71.795436035160108,21.461614872291378],[71.795459392212749,21.461705705273889],[71.79550480870401,21.461813407238871],[71.79552816575665,21.461875692712596],[71.795530760984732,21.461913323519635],[71.795519082458412,21.461941871028426],[71.795487939721539,21.461952251940712],[71.795372452072343,21.461944466256497],[71.795292000002121,21.46195354955475],[71.795229714528404,21.461973013765288],[71.795165482633621,21.462014537414433],[71.795107090002006,21.462069037203939],[71.795040911686172,21.462161167800492],[71.794929316879092,21.462307798186547],[71.794868977826425,21.462409012081345],[71.794839132703586,21.462472595169103],[71.7948287517913,21.462530987800722],[71.794831347019382,21.462616630327091],[71.794846918387805,21.46275936787104],[71.794899471756267,21.463013700222074],[71.794939697791378,21.46302408113436],[71.795059078282677,21.462987747941355],[71.795188839686261,21.462955307590459],[71.795309517791608,21.462943629064135],[71.795392565089912,21.462956605204493],[71.795467826703984,21.462989045555389],[71.795484695686454,21.463035759660684],[71.7954717195461,21.46307858092387],[71.795248529931925,21.463405579660915],[71.795188839686261,21.463509388783788],[71.795147316037117,21.46360670983648],[71.795107090002006,21.463722197485676],[71.795116173300258,21.463798756713789],[71.79513693512483,21.463818220924328],[71.795171970703805,21.463822113766437],[71.795219982423134,21.463797459099755],[71.79536661280919,21.463636554959301],[71.795458094598715,21.463567781415403],[71.795535951440868,21.463505495941678],[71.79559304645845,21.463491222187283],[71.795625486809357,21.463515876853965],[71.795635867721643,21.463582055169798],[71.795624189195308,21.463680673836528],[71.795508701546112,21.463896077766485],[71.795472368353117,21.463986910748996],[71.795482749265403,21.464072553275368],[71.795506106318044,21.464193231380705],[71.795539844282985,21.464272385836892],[71.795634570107595,21.46438398064398],[71.795691665125176,21.464434587591381],[71.795830509827027,21.464518932503715],[71.796200748856876,21.464707584044326],[71.796303667739053,21.464800606880139],[71.796331376668874,21.464897588134498],[71.796315542994691,21.465085613015404],[71.796372940063591,21.465156864549218],[71.796386794528502,21.465305305244666],[71.796454087643767,21.46548541328848],[71.79646992131795,21.465616041100475],[71.796521380759046,21.465703126308473],[71.796563933758407,21.465734793656832],[71.796708416035301,21.465764481795922],[71.796795501243309,21.465778336260833],[71.79685289831221,21.465823858074103],[71.796939983520204,21.465974277978827],[71.797074569750748,21.466235533602816],[71.797229937678651,21.466506685273171],[71.797372440746287,21.466643250712984],[71.797469422000646,21.466736273548797],[71.797590153766279,21.466920340011157],[71.797628748347094,21.466973778661519],[71.797662394904719,21.46707273912515],[71.797640623602717,21.467140032240419],[71.797583226533817,21.467165761960963],[71.797452598721819,21.467179616425874],[71.797397180862191,21.467203366937145],[71.797331866956185,21.467262743215326],[71.797316033282002,21.467371599725322],[71.797310095654197,21.467525978048588],[71.797282386724376,21.467810984183853],[71.797266553050193,21.467947549623663],[71.797205197562747,21.468058385342932],[71.797151758912378,21.468171200271474],[71.797023110309652,21.468258285479472],[71.796859825544658,21.468402767756377],[71.796853887916839,21.468521520312734],[71.796875659218841,21.468660064961821],[71.796812324522122,21.468743191751273],[71.796615393199488,21.468861944307633],[71.796476848550412,21.469055906816351],[71.796385804923858,21.469192472256164],[71.79633533508742,21.469317162440344],[71.796323459831783,21.469418102113249],[71.796351168761589,21.469513104158334],[71.79641252424905,21.469542792297425],[71.796505547084863,21.469515083367607],[71.796616382804132,21.469437894205974],[71.796717322477036,21.46939633081125],[71.796845971079762,21.469354767416522],[71.796954827589744,21.469299349556888],[71.797049829634844,21.469261744580709],[71.7971250395872,21.469275599045616],[71.797128998005746,21.469332996114524],[71.797073580146105,21.469443831833793],[71.796802428475758,21.469649669598148],[71.79671336405849,21.469760505317417],[71.796661904617395,21.469861444990325],[71.796616382804132,21.469990093593047],[71.796657946198849,21.470302808658126],[71.79669950959358,21.470421561214486],[71.796826178987033,21.470568022700661],[71.796877638428114,21.4705581266543],[71.796938993915575,21.470504688003938],[71.79707753856465,21.470441353307212],[71.797176499028282,21.470488854329755],[71.797319002095918,21.470613544513935],[71.797395201652918,21.470702608931202],[71.797464473977456,21.470763964418655],[71.797523850255644,21.470817403069017],[71.797614893882184,21.470880737765743],[71.797761355368351,21.470904488277014],[71.797899900017441,21.470932197206832],[71.798052299131442,21.471019282414829],[71.798182926943426,21.471092513157917],[71.798336315662056,21.471227099388457],[71.798401629568062,21.471331997479908],[71.798415484032972,21.471510126314445],[71.798395691940243,21.471692213567533],[71.79834621170842,21.471927739470978],[71.798372931033597,21.472513585415683],[71.798353138940882,21.472701610296586],[71.798341263685245,21.472871822294035],[71.798400639963418,21.473111306616026],[71.798483766752867,21.473443813773834],[71.798555018286692,21.473722882281276],[71.798612415355592,21.473885177441634],[71.79863814507614,21.474003929997995],[71.79853324698469,21.474098932043084],[71.79835115973161,21.474170183576899],[71.798236365593795,21.47420976776235],[71.798130477897701,21.474330499527984],[71.798229438361332,21.474562067012883],[71.798259126500426,21.474740195847424],[71.798269022546791,21.474837177101783],[71.798243292826243,21.474892594961418],[71.798172041292432,21.474902491007782],[71.798015683759886,21.47489457417069],[71.797873180692264,21.474868844450146],[71.797744532089538,21.474831239473964],[71.797665363718636,21.474807488962693],[71.797604008231175,21.474779780032875]]]}},
{"type":"Feature","properties":{"id":1,"Name":"Track"},"geometry":{"type":"MultiLineString","coordinates":[[[71.794595703927001,21.457649851814804],[71.794595339453252,21.457513827349118],[71.794612871530205,21.457394024823248],[71.794633325619984,21.457344350605208],[71.794691765876507,21.457275683303795],[71.794820334440857,21.457177795874124],[71.794867086646065,21.457122277630429],[71.794864164633239,21.456998092085325],[71.79487146966531,21.456866601508153],[71.794941597973136,21.456615308405112]]]}},
{"type":"Feature","properties":{"id":1,"Name":"Track"},"geometry":{"type":"MultiLineString","coordinates":[[[71.794746260198082,21.47974287695758],[71.795001738734086,21.479890044195912],[71.795102074438134,21.480078479760682],[71.795151992285639,21.480276768230965],[71.795185530990722,21.480478786137311],[71.795274795606062,21.480651402625121],[71.795336343739692,21.480863717483789],[71.795424248444519,21.480977180343061],[71.795685126923459,21.481153971133622],[71.795859518515343,21.481285904419522],[71.795972943940967,21.48136506433368],[71.796063684281464,21.481475888141198],[71.796158916581817,21.481619644650561]]]}}
]
}
