{
"type": "FeatureCollection",
"name": "Roads",
"crs": { "type": "name", "properties": { "name": "urn:ogc:def:crs:OGC:1.3:CRS84" } },
"features": [
{"type":"Feature","properties":{"icon":null,"CAT":"VR(NP)","NAME":"Dedarda Hathsani Road","FROM_KM":0.0,"TO_KM":4.0,"BSSLANE":4.0,"SSLANE":0.0,"INTER":0.0,"SDLANE":0.0,"SMLTL":0.0,"CAR_WIDTH":0.0,"FOR_WIDTH":5.0,"LAND_WIDTH":10.0,"LENGTH_ROA":4.0,"SURFACE":"Earthen","SP":null,"REMARK":null,"CAT_SP":"VR(NP) P","CAT_SURFAC":"VR(NP) Earthen","NEW_SURFAC":"Earthen","YEARS":"DEVL. IN 2006 OR BE.","SH_NH_ID":null,"DISTRICT":"Bhavnagar","Category":"Village Road"},"geometry":{"type":"MultiLineString","coordinates":[[[71.71775942013079,21.486643877587653,0.0],[71.717581725357604,21.486291436297279,0.0],[71.71708203854638,21.485869081968701,0.0],[71.717159371029197,21.48529206267466,0.0],[71.717367573867079,21.484822119126079,0.0],[71.71754008478996,21.484483045932734,0.0],[71.717563879400188,21.484019051036512,0.0],[71.717563879400188,21.48365023458075,0.0],[71.717772082238071,21.483317110039991,0.0],[71.717891055288305,21.482496195992837,0.0],[71.718004079686182,21.481669333293326,0.0],[71.718182539261647,21.480884111161345,0.0],[71.718319358269525,21.479991813284357,0.0],[71.718462125929761,21.479254180372436,0.0],[71.718515663802407,21.477963322776873,0.0],[71.718533509759993,21.476404775818025,0.0],[71.718604893590225,21.4758931917018,0.0],[71.718741712598103,21.47521504531511,0.0],[71.718771455860519,21.473888495804317,0.0],[71.718884480258339,21.473335271120504,0.0],[71.718979658698572,21.472942660054514,0.0],[71.7192413994091,21.471663699763951,0.0],[71.719312783239502,21.47130678061302,0.0],[71.719330629196918,21.470646480183916,0.0],[71.719425807637208,21.470093255500103,0.0],[71.719628061822675,21.468403838185964,0.0],[71.719752983525495,21.467356875343285,0.0],[71.719818418703142,21.466648985694007,0.0],[71.719788675440554,21.466250425975602,0.0],[71.719699445652907,21.465917301434672,0.0],[71.719628061822675,21.465691252639203,0.0],[71.719598318560088,21.465352179445858,0.0],[71.719651856432677,21.464941722422452,0.0],[71.71962211317009,21.464549111356462,0.0],[71.719556677992443,21.464198140858116,0.0],[71.719390115722149,21.463567583691486,0.0],[71.719134323664036,21.462984615745029,0.0],[71.718646534157813,21.46198524212258,0.0],[71.718378844794699,21.461283301125889,0.0],[71.718140898694003,21.460367208638672,0.0],[71.718021925643768,21.459808035302217,0.0],[71.718010028338767,21.459510602676517,0.0],[71.717902952593533,21.458957377992647,0.0],[71.718117104084001,21.457720058269729,0.0],[71.718105206779001,21.457279857983565,0.0],[71.718004079686182,21.456863452307573,0.0],[71.717944593161121,21.456637403512048,0.0],[71.717873209330889,21.456363765496349,0.0],[71.717754236280655,21.456018743650588,0.0],[71.717397317129723,21.455447673009132,0.0],[71.717294575228323,21.454790476885137,0.0]]]}},
{"type":"Feature","properties":{"icon":null,"CAT":"VR(NP)","NAME":"Dedarda Dudhala Road","FROM_KM":0.0,"TO_KM":3.0,"BSSLANE":3.0,"SSLANE":0.0,"INTER":0.0,"SDLANE":0.0,"SMLTL":0.0,"CAR_WIDTH":0.0,"FOR_WIDTH":5.0,"LAND_WIDTH":10.0,"LENGTH_ROA":3.0,"SURFACE":"Earthen","SP":null,"REMARK":null,"CAT_SP":"VR(NP) P","CAT_SURFAC":"VR(NP) Earthen","NEW_SURFAC":"Earthen","YEARS":"DEVL. IN 2006 OR BE.","SH_NH_ID":null,"DISTRICT":"Bhavnagar","Category":"Village Road"},"geometry":{"type":"MultiLineString","coordinates":[[[71.717065183217997,21.492153122813779,0.0],[71.717081146234193,21.491962706834897,0.0],[71.717116838149195,21.4917128634292,0.0],[71.717252467426647,21.491448743257649,0.0],[71.717402373469952,21.491127516021891,0.0],[71.717516587598254,21.490820565552042,0.0],[71.717559417896268,21.490463646401281,0.0],[71.717580833045417,21.490021066654208,0.0],[71.717890162976175,21.490023446115117,0.0],[71.718090037700563,21.489987754200058,0.0],[71.718218528594946,21.489909231986815,0.0],[71.71833988110626,21.489616558283217,0.0],[71.718461233617575,21.48940954517559,0.0],[71.718561170979797,21.489338161345529,0.0],[71.718596862894799,21.489009795726588,0.0],[71.71862541642696,21.488774229087142,0.0],[71.718882398215555,21.488674291724919,0.0],[71.719039442641872,21.488560077596446,0.0],[71.719089411323012,21.488445863468201,0.0],[71.719253594132567,21.488431586702291,0.0],[71.719346393111721,21.488238850360744,0.0],[71.719246455749328,21.487967591806068,0.0],[71.719226150425527,21.487711602584454,0.0]]]}},
{"type":"Feature","properties":{"icon":null,"CAT":"VR(NP)","NAME":"Nani Mandedarada Road","FROM_KM":0.0,"TO_KM":3.0,"BSSLANE":0.0,"SSLANE":3.0,"INTER":0.0,"SDLANE":0.0,"SMLTL":0.0,"CAR_WIDTH":3.75,"FOR_WIDTH":6.0,"LAND_WIDTH":10.0,"LENGTH_ROA":3.0,"SURFACE":"BT","SP":null,"REMARK":null,"CAT_SP":"VR(NP) P","CAT_SURFAC":"VR(NP) BT","NEW_SURFAC":"BT","YEARS":"31 March 2010-11","SH_NH_ID":null,"DISTRICT":"Bhavnagar","Category":"Village Road"},"geometry":{"type":"MultiLineString","coordinates":[[[71.739949405475841,21.505829389484859,0.0],[71.739216457513237,21.505349182199041,0.0],[71.738264467630586,21.50511329090051,0.0],[71.737607341870898,21.504557261411776,0.0],[71.736958640800594,21.503984382544218,0.0],[71.736074048431817,21.502964995148034,0.0],[71.734793495669521,21.501574921425629,0.0],[71.733479244150203,21.500437588380066,0.0],[71.732771570255238,21.499797311998861,0.0],[71.732417733307557,21.499485598497415,0.0],[71.731979649467974,21.499182309685409,0.0],[71.731625812520292,21.498803198670316,0.0],[71.731280400262222,21.49840723827657,0.0],[71.730707521394663,21.497910181612326,0.0],[71.730294711622719,21.497632166867731,0.0],[71.729216351401703,21.49700031517591,0.0],[71.727826277679412,21.496149421563985,0.0],[71.726924835932209,21.495610241453448,0.0],[71.726326682997069,21.495104760099935,0.0],[71.725981270738771,21.494826745355567,0.0],[71.724683868598049,21.493824207337639,0.0],[71.723950920635275,21.49327660253789,0.0],[71.723428589903335,21.49273742242741,0.0],[71.722864135725217,21.49207187197851,0.0],[71.722055365559527,21.49132207463731,0.0],[71.721305568218327,21.490513304471619,0.0],[71.720960155960086,21.490125768767314,0.0],[71.720437825227975,21.489316998601623,0.0],[71.71996604263137,21.489038983857085,0.0],[71.719578506927007,21.488794667869513,0.0],[71.719351040317918,21.488626174084914,0.0],[71.718626517044356,21.488263912448247,0.0],[71.718390625746054,21.48775000640552,0.0],[71.718078912244607,21.487362470701044,0.0],[71.717952541906243,21.486890688104381,0.0],[71.71786002127476,21.48657586427305,0.0]]]}},
{"type":"Feature","properties":{"icon":null,"CAT":"MDR","NAME":"Gjeti Nanimal Road","FROM_KM":0.0,"TO_KM":3.6,"BSSLANE":3.6,"SSLANE":0.0,"INTER":0.0,"SDLANE":0.0,"SMLTL":0.0,"CAR_WIDTH":3.6,"FOR_WIDTH":6.0,"LAND_WIDTH":24.0,"LENGTH_ROA":3.6,"SURFACE":"BT","SP":null,"REMARK":null,"CAT_SP":"MDR P","CAT_SURFAC":"MDR BT","NEW_SURFAC":"BT","YEARS":"DEVL. IN 2006 OR BE.","SH_NH_ID":null,"DISTRICT":"Bhavnagar","Category":"Major District Road"},"geometry":{"type":"MultiLineString","coordinates":[[[71.739949405475841,21.505829389484859,0.0],[71.740199685918753,21.505953370719737,0.0],[71.740818345780269,21.505977165329796,0.0],[71.741722540962428,21.506441160225961,0.0],[71.741996178978127,21.506583927886254,0.0],[71.743138320260869,21.507273971577945,0.0],[71.743590417852033,21.508035399099867,0.0],[71.744922916015241,21.509367897263019,0.0],[71.74786155035747,21.512651553451065,0.0],[71.749955476042601,21.514781171051368,0.0],[71.751311768815981,21.516387307230275,0.0],[71.752894110384887,21.518290876034882,0.0],[71.754036251667571,21.519385428097564,0.0],[71.75705816714509,21.519492503842855,0.0],[71.760579769433605,21.519492503842855,0.0],[71.763042511574668,21.519373530792564,0.0],[71.764279831297642,21.519242660437328,0.0],[71.76482710732904,21.519171276607096,0.0],[71.765579552047996,21.518881797249094,0.0]]]}},
{"type":"Feature","properties":{"icon":null,"CAT":"MDR","NAME":"Palitana Dungarpur Road","FROM_KM":0.0,"TO_KM":9.0,"BSSLANE":9.0,"SSLANE":0.0,"INTER":0.0,"SDLANE":0.0,"SMLTL":0.0,"CAR_WIDTH":3.6,"FOR_WIDTH":6.0,"LAND_WIDTH":24.0,"LENGTH_ROA":9.0,"SURFACE":"BT","SP":null,"REMARK":null,"CAT_SP":"MDR P","CAT_SURFAC":"MDR BT","NEW_SURFAC":"BT","YEARS":"DEVL. IN 2006 OR BE.","SH_NH_ID":null,"DISTRICT":"Bhavnagar","Category":"Major District Road"},"geometry":{"type":"MultiLineString","coordinates":[[[71.822634218141332,21.5218115312564,0.0],[71.822045618560878,21.521777409541585,0.0],[71.821917127666495,21.519021993696811,0.0],[71.82180739499114,21.517646577442633,0.0],[71.821189012598722,21.51655211317285,0.0],[71.82107479847059,21.513653929667782,0.0],[71.820275299572586,21.510855683524881,0.0],[71.820018317783877,21.509313792792966,0.0],[71.820103978380132,21.508485740362971,0.0],[71.820218192508435,21.507543473804674,0.0],[71.820218192508435,21.505801708348372,0.0],[71.820289576338666,21.502560882458624,0.0],[71.820189638976274,21.499834020145784,0.0],[71.820218192508435,21.49799231732743,0.0],[71.820289576338496,21.49695011340674,0.0],[71.820789263149891,21.494380295520443,0.0],[71.821374610557257,21.491867584698241,0.0],[71.821845743836263,21.489683239494866,0.0],[71.821959957964737,21.489154999151708,0.0],[71.822059895326959,21.48818417906125,0.0],[71.821974234730646,21.487484617525581,0.0],[71.821731529708188,21.486328199476816,0.0],[71.821374610557257,21.485186058193904,0.0],[71.821174735832813,21.484529326956363,0.0],[71.82106052170451,21.48408674720929,0.0],[71.820874923746032,21.483615613930056,0.0],[71.820403790466798,21.482373535285149,0.0],[71.819932657187735,21.481188563704166,0.0],[71.819804166293352,21.48033195774201,0.0],[71.819475800674581,21.47867585288202,0.0],[71.818961837097277,21.477519434833255,0.0],[71.818005293772899,21.476377293550343,0.0],[71.816920259554365,21.475049554309123,0.0],[71.815706734441392,21.472836655573758,0.0],[71.814793021415085,21.471494639566458,0.0],[71.813465282173865,21.469781427642147,0.0],[71.812637229743871,21.468696393423556,0.0],[71.811523641993176,21.467097395627547,0.0]]]}},
{"type":"Feature","properties":{"icon":null,"CAT":"ODR","NAME":"Dungerpur Jalia Hathej Road","FROM_KM":0.0,"TO_KM":13.0,"BSSLANE":13.0,"SSLANE":0.0,"INTER":0.0,"SDLANE":0.0,"SMLTL":0.0,"CAR_WIDTH":3.6,"FOR_WIDTH":6.0,"LAND_WIDTH":18.0,"LENGTH_ROA":13.0,"SURFACE":"BT","SP":null,"REMARK":null,"CAT_SP":"ODR P","CAT_SURFAC":"ODR BT","NEW_SURFAC":"BT","YEARS":"DEVL. IN 2006 OR BE.","SH_NH_ID":null,"DISTRICT":"Bhavnagar","Category":"Other District Road"},"geometry":{"type":"MultiLineString","coordinates":[[[71.811523641993176,21.467097395627547,0.0],[71.811103476660605,21.466122475373879,0.0],[71.810170727946229,21.465513333356341,0.0],[71.808704979966706,21.465037441155118,0.0],[71.808191016389401,21.464561548953895,0.0],[71.808114873637237,21.46444733482582,0.0],[71.808095837949168,21.464104692440969,0.0],[71.80821005207747,21.463571693175595,0.0],[71.808248123453552,21.462943515469988,0.0],[71.808324266205773,21.462296302076368,0.0],[71.808438480334019,21.461725231435139,0.0],[71.808307609978613,21.460892420082985,0.0],[71.80816484231832,21.460142889866233,0.0],[71.807807923167388,21.459179208158844,0.0],[71.807332030966336,21.458727110567622,0.0],[71.806546808834412,21.458429677941922,0.0],[71.805547435211963,21.458596240212387,0.0],[71.805321386416324,21.458846083618084,0.0],[71.804952569960506,21.459072132413553,0.0],[71.804500472369341,21.459072132413553,0.0],[71.803286947256424,21.458608137517388,0.0],[71.802121011363511,21.458096553401163,0.0],[71.801490454197051,21.456775952542955,0.0],[71.801133535046063,21.45597883310603,0.0],[71.800883691640365,21.455550530124867,0.0],[71.800693334760069,21.455455351684634,0.0],[71.800015188373379,21.45530068671934,0.0],[71.800003291068379,21.454479772672187,0.0],[71.799979496458207,21.453730242455435,0.0],[71.799836728797914,21.453016404153743,0.0],[71.799622577307446,21.452754663443045,0.0],[71.797697171018626,21.451534173909806,0.0],[71.796529277999866,21.451100938043908,0.0],[71.795482315157244,21.450922478468613,0.0],[71.794708990330321,21.450862991943438,0.0],[71.794114125078863,21.451029554213903,0.0],[71.793614298618991,21.451416732134021,0.0],[71.793126648761415,21.451683905990365,0.0],[71.792829216135715,21.451767187125597,0.0],[71.792567475425187,21.45186236556583,0.0],[71.792246248189258,21.452124106276585,0.0],[71.791579999107739,21.452005133226294,0.0],[71.790580625485291,21.451838570955829,0.0],[71.789938171013659,21.451779084430598,0.0],[71.788772235120746,21.45186236556583,0.0],[71.788272548309521,21.451945646701063,0.0],[71.787415942347536,21.451969441311121,0.0],[71.786761590570848,21.452017030531294,0.0],[71.786357082199856,21.452076517056355,0.0],[71.785643243898164,21.452028927836295,0.0],[71.784620075665714,21.452124106276585,0.0],[71.783906237363851,21.452088414361526,0.0],[71.783144809842099,21.452159798191587,0.0],[71.782502355370411,21.452219284716818,0.0],[71.781562468273194,21.45224307932682,0.0],[71.780931911106563,21.452278771241822,0.0],[71.780015818619347,21.45224307932682,0.0],[71.779266288402596,21.452064619751354,0.0],[71.777874303714043,21.452373949682055,0.0],[71.776839238176535,21.452718971528043,0.0],[71.77569709689385,21.453028301458744,0.0],[71.77497136128693,21.453337631389502,0.0],[71.774186139155006,21.453349528694503,0.0],[71.773162970922556,21.453563680184971,0.0],[71.77234205687563,21.453849215505727,0.0],[71.771473553608416,21.454099058911424,0.0],[71.770819201831785,21.454372696927123,0.0],[71.770283823105501,21.454705821467883,0.0],[71.769736547074103,21.45495566487341,0.0],[71.768653892316593,21.455122227143875,0.0],[71.767856772879497,21.455193610974106,0.0],[71.767440367203506,21.455455351684634,0.0],[71.766714631596756,21.455657605870272,0.0],[71.765965101379834,21.455562427430038,0.0],[71.765453517263609,21.455419659769575,0.0],[71.764977625062443,21.455479146294806,0.0],[71.764477938251218,21.455681400480273,0.0],[71.763609434984232,21.456192984596498,0.0],[71.763097850867837,21.456538006442258,0.0],[71.762681445191845,21.456894925593247,0.0],[71.762062785330386,21.457228050134006,0.0],[71.761337049723636,21.457049590558483,0.0],[71.760373368016246,21.456740260627782,0.0],[71.75906466446304,21.456419033392024,0.0],[71.758124777365651,21.456014525021033,0.0],[71.757268171403666,21.455610016650098,0.0],[71.756482949271742,21.455336378634343,0.0],[71.755769110969823,21.455157919058877,0.0],[71.754734045432372,21.454967562178581,0.0],[71.754151077485915,21.454931870263408,0.0],[71.753330163438989,21.455193610974106,0.0],[71.753020833508231,21.455348275939343,0.0],[71.752794784712535,21.455383967854573,0.0],[71.751724027260082,21.455038946008642,0.0],[71.750938805128158,21.454646334942652,0.0],[71.750724653637633,21.454384594232124,0.0],[71.750677064417459,21.45399198316619,0.0],[71.750625398396437,21.453664767920316,0.0],[71.750177377606235,21.453123479898977,0.0],[71.749201798593788,21.452611895782752,0.0],[71.747155462128887,21.451945646701063,0.0],[71.745846758575567,21.45161252216036,0.0],[71.74385990863567,21.451124732654137,0.0],[71.743419708349677,21.451624419465361,0.0],[71.742979508063684,21.452159798191587,0.0],[71.742087210186298,21.452290668546823,0.0],[71.74011225755163,21.45224307932682,0.0],[71.738196791441851,21.452219284716818,0.0],[71.734591908018047,21.45185046826083,0.0],[71.73400894007159,21.451743392515596,0.0],[71.7327597230435,21.451886160175889,0.0],[71.731641376370817,21.452219284716818,0.0],[71.730677694663541,21.452397744292284,0.0],[71.729142942314695,21.452254976631821,0.0],[71.728655152808471,21.452136003581586,0.0],[71.728747951787682,21.448916592840703,0.0],[71.728557594907159,21.44817420100685,0.0],[71.728310130962541,21.447431809172997,0.0],[71.727148953991787,21.447622166053463,0.0],[71.726044884085184,21.447793487245917,0.0],[71.725321527939343,21.447355666420776,0.0],[71.723874815647719,21.447203380916392,0.0],[71.723379887758654,21.447013024036096,0.0],[71.722447139044277,21.445375954863948,0.0],[71.722398275604661,21.445225292591797,0.0]]]}},
{"type":"Feature","properties":{"icon":null,"CAT":"VR","NAME":"Gandhol App Road","FROM_KM":0.0,"TO_KM":1.0,"BSSLANE":1.0,"SSLANE":0.0,"INTER":0.0,"SDLANE":0.0,"SMLTL":0.0,"CAR_WIDTH":3.0,"FOR_WIDTH":6.0,"LAND_WIDTH":12.0,"LENGTH_ROA":1.0,"SURFACE":"BT","SP":null,"REMARK":null,"CAT_SP":"VR P","CAT_SURFAC":"VR BT","NEW_SURFAC":"BT","YEARS":"DEVL. IN 2006 OR BE.","SH_NH_ID":null,"DISTRICT":"Bhavnagar","Category":"Village Road"},"geometry":{"type":"MultiLineString","coordinates":[[[71.762062785330386,21.457228050134006,0.0],[71.763410849134573,21.457917994681509,0.0],[71.764281731862638,21.458560449153197,0.0],[71.764567267183395,21.458917368304128,0.0],[71.764595820715556,21.459131519794653,0.0],[71.766237648809465,21.460459259035872,0.0],[71.766780165918931,21.460830454952713,0.0],[71.767608218348926,21.460759071122652,0.0],[71.768364886948689,21.460773347888562,0.0],[71.768893127292074,21.460844731718794,0.0],[71.769135832314532,21.46095894584704,0.0],[71.769507028231601,21.461315864997857,0.0],[71.769863947382362,21.461301588231947,0.0],[71.769949607978674,21.460502089333886,0.0],[71.769692626189908,21.459859634862426,0.0],[71.769378537337218,21.458831707707816,0.0],[71.768793189929852,21.45796082497975,0.0],[71.768179288990211,21.45691862105906,0.0],[71.767750986009219,21.45629044335368,0.0],[71.767636771880916,21.455662265648073,0.0],[71.767440367203506,21.455455351684634,0.0]]]}},
{"type":"Feature","properties":{"icon":null,"CAT":"ODR","NAME":"Palitana Adapur Gheti Road","FROM_KM":0.0,"TO_KM":9.2,"BSSLANE":9.2,"SSLANE":0.0,"INTER":0.0,"SDLANE":0.0,"SMLTL":0.0,"CAR_WIDTH":3.75,"FOR_WIDTH":6.0,"LAND_WIDTH":18.0,"LENGTH_ROA":9.2,"SURFACE":"BT","SP":null,"REMARK":null,"CAT_SP":"ODR P","CAT_SURFAC":"ODR BT","NEW_SURFAC":"BT","YEARS":"DEVL. IN 2006 OR BE.","SH_NH_ID":null,"DISTRICT":"Bhavnagar","Category":"Other District Road"},"geometry":{"type":"MultiLineString","coordinates":[[[71.81874864365254,21.522771213088646,0.0],[71.818502600146758,21.522607184084734,0.0],[71.817788761845065,21.522616701928655,0.0],[71.816922638038932,21.522473934268419,0.0],[71.816475299369927,21.522369237984037,0.0],[71.81551399712356,21.522159845415501,0.0],[71.814600284097253,21.521655399682345,0.0],[71.813724642447028,21.521189025325214,0.0],[71.811678305981957,21.520123026794522,0.0],[71.810421950570969,21.519361599272827,0.0],[71.809215329284712,21.518402812764123,0.0],[71.80843272117022,21.518143315237751,0.0],[71.807071669474681,21.517772119320853,0.0],[71.806091331540472,21.517315262807699,0.0],[71.804340048240078,21.516496728221682,0.0],[71.802169979802784,21.51566867579163,0.0],[71.801617944849397,21.515306997718767,0.0],[71.800475803566655,21.514650266481169,0.0],[71.799990393521512,21.51439328469263,0.0],[71.79928607306374,21.514126785059943,0.0],[71.797886949992289,21.513993535243628,0.0],[71.79695420127797,21.513869803271177,0.0],[71.796602041049141,21.513841249739244,0.0],[71.795735917243064,21.513603303638718,0.0],[71.794831722060849,21.513213072033636,0.0],[71.793794277062318,21.512718144144401,0.0],[71.793175617200859,21.51232791253949,0.0],[71.792385636146776,21.511899609558498,0.0],[71.791690833533096,21.51160455639365,0.0],[71.79119590564386,21.511385645981193,0.0],[71.790672424222635,21.511081074972424,0.0],[71.788645123445576,21.509862790937518,0.0],[71.787246000374125,21.508711131810685,0.0],[71.785647002578287,21.507473812087596,0.0],[71.783952826342215,21.50586529644761,0.0],[71.783248505884387,21.505160975990009,0.0],[71.782468042674623,21.504114013147387,0.0],[71.781592401024398,21.50315271090102,0.0],[71.780992776851008,21.502591158103712,0.0],[71.780459777585634,21.502010569618164,0.0],[71.780221831485107,21.501563230949102,0.0],[71.779584135935409,21.501001678151795,0.0],[71.779165350798394,21.500592410858644,0.0],[71.778194530708106,21.499535930172101,0.0],[71.778156459332024,21.499050520126957,0.0],[71.778146941487876,21.498317646137195,0.0],[71.77831826268033,21.497841753935973,0.0],[71.778384887588572,21.497603807835446,0.0],[71.778546690936878,21.497261165450595,0.0],[71.778594280157108,21.496813826781533,0.0],[71.778518137404888,21.496366488112358,0.0],[71.77827067346027,21.495928667287217,0.0],[71.777956584607409,21.495624096278618,0.0],[71.777842370479277,21.495338560957919,0.0],[71.777585388690568,21.49436774086746,0.0],[71.777442621030275,21.493768116694071,0.0],[71.777414067498114,21.493473063529393,0.0],[71.77661456860028,21.491978762017709,0.0],[71.77632903327958,21.491131673899645,0.0],[71.776338870824191,21.490368559058822,0.0],[71.776129158554966,21.491093602523563,0.0],[71.775691337729882,21.491188780963796,0.0],[71.775424838097365,21.491302995092099,0.0],[71.775415320253273,21.491521905504555,0.0],[71.775177374152747,21.493111385456473,0.0],[71.775034606492284,21.493853777290155,0.0],[71.774882320987899,21.494510508527924,0.0],[71.774244625438371,21.495785899626981,0.0],[71.774101857777964,21.496537809304755,0.0],[71.773854393833517,21.497204058386444,0.0],[71.773721144017145,21.49769898627568,0.0],[71.773597412044751,21.498317646137195,0.0],[71.773445126540366,21.499098109347131,0.0],[71.773311876724051,21.499469305263972,0.0],[71.773159591219667,21.500097482969579,0.0],[71.773159591219667,21.500383018290279,0.0],[71.773121008871158,21.500995447935964,0.0],[71.771998414248912,21.502429354755179,0.0],[71.771094045060465,21.503749312255479,0.0],[71.770501832776119,21.5045188223433,0.0],[71.769726672866341,21.505627675568348,0.0],[71.769663230829792,21.505923096352205,0.0],[71.769114507509869,21.507492847775609,0.0],[71.768600543932564,21.509872308781439,0.0],[71.768410187052098,21.510747950431664,0.0],[71.768267419391634,21.511823466806277,0.0],[71.767743937970408,21.512898983180946,0.0],[71.767477438337721,21.51362233932656,0.0],[71.767287081457425,21.514088713683861,0.0],[71.766696975127957,21.515240372810638,0.0],[71.766601796687723,21.51537362262701,0.0],[71.766487582559421,21.51636347840531,0.0],[71.766462864464131,21.51702429168887,0.0]]]}},
{"type":"Feature","properties":{"icon":null,"CAT":"VR(NP)","NAME":"Dedarda Jaliya(Amaraji) Road","FROM_KM":0.0,"TO_KM":4.0,"BSSLANE":4.0,"SSLANE":0.0,"INTER":0.0,"SDLANE":0.0,"SMLTL":0.0,"CAR_WIDTH":0.0,"FOR_WIDTH":5.0,"LAND_WIDTH":10.0,"LENGTH_ROA":4.0,"SURFACE":"Earthen","SP":null,"REMARK":null,"CAT_SP":"VR(NP) P","CAT_SURFAC":"VR(NP) Earthen","NEW_SURFAC":"Earthen","YEARS":"DEVL. IN 2006 OR BE.","SH_NH_ID":null,"DISTRICT":"Bhavnagar","Category":"Village Road"},"geometry":{"type":"MultiLineString","coordinates":[[[71.717772082238071,21.483317110039991,0.0],[71.71935310775018,21.482478862741743,0.0],[71.720666570225319,21.482721567764429,0.0],[71.722194184191153,21.482621630402207,0.0],[71.722522549809923,21.482436032443673,0.0],[71.723664691092608,21.480394454900591,0.0],[71.725620608039435,21.47735350373523,0.0],[71.726971331401899,21.476093534754682,0.0],[71.730160619638639,21.473441669841634,0.0],[71.732316411309853,21.471528583192878,0.0],[71.736723173092685,21.467290763141534,0.0],[71.737302224545545,21.466277548410062,0.0],[71.738091363171122,21.463983312343487,0.0],[71.739007455658282,21.461354007931959,0.0],[71.740610844481637,21.460112847293374,0.0],[71.740756359497652,21.458962649621128,0.0],[71.740994305598178,21.456571291310297,0.0],[71.741708143900041,21.455381560807382,0.0],[71.741684349289869,21.453216251292076,0.0],[71.741660457784349,21.452280385356573,0.0]]]}},
{"type":"Feature","properties":{"icon":null,"CAT":"VR(NP)","NAME":"Gheti Hadmatiya Road","FROM_KM":0.0,"TO_KM":3.0,"BSSLANE":3.0,"SSLANE":0.0,"INTER":0.0,"SDLANE":0.0,"SMLTL":0.0,"CAR_WIDTH":0.0,"FOR_WIDTH":5.0,"LAND_WIDTH":10.0,"LENGTH_ROA":3.0,"SURFACE":"Earthen","SP":null,"REMARK":null,"CAT_SP":"VR(NP) P","CAT_SURFAC":"VR(NP) Earthen","NEW_SURFAC":"Earthen","YEARS":"DEVL. IN 2006 OR BE.","SH_NH_ID":null,"DISTRICT":"Bhavnagar","Category":"Village Road"},"geometry":{"type":"MultiLineString","coordinates":[[[71.765579552047996,21.518881797249094,0.0],[71.766153709781804,21.51948032865306,0.0],[71.766696226891099,21.519951461932123,0.0],[71.767552832853255,21.520236997253051,0.0],[71.769294598309557,21.520479702275509,0.0],[71.771002927025563,21.520408118118439,0.0],[71.771497746458294,21.521925925292408,0.0],[71.771279068788374,21.522621217180813,0.0],[71.77142183644861,21.523649144335252,0.0],[71.771527699817469,21.523648014996052,0.0]]]}},
{"type":"Feature","properties":{"icon":null,"CAT":"VR(NP)","NAME":"Gheti Ranparda Road","FROM_KM":0.0,"TO_KM":3.0,"BSSLANE":3.0,"SSLANE":0.0,"INTER":0.0,"SDLANE":0.0,"SMLTL":0.0,"CAR_WIDTH":0.0,"FOR_WIDTH":5.0,"LAND_WIDTH":10.0,"LENGTH_ROA":3.0,"SURFACE":"Earthen","SP":null,"REMARK":null,"CAT_SP":"VR(NP) P","CAT_SURFAC":"VR(NP) Earthen","NEW_SURFAC":"Earthen","YEARS":"DEVL. IN 2006 OR BE.","SH_NH_ID":null,"DISTRICT":"Bhavnagar","Category":"Village Road"},"geometry":{"type":"MultiLineString","coordinates":[[[71.764502308334215,21.519213641693455,0.0],[71.764283181896701,21.520781531635066,0.0],[71.764694290191869,21.522616831785854,0.0],[71.764670495581811,21.523330670087546,0.0],[71.765027414732799,21.524341941014995,0.0],[71.765187291966697,21.525358645568986,0.0],[71.765169159501539,21.525548804336353,0.0]]]}},
{"type":"Feature","properties":{"icon":null,"CAT":"VR(NP)","NAME":"Shivendranagar Dedarda Road","FROM_KM":0.0,"TO_KM":3.0,"BSSLANE":3.0,"SSLANE":0.0,"INTER":0.0,"SDLANE":0.0,"SMLTL":0.0,"CAR_WIDTH":0.0,"FOR_WIDTH":5.0,"LAND_WIDTH":10.0,"LENGTH_ROA":3.0,"SURFACE":"Earthen","SP":null,"REMARK":null,"CAT_SP":"VR(NP) P","CAT_SURFAC":"VR(NP) Earthen","NEW_SURFAC":"Earthen","YEARS":"DEVL. IN 2006 OR BE.","SH_NH_ID":null,"DISTRICT":"Bhavnagar","Category":"Village Road"},"geometry":{"type":"MultiLineString","coordinates":[[[71.715294440051153,21.488767966328705,0.0],[71.715290930928589,21.488104742162786,0.0],[71.716195126110804,21.488152331382778,0.0],[71.716710679249445,21.488026197435225,0.0],[71.716825683277264,21.487486082301071,0.0],[71.716873272497494,21.486665168254177,0.0],[71.716789991362248,21.485868048817167,0.0],[71.717082038546394,21.485869081968726,0.0]]]}},
{"type":"Feature","properties":{"icon":null,"CAT":"VR(NP)","NAME":"Tadati Road Joinin SH Talaja Palitana Road","FROM_KM":0.0,"TO_KM":1.0,"BSSLANE":1.0,"SSLANE":0.0,"INTER":0.0,"SDLANE":0.0,"SMLTL":0.0,"CAR_WIDTH":3.0,"FOR_WIDTH":6.0,"LAND_WIDTH":10.0,"LENGTH_ROA":1.0,"SURFACE":"BT","SP":null,"REMARK":null,"CAT_SP":"VR(NP) P","CAT_SURFAC":"VR(NP) BT","NEW_SURFAC":"BT","YEARS":"DEVL. IN 2006 OR BE.","SH_NH_ID":null,"DISTRICT":"Bhavnagar","Category":"Village Road"},"geometry":{"type":"MultiLineString","coordinates":[[[71.823344685459503,21.52157608811557,0.0],[71.823263056714552,21.521071770661308,0.0],[71.822608704937863,21.520322240444557,0.0],[71.822329425809869,21.520057449671413,0.0],[71.821216720249481,21.516919611206106,0.0],[71.82081221187849,21.515729880703191,0.0],[71.820669444218197,21.515301577722198,0.0],[71.820062681661739,21.514468766370044,0.0],[71.819277459529815,21.513493187357653,0.0],[71.8180877290269,21.512255867634678,0.0],[71.817243020369744,21.511208904792056,0.0],[71.816362619797587,21.509626563223151,0.0],[71.815624986885837,21.508294065059999,0.0],[71.815053916244381,21.506985361506793,0.0],[71.81441146177292,21.505319738802712,0.0]]]}},
{"type":"Feature","properties":{"icon":null,"CAT":"VR(NP)","NAME":"dUDHARA NANIVAV","FROM_KM":0.0,"TO_KM":3.0,"BSSLANE":0.0,"SSLANE":0.0,"INTER":0.0,"SDLANE":0.0,"SMLTL":0.0,"CAR_WIDTH":3.0,"FOR_WIDTH":6.0,"LAND_WIDTH":10.0,"LENGTH_ROA":3.0,"SURFACE":"WBM","SP":null,"REMARK":null,"CAT_SP":"VR(NP) P","CAT_SURFAC":"VR(NP) WBM","NEW_SURFAC":"WBM","YEARS":"2012","SH_NH_ID":null,"DISTRICT":"Bhavnagar","Category":"Village Road"},"geometry":{"type":"MultiLineString","coordinates":[[[71.735842886334908,21.51093502475457,0.0],[71.735937028089552,21.510878539701764,0.0],[71.737157792809626,21.510562824687952,0.0],[71.737557698493845,21.510099776001084,0.0],[71.738168080853768,21.508942154283886,0.0],[71.739073130560087,21.508584343934842,0.0],[71.73951513157931,21.507889770904512,0.0],[71.739809798925478,21.507279388544532,0.0],[71.740167609274522,21.506942625863132,0.0],[71.740188656942109,21.505890242483758,0.0]]]}},
{"type":"Feature","properties":{"icon":null,"CAT":"MDR","NAME":"Kanjarda Dedarda Road","FROM_KM":0.0,"TO_KM":3.0,"BSSLANE":3.0,"SSLANE":0.0,"INTER":0.0,"SDLANE":0.0,"SMLTL":0.0,"CAR_WIDTH":3.6,"FOR_WIDTH":6.0,"LAND_WIDTH":24.0,"LENGTH_ROA":3.0,"SURFACE":"BT","SP":null,"REMARK":null,"CAT_SP":"MDR P","CAT_SURFAC":"MDR BT","NEW_SURFAC":"BT","YEARS":"DEVL. IN 2006 OR BE.","SH_NH_ID":null,"DISTRICT":"Bhavnagar","Category":"Major District Road"},"geometry":{"type":"MultiLineString","coordinates":[[[71.717969133435133,21.486869127450859,0.0],[71.71886607658297,21.486646876051566,0.0],[71.720104334380039,21.486496062601816,0.0],[71.721342592177166,21.486424624652045,0.0],[71.723033290323258,21.486583375651605,0.0],[71.72364448167184,21.486591313201586,0.0],[71.725319304717914,21.486408749552027,0.0],[71.728883264659657,21.486059497352812,0.0],[71.729343642558661,21.486321436502294,0.0],[71.729986584107223,21.486289686302314,0.0],[71.730685088505538,21.486107122652754,0.0],[71.731423280653814,21.485614994553771,0.0],[71.732867914750443,21.484884739955646,0.0],[71.734185548047321,21.484464049806604,0.0],[71.734495112496575,21.484384674306682,0.0],[71.734884052445807,21.484718051405935,0.0],[71.735631217641128,21.484526714321476,0.0]]]}},
{"type":"Feature","properties":{"icon":null,"CAT":"ODR","NAME":"Nanimal Kanjarada Road","FROM_KM":0.0,"TO_KM":2.0,"BSSLANE":2.0,"SSLANE":0.0,"INTER":0.0,"SDLANE":0.0,"SMLTL":0.0,"CAR_WIDTH":3.75,"FOR_WIDTH":6.0,"LAND_WIDTH":18.0,"LENGTH_ROA":2.0,"SURFACE":"WBM","SP":null,"REMARK":null,"CAT_SP":"ODR P","CAT_SURFAC":"ODR WBM","NEW_SURFAC":"WBM","YEARS":"DEVL. IN 2006 OR BE.","SH_NH_ID":null,"DISTRICT":"Bhavnagar","Category":"Other District Road"},"geometry":{"type":"MultiLineString","coordinates":[[[71.740190202130066,21.505881111948156,0.0],[71.740061711235739,21.505645545308539,0.0],[71.740247309194217,21.50538856352,0.0],[71.740668473792198,21.504960260539008,0.0],[71.740996839410968,21.50438205151454,0.0],[71.741303789880817,21.503646798063698,0.0],[71.741482249456283,21.502932959761949,0.0],[71.741810615075053,21.501819372011255,0.0],[71.742174672608883,21.501405345796172,0.0],[71.742545868525895,21.501176917539567,0.0],[71.74302414018797,21.500156128768197,0.0],[71.743288260359577,21.499999084341823,0.0],[71.744137727938721,21.49992056212858,0.0],[71.744801597559331,21.499877731830509,0.0],[71.745322699519647,21.499699272255043,0.0],[71.74612933680055,21.498992572336363,0.0],[71.746536224632621,21.498514300674117,0.0],[71.746629023611945,21.49829301080058,0.0],[71.746650438760867,21.497871846202599,0.0],[71.746800344804171,21.497350744242283,0.0],[71.747271478083405,21.496965271559361,0.0],[71.747564151787174,21.496829642281909,0.0],[71.747756888128549,21.496622629174453,0.0]]]}},
{"type":"Feature","properties":{"icon":null,"CAT":"VR","NAME":"Kanjarda Dedarda Road","FROM_KM":0.0,"TO_KM":6.0,"BSSLANE":6.0,"SSLANE":0.0,"INTER":0.0,"SDLANE":0.0,"SMLTL":0.0,"CAR_WIDTH":3.0,"FOR_WIDTH":6.0,"LAND_WIDTH":12.0,"LENGTH_ROA":3.0,"SURFACE":"BT","SP":null,"REMARK":null,"CAT_SP":"VR P","CAT_SURFAC":"VR BT","NEW_SURFAC":"BT","YEARS":"31 March 2008-09","SH_NH_ID":null,"DISTRICT":"Bhavnagar","Category":"Village Road"},"geometry":{"type":"MultiLineString","coordinates":[[[71.745948189107594,21.494808842361124,0.0],[71.747605031669934,21.492513588714587,0.0],[71.748204655843381,21.491656982752431,0.0],[71.749061261805537,21.490334002433201,0.0],[71.748375977035835,21.488516094224849,0.0],[71.747700210110224,21.48622229381516,0.0],[71.747205282220932,21.485489419825399,0.0],[71.746976853964384,21.484118850285938,0.0],[71.746938782588302,21.483509708268571,0.0],[71.746653247267545,21.48314803019565,0.0],[71.746215426442461,21.482576959554194,0.0],[71.746148801534389,21.482396120517649,0.0],[71.745587248737024,21.482396120517649,0.0],[71.745054249471707,21.482319977765655,0.0],[71.744625946490714,21.482491298957882,0.0],[71.743835965436631,21.482795869966651,0.0],[71.741922878788046,21.483014780379335,0.0],[71.740257256083964,21.483614404552725,0.0],[71.738582115535905,21.484023671845705,0.0],[71.737620813289539,21.484214028726171,0.0],[71.736564332602768,21.484290171478335,0.0],[71.73564510679779,21.484543920255703,0.0]]]}},
{"type":"Feature","properties":{"icon":null,"CAT":"VR","NAME":"Jaliya(Amaraji) App Road","FROM_KM":0.0,"TO_KM":1.0,"BSSLANE":1.0,"SSLANE":0.0,"INTER":0.0,"SDLANE":0.0,"SMLTL":0.0,"CAR_WIDTH":3.0,"FOR_WIDTH":6.0,"LAND_WIDTH":10.0,"LENGTH_ROA":1.0,"SURFACE":"BT","SP":null,"REMARK":null,"CAT_SP":"VR P","CAT_SURFAC":"VR BT","NEW_SURFAC":"BT","YEARS":"31 March 2008-09","SH_NH_ID":null,"DISTRICT":"Bhavnagar","Category":"Village Road"},"geometry":{"type":"MultiLineString","coordinates":[[[71.74385990863567,21.451124732654137,0.0],[71.744128781337565,21.450597128696472,0.0],[71.74434293282809,21.449697692436246,0.0],[71.744814066107097,21.44911234502888,0.0],[71.746027591220241,21.448955300602336,0.0],[71.747226839567077,21.4488125329421,0.0],[71.748411811148003,21.448983854134497,0.0],[71.749853764517525,21.448926747070345,0.0],[71.749996532177818,21.4488125329421,0.0],[71.749782380687293,21.448170078470582,0.0],[71.749910871581676,21.447627561361116,0.0],[71.750196406902376,21.447213535146204,0.0],[71.751138673460673,21.447213535146204,0.0]]]}},
{"type":"Feature","properties":{"icon":null,"CAT":"MDR","NAME":"Gujarada Bhandariya Satapada Zaliya Geti Palitana Road Sec. Zaliya To Palitana","FROM_KM":12.8,"TO_KM":17.0,"BSSLANE":0.0,"SSLANE":20.0,"INTER":0.0,"SDLANE":0.0,"SMLTL":0.0,"CAR_WIDTH":3.75,"FOR_WIDTH":7.5,"LAND_WIDTH":24.0,"LENGTH_ROA":21.5,"SURFACE":"BT","SP":null,"REMARK":null,"CAT_SP":"MDR P","CAT_SURFAC":"MDR BT","NEW_SURFAC":"BT","YEARS":"31 March 2010-11","SH_NH_ID":null,"DISTRICT":"Bhavnagar","Category":"Major District Road"},"geometry":{"type":"MultiLineString","coordinates":[[[71.811770806278673,21.524158264010975,0.0],[71.811603296027101,21.524115189946272,0.0],[71.810575368872506,21.524186573776479,0.0],[71.809404674057646,21.524158020244503,0.0],[71.808205425710639,21.523829654625501,0.0],[71.80747731064298,21.524443555565185,0.0],[71.806634981446905,21.524514939395267,0.0],[71.805521393696054,21.523429905176499,0.0],[71.801495345674311,21.523415628410611,0.0],[71.79873992982948,21.523272860750186,0.0],[71.796926780543131,21.523329967814337,0.0],[71.794299855592683,21.522958771897432,0.0],[71.792186894219299,21.522559022448423,0.0],[71.791087583234685,21.522059335637209,0.0],[71.788703363306865,21.521773800316499,0.0],[71.786918767552507,21.521131345845063,0.0],[71.784848636477435,21.52086008729038,0.0],[71.783892093153042,21.520845810524325,0.0],[71.782378755953289,21.520588828735775,0.0],[71.779095099765314,21.520217632818738,0.0],[71.777824467588232,21.519803606603851,0.0],[71.775354587064101,21.520003481328253,0.0],[71.77402684782291,21.52000348132821,0.0],[71.772327912664821,21.519675115709468,0.0],[71.770900236061223,21.519518071283095,0.0],[71.770172120993436,21.51924681272844,0.0],[71.769044256476604,21.518275992637978,0.0],[71.767959222258085,21.51767636846456,0.0],[71.767345321318544,21.517376556377748,0.0],[71.76626028709984,21.517219511951431,0.0],[71.76271964912327,21.512393965031681,0.0],[71.761063544263038,21.510238173360296,0.0],[71.759564483829436,21.508310809945613,0.0],[71.757836995139158,21.506611874787392,0.0],[71.754653276313377,21.504070610433228,0.0],[71.753468304732579,21.503099790342787,0.0],[71.751683708978192,21.501072489565754,0.0],[71.750727165653814,21.500158776539656,0.0],[71.749727792031265,21.499230786747269,0.0],[71.748671311344665,21.498160029294748,0.0],[71.747930921874001,21.497245616505733,0.0],[71.747756888128549,21.49662262917445,0.0],[71.747405483603956,21.496058994866825,0.0],[71.746146900692452,21.494856192951566,0.0],[71.745548456845611,21.494369472610856,0.0],[71.744473475025771,21.492979952004379,0.0],[71.742983901076926,21.491060402661574,0.0],[71.740836179035441,21.489572025547865,0.0],[71.739716388493335,21.488842233517175,0.0],[71.737876169929407,21.487955707392928,0.0],[71.736710367976698,21.487182936680277,0.0],[71.736065376976512,21.485924268589127,0.0],[71.734884052445807,21.484718051405942,0.0],[71.733890303366806,21.483587258801471,0.0],[71.732584088438443,21.481198875749829,0.0],[71.732340442177787,21.480541907869402,0.0],[71.731250228541441,21.477448101683102,0.0],[71.730095545767412,21.473924138116256,0.0],[71.72995423519049,21.473374584549095,0.0],[71.729221153552572,21.469981494040265,0.0],[71.728147221498716,21.469050780703569,0.0],[71.726497233971031,21.46712890396071,0.0],[71.725102909421622,21.465385932168033,0.0],[71.724386316147587,21.464323250804423,0.0],[71.723196606500167,21.46277120456358,0.0],[71.721611293706971,21.461315282439536,0.0],[71.720664439955044,21.459918259249868,0.0],[71.71971749686648,21.458449524031845,0.0],[71.71837491803764,21.45705300633448,0.0],[71.716776577663467,21.455346081004993,0.0],[71.715574448841494,21.453925455750262,0.0],[71.714207099520038,21.452995027378105,0.0],[71.713746716518358,21.452445866282396,0.0],[71.713590392077379,21.45231161264714,0.0]]]}},
{"type":"Feature","properties":{"icon":null,"CAT":"VR(NP)","NAME":"Talati arisa bhava to Pilvas Road","FROM_KM":0.0,"TO_KM":1.0,"BSSLANE":0.0,"SSLANE":1.0,"INTER":0.0,"SDLANE":0.0,"SMLTL":0.0,"CAR_WIDTH":3.0,"FOR_WIDTH":6.0,"LAND_WIDTH":10.0,"LENGTH_ROA":1.0,"SURFACE":"BT","SP":null,"REMARK":null,"CAT_SP":"VR(NP) P","CAT_SURFAC":"VR(NP) BT","NEW_SURFAC":"BT","YEARS":"31 March 2010-11","SH_NH_ID":null,"DISTRICT":"Bhavnagar","Category":"Village Road"},"geometry":{"type":"MultiLineString","coordinates":[[[71.820184341812705,21.507456394658107,0.0],[71.821603722924181,21.507610303453362,0.0],[71.823604537262042,21.506703951659176,0.0],[71.824545091010521,21.506618446773018,0.0],[71.825776361372277,21.506652648727538,0.0],[71.82748645909686,21.506721052636522,0.0],[71.829179455844269,21.506464537977763,0.0],[71.829589879298226,21.506772355568216,0.0],[71.831282876045691,21.506310629182565,0.0],[71.831693299499648,21.506892062408951,0.0],[71.832035319044394,21.507405091726298,0.0],[71.832582550316431,21.507234081953868,0.0],[71.832479944452928,21.507815515180255,0.0],[71.832428641521233,21.508414049383987,0.0],[71.832582550316431,21.508738967951558,0.0],[71.832462843475582,21.509713723654556,0.0],[71.832821963997844,21.510449065676141,0.0],[71.833198185497338,21.510449065676141,0.0],[71.833608608951124,21.510620075448742,0.0],[71.834788576381186,21.511133104766031,0.0],[71.835660726220681,21.511680336037898,0.0],[71.835930146100722,21.512078051098861,0.0]]]}},
{"type":"Feature","properties":{"icon":null,"CAT":"VR(NP)","NAME":"Adpar Sidhvad Road","FROM_KM":0.0,"TO_KM":6.0,"BSSLANE":0.0,"SSLANE":6.0,"INTER":0.0,"SDLANE":0.0,"SMLTL":0.0,"CAR_WIDTH":3.75,"FOR_WIDTH":6.0,"LAND_WIDTH":10.0,"LENGTH_ROA":1.5,"SURFACE":"BT","SP":null,"REMARK":null,"CAT_SP":"VR(NP) P","CAT_SURFAC":"VR(NP) BT","NEW_SURFAC":"BT","YEARS":"31 March 2010-11","SH_NH_ID":null,"DISTRICT":"Bhavnagar","Category":"Village Road"},"geometry":{"type":"MultiLineString","coordinates":[[[71.776356229344515,21.490328963988475,0.0],[71.777266797738548,21.488823766022961,0.0],[71.777457154619015,21.488557266390274,0.0],[71.777361976178781,21.488043302812969,0.0],[71.777152583610416,21.487148625474731,0.0],[71.777361976178781,21.486311055200758,0.0],[71.777533297371235,21.485378306486439,0.0],[71.777856904068017,21.484578807588377,0.0],[71.777875939756086,21.483836415754695,0.0],[71.777533297371235,21.481495026124946,0.0],[71.775439371686105,21.481380811996701,0.0],[71.774677944164182,21.481190455116177,0.0],[71.773840373890266,21.481266597868398,0.0],[71.772926660863959,21.481095276675944,0.0],[71.771917769397362,21.481076240987932,0.0],[71.770642378298362,21.481323704932549,0.0],[71.767406311330546,21.482066096766403,0.0],[71.766168991607401,21.481989954014011,0.0],[71.765274314269163,21.481361776308631,0.0],[71.764246387114724,21.481361776308631,0.0],[71.762837746199352,21.480923955483547,0.0],[71.761143569963053,21.481418883372783,0.0],[71.760572499321654,21.481418883372783,0.0],[71.759792036111833,21.48164731162916,0.0],[71.759049644277979,21.482408739151083,0.0],[71.757945574371149,21.483017881168621,0.0],[71.757069932721151,21.483284380801308,0.0],[71.75562322042947,21.483607987498146,0.0],[71.755109256852393,21.484121951075224,0.0],[71.754462043458716,21.485549627678836,0.0],[71.754423972082634,21.486006484191989,0.0],[71.753319902175861,21.486882125842044,0.0],[71.753110509607495,21.488328838133668,0.0],[71.752691724470424,21.489147372719742,0.0],[71.753377009240012,21.489851693177343,0.0],[71.753795794377027,21.490327585378566,0.0],[71.753434116304163,21.490898656020022,0.0],[71.753034366855104,21.491488762349491,0.0],[71.752786902910486,21.491888511798322,0.0],[71.752101618140955,21.492364403999545,0.0],[71.752215832269258,21.49316390289755,0.0],[71.751892225572419,21.494172794363919,0.0],[71.751625725939732,21.494877114821691,0.0],[71.751168869426579,21.495467221151159,0.0],[71.751016583922194,21.495943113352382,0.0],[71.750483584657047,21.496152505920918,0.0],[71.749474693190507,21.496571291057762,0.0],[71.748847826182953,21.496931872059974,0.0],[71.748066052275135,21.497294647203603,0.0]]]}},
{"type":"Feature","properties":{"icon":null,"CAT":"VR(NP)","NAME":"Jaliya Manaji app. road Join Hathsani road","FROM_KM":0.0,"TO_KM":1.5,"BSSLANE":1.5,"SSLANE":0.0,"INTER":0.0,"SDLANE":0.0,"SMLTL":0.0,"CAR_WIDTH":3.75,"FOR_WIDTH":6.0,"LAND_WIDTH":10.0,"LENGTH_ROA":1.5,"SURFACE":"BT","SP":null,"REMARK":null,"CAT_SP":"VR(NP) P","CAT_SURFAC":"VR(NP) BT","NEW_SURFAC":"BT","YEARS":"2012","SH_NH_ID":null,"DISTRICT":"Bhavnagar","Category":"Village Road"},"geometry":{"type":"MultiLineString","coordinates":[[[71.71446226556931,21.451384174653857,0.0],[71.71546306850513,21.451744463710838,0.0],[71.715897228801509,21.451760543721718,0.0],[71.716620829295493,21.451680143666749,0.0],[71.716669069328418,21.450249022689661,0.0],[71.716862029460231,21.449589742239709,0.0],[71.716829869438186,21.449235981998186,0.0],[71.717038909580936,21.448946541800467,0.0],[71.717039062392843,21.448946125040724,0.0]]]}},
{"type":"Feature","properties":{"icon":null,"CAT":"ODR","NAME":"Gajariya Aproch Road","FROM_KM":0.0,"TO_KM":2.0,"BSSLANE":0.0,"SSLANE":0.0,"INTER":0.0,"SDLANE":0.0,"SMLTL":0.0,"CAR_WIDTH":3.75,"FOR_WIDTH":7.0,"LAND_WIDTH":12.0,"LENGTH_ROA":5.1389987231300003,"SURFACE":"BT","SP":null,"REMARK":null,"CAT_SP":"ODR P","CAT_SURFAC":"ODR BT","NEW_SURFAC":"BT","YEARS":"31 March 2007-08","SH_NH_ID":null,"DISTRICT":"Bhavnagar","Category":"Other District Road"},"geometry":{"type":"MultiLineString","coordinates":[[[71.821959957964751,21.489154999151726,0.0],[71.825310696088081,21.488809852847041,0.0],[71.827072787083466,21.488782511559094,0.0],[71.829154233024809,21.489994371524599,0.0],[71.830907856576559,21.49068711275363,0.0],[71.831980425193791,21.490661083484468,0.0],[71.832797335346214,21.49051604727638,0.0],[71.833969711617101,21.489462025553191,0.0],[71.835525856654783,21.488717950078339,0.0],[71.836648551697934,21.488285458385189,0.0],[71.837899096161593,21.487924406396129,0.0],[71.838792377863371,21.48768357911981,0.0],[71.839759663582811,21.486319208312782,0.0],[71.84060263518748,21.486413100044466,0.0],[71.841080028653465,21.486635287050394,0.0]]]}}
]
}
