{
"type": "FeatureCollection",
"name": "Steps",
"crs": { "type": "name", "properties": { "name": "urn:ogc:def:crs:OGC:1.3:CRS84" } },
"features": [
{"type":"Feature","properties":{"id":1,"Name":"Steps"},"geometry":{"type":"MultiLineString","coordinates":[[[71.774348346844931,21.47799993037961],[71.774044012021946,21.47787874442465],[71.77374506176649,21.477724580922377],[71.773624258315365,21.477725248723146],[71.773396351647733,21.477723346981634],[71.773226426744586,21.477697552575293],[71.772797526742039,21.477588214241802],[71.772643481264055,21.477585408979277],[71.77236857391739,21.477503814170813],[71.77211160621755,21.477513363935252],[71.771913425020699,21.477468895469631],[71.771782009812952,21.477431368880008],[71.771673924513408,21.477375345077615],[71.771486153460714,21.477186614436455],[71.771401690705119,21.477217065044886],[71.771390308255562,21.477126852282325],[71.771349859303186,21.477170070426332],[71.77119384564935,21.477157133458281],[71.771170978777391,21.477085439819195],[71.771098421628636,21.47712363737088],[71.771012654563904,21.477144777412057],[71.770930744201451,21.477163915972159],[71.770864916910085,21.477161625799859],[71.770939864991746,21.477064550890919],[71.770855420237851,21.477075233690037],[71.77079939385969,21.477054011545157],[71.77072968934965,21.476991353829458],[71.770740053040797,21.476905445948375],[71.770597601142072,21.476872508001779],[71.770615439661597,21.476804013280894],[71.770554966907582,21.476700241186542],[71.770456701882111,21.476593906080328],[71.77044190388159,21.476679944810535],[71.770404451598267,21.476711215125825],[71.770268252299104,21.476716429067068],[71.770182633227364,21.476650784280718],[71.770075524290391,21.476433806285002],[71.769839474968279,21.476306439672346],[71.769782489593325,21.476324554571963],[71.769589709550743,21.476162364353389],[71.769196151153352,21.475979010143153],[71.769027846653984,21.475919279022939],[71.768925758125363,21.475836153406458],[71.768896616994553,21.475818001685635],[71.768679004096001,21.475922202288288],[71.768476794618707,21.476051718431158],[71.768331168600398,21.476157311323412],[71.768256175123881,21.476207980702846],[71.768208582236596,21.476278638555247],[71.76816825157799,21.47632302921517],[71.768132741960812,21.476350834605416],[71.768068565051763,21.476365576337955],[71.76797747150971,21.476422449897225],[71.767872129266323,21.476473660980545],[71.767860402261036,21.476479361947465],[71.767811291687934,21.476218135014062],[71.767795662802342,21.476146185693405],[71.767708258758532,21.476137114380421],[71.767594000499443,21.476135028905315],[71.767386575074795,21.476224366031737],[71.767070320938501,21.476383060198032],[71.766993467521587,21.476411911709459],[71.766831329892725,21.476454691808698],[71.766705088387084,21.476458807737266],[71.766545233536803,21.476517211310139],[71.766184439405464,21.476629942551444],[71.766034944292983,21.476675426544983],[71.76597799552242,21.476715322674032],[71.765854894215892,21.476735898280154],[71.765657632548226,21.476742737980842],[71.76545852298571,21.476714282649223],[71.765349245266592,21.476703966472083],[71.765291822584999,21.476626596478397],[71.765251524106475,21.476499471681276],[71.765201330480224,21.476341131843419],[71.765159588683389,21.476208307112188],[71.765110748453594,21.475940868699563],[71.765084170826583,21.475835396903719],[71.765007047417427,21.475709485709157],[71.764869848380471,21.475563933266738],[71.764665638870781,21.475330384248128],[71.764575056540039,21.475188727207001],[71.764551324751395,21.475114963471878],[71.764519790174816,21.475002171415991],[71.764454635585736,21.474905159917444],[71.764475828777037,21.47481630038439],[71.764466388435579,21.474682364233519],[71.764467306092442,21.474615362233518],[71.764525196474295,21.47447556127954],[71.764431278617337,21.474485374211707],[71.764311506047719,21.474598623521857],[71.764256923082556,21.474601571852247],[71.764164866819257,21.474490448895274],[71.763931011533302,21.474212569372341],[71.763688491202259,21.474110458962052],[71.763418915195032,21.473935262298419],[71.763305469726276,21.473782970696565],[71.763424192434925,21.473720661517874],[71.763508933819139,21.473637357540486],[71.763669516077158,21.473498347780591],[71.763712226887591,21.473421580407045],[71.763752545999694,21.473393773988281],[71.763858551470449,21.473354238144204],[71.763869185692187,21.473231526722991],[71.763876184783896,21.473129896338545],[71.763873592829455,21.473049800841519],[71.763865695195776,21.472972869707696],[71.763823842801585,21.472907578062433],[71.763857136014352,21.472817672431081],[71.763959274029503,21.472744568905039],[71.764121902181699,21.47264507527591],[71.764270138764871,21.472599475992929],[71.764361685487884,21.472645175361862],[71.764693713758362,21.47253831330422],[71.765240901343759,21.47235213794961],[71.765486124858896,21.472212283378365],[71.765764773667627,21.47213584916032],[71.766117663239299,21.472140618420408],[71.766490063559672,21.472176708595391],[71.766663030751403,21.472195184879237],[71.76684698685736,21.472165752502562],[71.767056688389104,21.472183550175593],[71.76729983644374,21.472151123096857],[71.767526498051794,21.472150008270017],[71.767730400577349,21.472234202413947],[71.767804491488661,21.472269536567946],[71.76782936986487,21.472388377710814],[71.767865526218756,21.472445775333593],[71.76792720470479,21.472465567612065],[71.768047095602327,21.472437915585651],[71.768296083216299,21.472422849428451],[71.768535748836285,21.472396017160477],[71.768693970339726,21.472401465268511],[71.768954762845325,21.472434892154943],[71.769386094079735,21.472282485719685],[71.769643021278185,21.472269210253796],[71.769911088387715,21.472258176940841],[71.770206060308794,21.472303747686247],[71.770282533831335,21.472305730525566],[71.770718289190626,21.472187292357368],[71.771172727610235,21.472056204030881],[71.771649367496423,21.471916759153906],[71.771962201127948,21.471823474653466],[71.772133464148936,21.471782862624096],[71.772377614076859,21.47177609306716],[71.772462393859968,21.47177793221848],[71.773038892826051,21.47166048289732],[71.773476351574388,21.471579062843194],[71.773795867133515,21.47152644671527],[71.773976391091949,21.471491417282564],[71.77411515924193,21.471483961376897],[71.774303336965161,21.471527462469261],[71.774387390630054,21.471545978441039],[71.774562659276498,21.471470979612388],[71.774685999040727,21.471442953830845],[71.774837340635401,21.471258026620529],[71.774970619622266,21.471106536350089],[71.77513050008038,21.470992723898142],[71.775314884447184,21.47088073571323],[71.775520369406536,21.470744828773505],[71.775751912917556,21.470572935768267],[71.77590606126968,21.470521953031113],[71.776089127034609,21.47042132607114],[71.776212294599716,21.470368294167404],[71.776344363079872,21.470386384246659],[71.776465697150329,21.470332773049648],[71.776591180966747,21.470291208657464],[71.776802845683051,21.470287794709108],[71.776940771044124,21.470302255657938],[71.777031066644696,21.470326148191337],[71.777103770733092,21.470374685731748],[71.777213684376633,21.470460528306639],[71.777289284612323,21.47053746850407],[71.777317837715529,21.470562781878687],[71.777422134800318,21.470614440052426],[71.777661966373003,21.470758978376928],[71.777994456915096,21.471041375999015],[71.778243816509814,21.471245729754905],[71.778400699073643,21.471338280041731],[71.77867419127881,21.471608842030371],[71.778851707803483,21.471808283118019],[71.779086756989457,21.472030136864408],[71.779246270315426,21.472188475468709],[71.779348358844061,21.472346813900884],[71.779595308895566,21.472920541811476],[71.779640342946919,21.473036312568773],[71.779696893903136,21.473153244094526],[71.779763259180982,21.473214094805972],[71.780006200292107,21.473283766143343],[71.780298784424431,21.473243634641069],[71.780559596699248,21.473312674609886],[71.780772281133864,21.473360175790987],[71.780865862285083,21.473370071868434],[71.780945183725137,21.473334943918267],[71.781010129140824,21.473297066358807],[71.781167515622442,21.473211960038409],[71.781339032298575,21.473139597831779],[71.781473828818918,21.473080479424922],[71.781622560609577,21.473090964382365],[71.781775973412422,21.47311068247198],[71.781917231650297,21.473127880490761],[71.782076664794545,21.473156535321689],[71.782147900794655,21.473189074253575],[71.782320968112714,21.473231119830636],[71.782445361253878,21.473248818496888],[71.782531918147896,21.47324544219742],[71.782646981803467,21.473272452590884],[71.782755566649598,21.473309109545422],[71.782849379810202,21.473317309126099],[71.783063439673924,21.473330331988578],[71.783221847961002,21.473343398858209],[71.78354310637188,21.473343562455092],[71.783613659437279,21.473324645388718],[71.783800980109859,21.47326357327217],[71.783961640164321,21.473232320071777],[71.784061701538121,21.473219904606879],[71.784148934530663,21.473220859642687],[71.784281323425233,21.473260971140579],[71.784590443903355,21.473368021119096],[71.784728712274884,21.473460305520181],[71.784787079661214,21.473504074672821],[71.784951981694476,21.473605851085356],[71.785062766393807,21.473680733167289],[71.785142180916225,21.473722495126172],[71.785275806177253,21.473763359267885],[71.785340724873009,21.473794736234488],[71.785427913194525,21.473836876715293],[71.785600763163416,21.473893308206431],[71.785690760877515,21.473923483006722],[71.785743700709347,21.473957352673082],[71.785773479364735,21.473970284725429],[71.78579200830589,21.473973979597314],[71.785819801717608,21.473959200109199],[71.785834360171364,21.473914245823625],[71.785886545026628,21.473809207094238],[71.785930637337614,21.473695103411707],[71.785934230435487,21.473680129695648],[71.785957228191748,21.473584289870391],[71.785986671169141,21.473491076611371],[71.786054980600582,21.473437800671309],[71.786108164372223,21.47337150842322],[71.786121175692514,21.473297345826822],[71.786142967944443,21.473209323645172],[71.786176583652292,21.473128636598585],[71.786213908679585,21.473058305072325],[71.786265839152364,21.472986679065905],[71.786318547448246,21.472973467499585],[71.786379757549014,21.473003712554416],[71.786409623993663,21.473018470122931],[71.786561149573657,21.473065722862476],[71.786638524337917,21.47308147377225],[71.786749750561526,21.473076223469182],[71.78667479375865,21.473117475845338],[71.786671233919094,21.473125757717728],[71.786777139146068,21.47315143151911],[71.786833206619193,21.47315143151911],[71.786940891765937,21.473136524151116],[71.786998739158832,21.473162197950611],[71.787149142380329,21.473170479820446],[71.787240808249052,21.473141493273953],[71.787361014438943,21.473088117341536],[71.787513361625727,21.473027460309279],[71.787608765045462,21.473001895033054],[71.787706530910086,21.472943065879402],[71.787782244324021,21.472926648436939],[71.787899122312524,21.472925964376795],[71.78802718583691,21.472957713922746],[71.788188822512183,21.473010947760834],[71.788411211884934,21.473107169581645],[71.788586825633175,21.473159862456569],[71.788771466256307,21.473191172706557],[71.78884213164207,21.473198218466461],[71.788933828392629,21.473162989663546],[71.788972526103862,21.473155943901936],[71.789012065069713,21.473152812452231],[71.78903057267074,21.473123846539213],[71.789044873998805,21.473083920541544],[71.789030817730264,21.473027667197943],[71.788983599437898,21.472880901709814],[71.789001041909415,21.472780264478466],[71.789118483775638,21.472669002663096],[71.789187493765297,21.472638006250609],[71.789464156836885,21.47255621216814],[71.789648953321461,21.472520239119589],[71.789739975486697,21.472560242341839],[71.789799515238201,21.472558727299148],[71.789871568156315,21.472545600787441],[71.789945076239363,21.472512322133962],[71.790000703977881,21.472504926876603],[71.790186957566675,21.472514170948248],[71.790273379231849,21.472480892287592],[71.790358310868356,21.472441604970083],[71.790426852189029,21.472476732454478],[71.790502098638896,21.472536356717793],[71.790535560105241,21.472592238130613],[71.790618507034736,21.472960373699845],[71.790720595563357,21.473081106130163],[71.790865220978887,21.473304757744863],[71.790950294752761,21.473443302820648],[71.791092793323955,21.473748101523487],[71.791217213718198,21.47397373132123],[71.791286336159445,21.474112275760682],[71.791282082470772,21.474201339973593],[71.79125656033861,21.47439134344577],[71.791362902555932,21.474577388272092],[71.791528796414937,21.475020728176876],[71.791626631254857,21.475220626531808],[71.791791461691673,21.47549177534701],[71.791902640827701,21.475607449822512],[71.791983892236047,21.475707831792633],[71.792113206274124,21.475925460811993],[71.792344320725135,21.476227580558575],[71.792454375225603,21.476350476547346],[71.792718506026759,21.476552742636375],[71.792919355490127,21.476724284542364],[71.79305142089072,21.477054566150485],[71.793233010816508,21.477497500774621],[71.793352695085773,21.477725368351219],[71.793509522748948,21.478124775827474],[71.793523279561512,21.478278393795872],[71.793559047274186,21.478368004202594],[71.793688361312249,21.478465295438884],[71.793739261518724,21.478557466023823],[71.793832807844126,21.478667558590494],[71.793973127332237,21.478800693676195],[71.794146463170492,21.478915906632881],[71.794355566721407,21.479028559213496],[71.794528902559662,21.479166814534228],[71.794586681172419,21.479258984675116],[71.794641708422631,21.479353715036897],[71.794663719322742,21.479548296127255],[71.794746260198082,21.47974287695758]]]}},
{"type":"Feature","properties":{"id":1,"Name":"Steps"},"geometry":{"type":"MultiLineString","coordinates":[[[71.795004437286082,21.454771173405355],[71.794521035019955,21.456430652107034],[71.794325862527913,21.456827861504312],[71.79406953033714,21.457049509716747],[71.793849545059985,21.457250523812817],[71.793602414192932,21.457422614869042],[71.793316770652638,21.45752464844422],[71.792921196462743,21.457745493277518],[71.792287913540363,21.457954223436229],[71.792247998774755,21.458142246342852],[71.792114008755831,21.45850498126255],[71.791993008336959,21.458665961175157],[71.791805256235136,21.458973698685828],[71.791714403447202,21.459076048231328],[71.791646878422057,21.459367168504848],[71.79137399237014,21.459712664764755],[71.791325524144071,21.459987311816338],[71.791212426884584,21.460263309566162],[71.791017954076423,21.460631043616999],[71.790800692896156,21.461070041687289],[71.790767067573725,21.461256857745589],[71.790754768599712,21.461346994630219],[71.790774710383033,21.461611037627275],[71.790752872731389,21.46174656074809],[71.790747576477315,21.461857782023895],[71.790796719833196,21.461911176044971],[71.79082956935126,21.462016707403613],[71.790810190522677,21.462170474773195],[71.790684721601281,21.462585091729405],[71.790658317471426,21.462819934371939],[71.79057445922615,21.463069390819186],[71.790561096993741,21.463175551720756],[71.790501447305502,21.463323795261683],[71.790451597443891,21.463422521289626],[71.79041578632156,21.463601604930464],[71.790397697968331,21.463906450721169],[71.790442215704758,21.464168186896707],[71.790448759491369,21.464328380962467],[71.790404742369361,21.464489957909326],[71.790267971483473,21.464760418621697],[71.79014091652445,21.465055767226708],[71.790045245558673,21.465307118824274],[71.790052463104942,21.46540136750049],[71.790026186574437,21.465741772026441],[71.790056828453046,21.466082691295],[71.789965112367298,21.466387638444417],[71.789914726915924,21.466733128996626],[71.789906820581876,21.466865665009795],[71.789869557067007,21.466973968850979],[71.789911182729256,21.467134696336927],[71.78995091621897,21.467194532145733],[71.789985636993961,21.467248988741421],[71.78996736709793,21.467380229901728],[71.790001704742309,21.46756915289895],[71.790061176150346,21.467770085111397],[71.790092420385761,21.468006494753816],[71.790167346761152,21.468157776488074],[71.79024481445164,21.468368659699401],[71.790272733314609,21.468499347485754],[71.79039479516733,21.468700521628463],[71.790426540312126,21.468842838881873],[71.790394121264924,21.469032262703685],[71.790456727763626,21.469283418286064],[71.790495202068001,21.469364368094105],[71.79065491502611,21.469547182499703],[71.790819190637549,21.469711898998824],[71.790952220287764,21.469949282813463],[71.790979890989234,21.470080014006605],[71.791006458904448,21.470292262688044],[71.791052762562316,21.470423834388175],[71.791054005197736,21.47058211061222],[71.79105685947809,21.470828090697978],[71.791068420285072,21.470897833455997],[71.791105797685248,21.470987283104318],[71.79110488935288,21.471243667551153],[71.791163296525454,21.471510723193337],[71.791195494595627,21.47181035802593],[71.791220537539104,21.472013443506466],[71.791123943328614,21.472156601953753],[71.790930754907635,21.47227312616743],[71.790816416474698,21.472306014287444],[71.790737916810997,21.47239002333157],[71.790662033802747,21.472538560943196],[71.790566119344206,21.472727866439985]]]}},
{"type":"Feature","properties":{"id":1,"Name":"Steps"},"geometry":{"type":"MultiLineString","coordinates":[[[71.796158916581817,21.481619644650561],[71.796191287885293,21.481668510272566],[71.796425692969123,21.481970653633422],[71.796488346782411,21.48202013747413],[71.796519218082196,21.482127971134013],[71.7965655917898,21.482167215702631],[71.796654426516241,21.482273794663602],[71.796772593191591,21.482370391499188],[71.796970121843586,21.482472937291544],[71.797065730344443,21.482525351281048],[71.797144061460457,21.482586760217529],[71.797200774173277,21.482671196703318],[71.797263158157364,21.482779380879144],[71.797260464080765,21.482844303774627],[71.797220984501323,21.48293812977337],[71.79717334025149,21.483019169614941],[71.797060968147079,21.482986026096189],[71.796968138521578,21.48297079893392],[71.7968081366581,21.482975633124948],[71.796733956819565,21.482954991503068],[71.796690359757989,21.482919228597073],[71.796636482680825,21.482869094524968],[71.796486193991896,21.482871733160774],[71.796372768566258,21.482824237708961],[71.796324562760375,21.482771464966572],[71.796211137334765,21.482774103604147],[71.796080698095309,21.482813683162018],[71.795933245042008,21.482887564974597]]]}},
{"type":"Feature","properties":{"id":2,"Name":"Steps"},"geometry":{"type":"MultiLineString","coordinates":[[[71.795933245042008,21.482887564974597],[71.795846689262262,21.483080991354424],[71.79579738194893,21.48320804838314],[71.79579738194893,21.483299811723811],[71.795987025461741,21.483380986938485],[71.796233562028377,21.483448044690384],[71.796408034060178,21.483553925288387],[71.796530354125935,21.483659805809381],[71.796621383012067,21.483714510715057],[71.796746547730535,21.483760392232991],[71.796805337219496,21.483843331863341],[71.796938087678441,21.483998622959053],[71.797007307560619,21.484093915140324],[71.797060407744212,21.484130973193967],[71.797172297416765,21.484157443226508],[71.797244361951627,21.484185677922579],[71.797365733799808,21.484309204653513],[71.797446332292765,21.484372732645742],[71.797522189697887,21.484468024582114],[71.797586668492244,21.484538611161426],[71.79769381707699,21.484769781969074],[71.797750710130842,21.484944483328253],[71.797794328138778,21.485120949134767],[71.797879667719556,21.485403293980227],[71.797959317994923,21.485593876441317],[71.797966903735443,21.485705049428379],[71.797855100883467,21.485968728399769],[71.797931687446535,21.486155608045195],[71.798036092317091,21.486488771936475],[71.798078305845777,21.486596616574463],[71.798205026755085,21.486734166294656],[71.798236683236439,21.486807625826771],[71.798261771344116,21.486877223369099],[71.798310158493607,21.486908535694745],[71.798414593820297,21.486917790671122],[71.79856145959711,21.487000032399909],[71.798631657440794,21.487105987133639],[71.798815740638204,21.487404040106625],[71.798852197010476,21.487455798127161],[71.799029022366753,21.487644744406104],[71.799413235721516,21.488054978677848],[71.799687195076771,21.488350395297349],[71.800053308914386,21.488736619979431],[71.800211802589416,21.488912137826347],[71.800371583477798,21.489059610258941],[71.800578294906742,21.48923607107632],[71.800839054736869,21.489454882192721],[71.80092249788251,21.489543112388525],[71.800962323020201,21.489606638096372],[71.801305577778379,21.48978309825047],[71.801402295969893,21.490287773110161],[71.801562544738218,21.491131246765864],[71.801613748486659,21.491427696596723],[71.801947521069224,21.4919394240504],[71.802189316548024,21.492313513326177],[71.802754454216199,21.492687601640224],[71.803687500299205,21.492751125975378],[71.804165401951479,21.492781123568452],[71.804415731388389,21.492777594440177],[71.804637614298358,21.492751125975378],[71.8047343324899,21.492752890539847],[71.805073794377819,21.492816414846512],[71.805255852150083,21.492856999805696],[71.805402570350097,21.492936978916902],[71.805644141495975,21.493075373506123],[71.805673080077185,21.493081596190301],[71.805692028373414,21.493070945115704],[71.805754029227003,21.493036093659484],[71.805935188609411,21.49300611400778],[71.80603953926699,21.492998473708976],[71.806372563124555,21.493069278289269],[71.806842112664583,21.493163815761417],[71.80706753269591,21.493221602531118],[71.807486169896947,21.493343596747344],[71.807813373973019,21.493550130581998],[71.80815035391781,21.493633600131474],[71.808384399715621,21.493682825740773],[71.808417752679446,21.493694597079653],[71.808435004212441,21.493766295214119],[71.808452255745479,21.493964267491492],[71.808474682738364,21.494209324694179],[71.808365423029315,21.49437198252221],[71.808095149012175,21.494671614887302],[71.807981863945415,21.494778626296714],[71.807716190337061,21.494825711291927],[71.807731141665684,21.494847113557448],[71.807740521398898,21.494852022782972],[71.807749989658589,21.494856782611691],[71.807759543696463,21.494861391662006],[71.807769180739328,21.494865848596099],[71.807778897989891,21.494870152120281],[71.807788692627597,21.494874300985423],[71.807798561809392,21.494878293987249],[71.807798736022377,21.494878694885209],[71.807798902731477,21.494879098535971],[71.807799061886442,21.494879504817959],[71.807799213439338,21.494879913608788],[71.807799357344535,21.494880324785324],[71.807799493558676,21.494880738223717],[71.807799622040733,21.494881153799419],[71.807799742751996,21.494881571387257],[71.8077998556561,21.494881990861455],[71.807799960719038,21.494882412095642],[71.807800057909191,21.494882834962944],[71.807800147197241,21.494883259335982],[71.807800228556331,21.494883685086922],[71.807800301961919,21.494884112087529],[71.807800367391934,21.494884540209178],[71.807800424826624,21.494884969322911],[71.807800474248722,21.494885399299463],[71.807800515643322,21.494885830009327],[71.80780054899796,21.494886261322758],[71.80780057430259,21.494886693109841],[71.807800591549594,21.494887125240506],[71.807800600733771,21.494887557584594],[71.80780060185235,21.494887990011872],[71.807800594905018,21.494888422392084],[71.807800579893836,21.494888854594986],[71.807800556823352,21.494889286490398],[71.807800525700486,21.494889717948208],[71.807800486534646,21.494890148838472],[71.807800439337583,21.494890579031388],[71.807800384123581,21.494891008397371],[71.807800320909209,21.494891436807098],[71.807800249713551,21.494891864131503],[71.807800170558039,21.494892290241889],[71.807800083466489,21.494892715009893],[71.807799988465177,21.494893138307567],[71.807799885582682,21.494893560007409],[71.807799774850039,21.49489397998239],[71.80779965630056,21.494894398106009],[71.807799529969984,21.494894814252316],[71.807799395896339,21.494895228295956],[71.807799254120027,21.494895640112219],[71.807799104683752,21.494896049577054],[71.80779894763252,21.49489645656713],[71.807798783013652,21.494896860959837],[71.807798610876716,21.494897262633383],[71.807798431273582,21.494897661466755],[71.807798244258322,21.494898057339832],[71.80779804988731,21.494898450133366],[71.807797848219067,21.494898839729039],[71.80779763931433,21.494899226009498],[71.807797423236053,21.494899608858383],[71.807797200049293,21.494899988160377],[71.807796969821325,21.494900363801225],[71.807796732621441,21.494900735667777],[71.807796488521134,21.494901103648019],[71.807796237593891,21.494901467631113],[71.80779597991534,21.49490182750742],[71.807795715563088,21.49490218316852],[71.80779544461673,21.494902534507304],[71.80779516715792,21.494902881417929],[71.807794883270219,21.494903223795905],[71.807794593039134,21.494903561538099],[71.807794296552103,21.494903894542777],[71.807793993898414,21.494904222709632],[71.807793685169244,21.4949045459398],[71.807793370457588,21.494904864135943],[71.807793049858248,21.494905177202199],[71.807792723467784,21.494905485044267],[71.80779239138451,21.494905787569419],[71.807792053708468,21.494906084686527],[71.80779171054138,21.494906376306091],[71.807791361986588,21.494906662340284],[71.80779100814911,21.494906942702936],[71.807790649135498,21.494907217309599],[71.807790285053912,21.494907486077555],[71.807789916014045,21.49490774892584],[71.807789542127011,21.494908005775287],[71.807789163505461,21.494908256548523],[71.807788780263451,21.494908501170016],[71.8077883925164,21.494908739566075],[71.807788000381123,21.494908971664898],[71.807787603975726,21.494909197396563],[71.807787203419608,21.49490941669308],[71.807786798833448,21.494909629488394],[71.807786390339089,21.494909835718406],[71.807785978059584,21.494910035320991],[71.80778556211915,21.494910228236023],[71.807785142643041,21.494910414405407],[71.80778471975762,21.494910593773053],[71.807784293590259,21.494910766284931],[71.807783864269368,21.494910931889084],[71.807783431924221,21.494911090535631],[71.807782996685077,21.494911242176769],[71.807782558683016,21.494911386766834],[71.80778211805,21.494911524262267],[71.807781674918729,21.49491165462166],[71.807781229422716,21.494911777805736],[71.807780781696124,21.494911893777395],[71.807780331873801,21.494912002501703],[71.807779880091303,21.494912103945907],[71.807779426484657,21.494912198079458],[71.807778971190544,21.49491228487399],[71.807778514346069,21.494912364303367],[71.80777805608885,21.494912436343657],[71.807773125361308,21.494911389872239],[71.807768213936143,21.49491026756532],[71.807763323160557,21.494909069730731],[71.807758454375985,21.494907796697031],[71.807753608917935,21.494906448813392],[71.807748788115433,21.494905026449519],[71.807743993290785,21.494903529995558],[71.80773922575915,21.494901959861966],[71.80773448682821,21.494900316479406],[71.807729777797832,21.49489860029864],[71.807725099959598,21.494896811790397],[71.807720454596648,21.494894951445243],[71.807715842983114,21.494893019773446],[71.807711266383933,21.494891017304841],[71.807706726054406,21.494888944588684],[71.807702223239914,21.494886802193491],[71.807697759175497,21.494884590706892],[71.807693335085645,21.494882310735488],[71.807689179599407,21.494879866969168],[71.807684981097594,21.494877487706699],[71.807680740736686,21.494875173603429],[71.807676459684615,21.494872925296757],[71.807672139120555,21.494870743405965],[71.807667780234596,21.494868628532043],[71.807663384227325,21.494866581257501],[71.807658952309595,21.494864602146251],[71.807654485702116,21.494862691743428],[71.807649985635209,21.494860850575233],[71.807645453348329,21.494859079148796],[71.807640890089885,21.494857377952048],[71.807636297116773,21.49485574745357],[71.807631675694083,21.494854188102476],[71.807627027094725,21.494852700328263],[71.807622352599154,21.494851284540733],[71.807617653494887,21.49484994112985],[71.80761293107625,21.494848670465654],[71.807612528661892,21.494848513427002],[71.807612123364379,21.494848362944296],[71.80761171530709,21.494848219063318],[71.807611304614213,21.494848081827865],[71.807610891410746,21.494847951279716],[71.807610475822443,21.494847827458599],[71.807610057975822,21.494847710402208],[71.807609637998041,21.494847600146159],[71.807609216016928,21.494847496724017],[71.807608792160948,21.494847400167259],[71.807608366559066,21.494847310505282],[71.807607939340841,21.494847227765366],[71.807607510636302,21.494847151972692],[71.807607080575949,21.49484708315034],[71.807606649290662,21.494847021319245],[71.807606216911694,21.49484696649824],[71.807605783570665,21.494846918703995],[71.807605349399452,21.494846877951069],[71.807604914530245,21.49484684425186],[71.807604479095374,21.494846817616629],[71.807604043227371,21.49484679805348],[71.807603607058894,21.49484678556837],[71.807603170722714,21.494846780165094],[71.807602734351605,21.494846781845297],[71.807602298078436,21.494846790608481],[71.807601862035952,21.494846806451953],[71.807601426356896,21.494846829370914],[71.807600991173842,21.494846859358383],[71.807600556619278,21.494846896405221],[71.807600122825448,21.494846940500167],[71.807599689924388,21.494846991629796],[71.807599258047858,21.494847049778542],[71.807598827327325,21.494847114928707],[71.807598397893855,21.494847187060461],[71.807597969878174,21.494847266151854],[71.807597543410552,21.494847352178805],[71.807597118620791,21.494847445115145],[71.807596695638168,21.494847544932572],[71.807596274591461,21.494847651600711],[71.807595855608781,21.494847765087098],[71.807595438817671,21.494847885357192],[71.807595024344991,21.494848012374376],[71.80759461231689,21.494848146100004],[71.807594202858766,21.494848286493365],[71.807593796095261,21.494848433511734],[71.807593392150181,21.494848587110365],[71.80759299114645,21.4948487472425],[71.807592593206152,21.494848913859403],[71.807592198450365,21.494849086910364],[71.807591806999284,21.494849266342708],[71.807591418972024,21.494849452101828],[71.807591034486705,21.494849644131179],[71.807590653660327,21.494849842372318],[71.807590276608835,21.494850046764906],[71.807589903446967,21.494850257246728],[71.807589534288311,21.494850473753726],[71.807589169245205,21.494850696220006],[71.80758880842879,21.494850924577847],[71.80758845194886,21.494851158757747],[71.807588099913929,21.494851398688432],[71.807587752431132,21.494851644296876],[71.807587409606256,21.494851895508319],[71.807587071543622,21.494852152246313],[71.807586738346117,21.4948524144327],[71.807586410115192,21.494852681987688],[71.807586086950721,21.494852954829842],[71.807585768951071,21.494853232876114],[71.807585456213033,21.494853516041875],[71.807585148831762,21.49485380424095],[71.80758484690088,21.494854097385609],[71.807584550512232,21.494854395386628],[71.807584259756055,21.494854698153315],[71.807583974720842,21.494855005593518],[71.807583695493321,21.494855317613649],[71.807583422158501,21.49485563411875],[71.807583154799588,21.494855955012486],[71.807582893497937,21.494856280197187],[71.807582638333088,21.49485660957388],[71.807582389382702,21.494856943042311],[71.807582146722567,21.49485728050098],[71.807581910426507,21.494857621847189],[71.807581680566472,21.494857966977023],[71.807581457212407,21.494858315785454],[71.807581240432299,21.494858668166312],[71.807581030292141,21.494859024012339],[71.807580826855855,21.494859383215228],[71.807580630185413,21.494859745665654],[71.807580440340629,21.494860111253303],[71.807580257379328,21.49486047986689],[71.807580081357145,21.494860851394229],[71.807579912327697,21.494861225722239],[71.807579750342427,21.494861602736989],[71.807579595450619,21.494861982323723],[71.807579447699439,21.494862364366913],[71.807579307133835,21.494862748750275],[71.807579173796583,21.49486313535682],[71.807579047728296,21.494863524068872],[71.807578928967359,21.494863914768121],[71.807578817549853,21.49486430733565],[71.807578713509741,21.494864701651981],[71.8075786168787,21.494865097597092],[71.80757852768609,21.494865495050469],[71.807578445959095,21.494865893891149],[71.807578371722599,21.494866293997731],[71.807578304999168,21.494866695248433],[71.807578245809125,21.494867097521137],[71.807578194170475,21.494867500693402],[71.807578150098934,21.494867904642511],[71.807578113607946,21.494868309245522],[71.807578084708595,21.49486871437928],[71.807578063409679,21.49486911992048],[71.807578049717662,21.494869525745692],[71.807578043636752,21.49486993173139],[71.807578045168768,21.494870337754012],[71.807578054313254,21.494870743689972],[71.807578071067425,21.494871149415722],[71.80757809542618,21.494871554807773],[71.807578127382101,21.494871959742724],[71.807578166925481,21.494872364097347],[71.80757821404427,21.494872767748561],[71.807578268724129,21.494873170573506],[71.807578330948402,21.494873572449578],[71.807578400698176,21.494873973254453],[71.807578477952205,21.494874372866146],[71.80757856268697,21.494874771163037],[71.807578654876693,21.494875168023881],[71.807578754493321,21.494875563327895],[71.807578861506499,21.494875956954765],[71.8075789758837,21.494876348784672],[71.807579097590093,21.49487673869837],[71.807579226588629,21.49487712657718],[71.807579362840045,21.494877512303034],[71.807579506302901,21.494877895758545],[71.80757965693347,21.494878276826991],[71.807579814685965,21.494878655392391],[71.80757997951234,21.494879031339522],[71.80758015136243,21.494879404553963],[71.807580330183953,21.494879774922119],[71.807580515922439,21.494880142331251],[71.807580708521385,21.494880506669539],[71.807580907922173,21.494880867826101],[71.807581114064092,21.494881225691],[71.807581326884417,21.494881580155315],[71.807581546318374,21.49488193111117],[71.807581772299173,21.494882278451733],[71.807582004758018,21.494882622071291],[71.807582243624168,21.494882961865258],[71.80758248882492,21.494883297730212],[71.807582740285639,21.494883629563923],[71.807582997929799,21.494883957265397],[71.807583261678957,21.494884280734894],[71.807583531452877,21.494884599873959],[71.807583807169408,21.494884914585448],[71.807584088744647,21.49488522477359],[71.807584376092905,21.494885530343961],[71.807584669126712,21.494885831203558],[71.807584967756867,21.494886127260813],[71.807585271892492,21.494886418425612],[71.807585581441003,21.494886704609346],[71.807585896308211,21.494886985724893],[71.807586216398263,21.494887261686699],[71.807586541613745,21.494887532410772],[71.807586871855648,21.494887797814709],[71.807587207023474,21.494888057817732],[71.807587547015231,21.494888312340713],[71.80758789172738,21.494888561306169],[71.807588241055058,21.494888804638329],[71.807588594891911,21.494889042263136],[71.807588953130264,21.494889274108264],[71.807589315661062,21.494889500103135],[71.807589682373973,21.494889720178982],[71.807590053157369,21.494889934268805],[71.807590427898418,21.494890142307451],[71.807590806483034,21.494890344231603],[71.807884247463051,21.495017429426067],[71.808020518452238,21.495075232226615],[71.808021216509573,21.495075275676342],[71.808021913648517,21.495075330422939],[71.808022609657897,21.495075396449828],[71.808023304326895,21.495075473737014],[71.808023997445119,21.495075562261075],[71.808024688802604,21.495075661995212],[71.808025378189967,21.495075772909203],[71.80802606539838,21.495075894969464],[71.808026750219696,21.495076028139021],[71.808027432446522,21.495076172377534],[71.808028111872162,21.495076327641318],[71.808028788290841,21.495076493883342],[71.808029461497696,21.495076671053262],[71.808030131288817,21.495076859097399],[71.808030797461313,21.495077057958802],[71.808031459813407,21.495077267577244],[71.80803211814451,21.49507748788923],[71.80803277225516,21.495077718828025],[71.808033421947272,21.49507796032368],[71.808034067024067,21.495078212303056],[71.808034707290133,21.495078474689819],[71.808035342551548,21.495078747404499],[71.808035972615883,21.495079030364494],[71.808036597292329,21.495079323484095],[71.808037216391639,21.495079626674524],[71.808037829726317,21.495079939843944],[71.808038437110582,21.495080262897496],[71.808039038360462,21.495080595737328],[71.808039633293845,21.495080938262635],[71.808040221730522,21.495081290369654],[71.808040803492275,21.49508165195175],[71.808041378402876,21.495082022899393],[71.808041946288213,21.495082403100227],[71.808042506976264,21.495082792439092],[71.80804306029718,21.495083190798066],[71.808043606083388,21.495083598056482],[71.8080441441696,21.495084014090988],[71.808044674392761,21.495084438775571],[71.808045196592346,21.4950848719816],[71.808045710610145,21.495085313577853],[71.808046216290478,21.495085763430577],[71.808046713480167,21.495086221403515],[71.808047202028618,21.495086687357954],[71.808047681787855,21.49508716115275],[71.808048152612599,21.495087642644407],[71.808048614360175,21.49508813168708],[71.808049066890788,21.495088628132638],[71.808049510067335,21.495089131830721],[71.808049943755563,21.495089642628749],[71.808050367824166,21.495090160372019],[71.808050782144633,21.495090684903701],[71.808051186591541,21.495091216064921],[71.808051581042335,21.495091753694794],[71.80805196537753,21.495092297630482],[71.808052339480753,21.495092847707223],[71.808052703238687,21.49509340375841],[71.808053056541127,21.495093965615617],[71.808053399281064,21.495094533108656],[71.808053731354704,21.495095106065651],[71.808054052661447,21.495095684313043],[71.808054363103992,21.495096267675692],[71.80805466258829,21.495096855976907],[71.808054951023635,21.495097449038482],[71.808055228322658,21.495098046680802],[71.808055494401373,21.495098648722834],[71.808055749179189,21.495099254982229],[71.808055992578929,21.49509986527535],[71.808056224526894,21.495100479417349],[71.808056444952783,21.4951010972222],[71.808056653789848,21.495101718502788],[71.808056850974864,21.495102343070922],[71.808057036448076,21.495102970737431],[71.808057210153322,21.495103601312195],[71.808057372037965,21.49510423460422],[71.808057522052977,21.495104870421688],[71.80805766015294,21.49510550857201],[71.808057786296018,21.4951061488619],[71.808057900443984,21.495106791097413],[71.808057206507073,21.495107837727883],[71.808056493312677,21.49510887309053],[71.808055761072112,21.495109896878642],[71.808055010002278,21.495110908788917],[71.808054240325674,21.49511190852159],[71.808053452270329,21.495112895780487],[71.808052646069697,21.495113870273133],[71.808051821962607,21.49511483171085],[71.808050980193201,21.49511577980881],[71.808050121010837,21.495116714286144],[71.808049244670059,21.495117634866016],[71.8080483514305,21.495118541275712],[71.808047441556724,21.495119433246703],[71.808046515318324,21.495120310514757],[71.80804557298967,21.495121172819978],[71.808044614849933,21.495122019906916],[71.808043641182962,21.495122851524631],[71.808042652277209,21.495123667426746],[71.808041648425601,21.495124467371557],[71.808040629925543,21.495125251122097],[71.808039597078775,21.495126018446175],[71.80803855019127,21.495126769116471],[71.808037489573152,21.495127502910606],[71.808036415538638,21.495128219611185],[71.808035328405879,21.495128919005907],[71.808034228496965,21.495129600887573],[71.808033116137736,21.495130265054172],[71.808031991657714,21.495130911308955],[71.808030855390015,21.495131539460466],[71.808029707671267,21.495132149322622],[71.808028548841477,21.495132740714752],[71.808027379243939,21.495133313461658],[71.808026199225139,21.495133867393669],[71.808025009134667,21.495134402346686],[71.80802380932505,21.495134918162222],[71.808022600151773,21.495135414687482],[71.80802138197302,21.495135891775362],[71.808020155149677,21.495136349284536],[71.8080189200452,21.495136787079456],[71.808017677025447,21.495137205030439],[71.808016426458678,21.495137603013664],[71.8080151687154,21.495137980911235],[71.808013904168149,21.495138338611191],[71.808012633191609,21.495138676007574],[71.808011356162268,21.495138993000435],[71.808010073458419,21.49513928949585],[71.808008785460117,21.495139565406003],[71.808007492548867,21.495139820649143],[71.807948418286898,21.495164051378104],[71.807888927499803,21.495187383190466],[71.807887805715609,21.49518738614071],[71.807886684153985,21.4951874071396],[71.807885563150322,21.495187446180847],[71.807884443039853,21.49518750325279],[71.807883324157558,21.49518757833836],[71.807882206838002,21.495187671415096],[71.807881091415354,21.495187782455162],[71.807879978223156,21.495187911425361],[71.807878867594312,21.495188058287123],[71.807877759860943,21.495188222996521],[71.807876655354335,21.495188405504301],[71.807875554404774,21.495188605755896],[71.807874457341484,21.495188823691411],[71.807873364492565,21.495189059245671],[71.80787227618481,21.495189312348245],[71.80787119274369,21.49518958292343],[71.807870114493184,21.495189870890322],[71.807869041755751,21.495190176162801],[71.807867974852201,21.495190498649571],[71.807866914101581,21.495190838254203],[71.807865859821092,21.49519119487513],[71.807864812326031,21.495191568405708],[71.807863771929632,21.495191958734239],[71.807862738943044,21.495192365743993],[71.807861713675166,21.495192789313254],[71.807860696432599,21.495193229315351],[71.807859687519539,21.495193685618712],[71.807858687237726,21.495194158086868],[71.807857695886284,21.49519464657854],[71.807856713761652,21.495195150947641],[71.807855741157553,21.495195671043334],[71.807854778364813,21.495196206710094],[71.807853825671401,21.495196757787735],[71.807852883362173,21.495197324111448],[71.807851951718959,21.495197905511883],[71.80785103102032,21.495198501815171],[71.80785012154162,21.49519911284299],[71.80784922355484,21.495199738412609],[71.807848337328508,21.495200378336964],[71.807847463127644,21.495201032424674],[71.807846601213683,21.495201700480141],[71.807845751844368,21.495202382303589],[71.807844915273719,21.495203077691116],[71.807844091751917,21.495203786434764],[71.80784328152518,21.495204508322594],[71.807842484835874,21.495205243138724],[71.8078417019222,21.495205990663404],[71.807840933018298,21.495206750673095],[71.807840178354098,21.495207522940518],[71.807839438155298,21.495208307234723],[71.80783871264326,21.495209103321173],[71.807838002034913,21.495209910961805],[71.807837306542794,21.495210729915087],[71.807836626374865,21.495211559936109],[71.80783596173454,21.495212400776673],[71.807835312820586,21.495213252185316],[71.807834679827039,21.495214113907426],[71.807834062943201,21.495214985685308],[71.807833462353543,21.495215867258267],[71.80783287823769,21.495216758362663],[71.807832310770323,21.49521765873201],[71.807831760121104,21.495218568097062],[71.807831226454738,21.495219486185871],[71.807830709930798,21.495220412723896],[71.807830621864426,21.495220873863083],[71.807830542431617,21.495221336357737],[71.80783047165643,21.495221800067927],[71.807830409560282,21.495222264853361],[71.807830356161958,21.495222730573417],[71.807830311477602,21.495223197087192],[71.807830275520743,21.495223664253544],[71.807830248302253,21.495224131931138],[71.807830229830387,21.495224599978467],[71.807830220110716,21.495225068253937],[71.807830219146183,21.495225536615862],[71.807830226937057,21.495226004922547],[71.807830243481021,21.4952264730323],[71.807830268773046,21.495226940803501],[71.807830302805471,21.495227408094628],[71.807830345568036,21.495227874764296],[71.80783039704778,21.495228340671321],[71.80783045722913,21.495228805674738],[71.807830526093866,21.495229269633867],[71.807830603621184,21.495229732408337],[71.807830689787593,21.495230193858138],[71.807830784567045,21.495230653843649],[71.807830887930862,21.495231112225714],[71.807830999847766,21.495231568865645],[71.807831120283893,21.495232023625292],[71.80783124920282,21.495232476367057],[71.807831386565525,21.495232926953978],[71.807831532330468,21.495233375249718],[71.80783168645354,21.495233821118653],[71.8078318488881,21.495234264425886],[71.807832019585035,21.495234705037294],[71.807832198492648,21.49523514281957],[71.807832385556864,21.495235577640262],[71.807832580721069,21.495236009367826],[71.807832783926202,21.495236437871636],[71.8078329951108,21.495236863022043],[71.807833214210959,21.495237284690429],[71.807833441160412,21.495237702749218],[71.807833675890464,21.495238117071921],[71.807833918330132,21.495238527533186],[71.807834168406032,21.495238934008839],[71.807834426042518,21.495239336375885],[71.807834691161645,21.495239734512602],[71.80783496368322,21.49524012829853],[71.80783524352475,21.495240517614533],[71.807835530601622,21.495240902342818],[71.807835824826924,21.495241282366987],[71.807836126111681,21.49524165757207],[71.807836434364717,21.495242027844551],[71.807836749492793,21.495242393072395],[71.807837071400542,21.49524275314511],[71.807837399990603,21.495243107953758],[71.807837735163517,21.495243457390984],[71.80783807681793,21.495243801351076],[71.807838424850431,21.495244139729966],[71.807838779155745,21.49524447242527],[71.807839139626651,21.495244799336348],[71.807839506154153,21.495245120364281],[71.807839878627291,21.495245435411949],[71.807840256933417,21.495245744384029],[71.807840640958048,21.495246047187052],[71.80784103058501,21.495246343729391],[71.807841425696424,21.495246633921344],[71.807841826172748,21.4952469176751],[71.80784223189282,21.495247194904824],[71.807842642733888,21.495247465526628],[71.807843058571635,21.495247729458637],[71.80784347928028,21.49524798662101],[71.807843904732536,21.495248236935932],[71.807844334799654,21.495248480327671],[71.807844769351561,21.4952487167226],[71.807845208256737,21.49524894604918],[71.807845651382436,21.49524916823805],[71.807846098594553,21.495249383221971],[71.807846549757812,21.495249590935909],[71.807847004735706,21.495249791317015],[71.807847463390573,21.495249984304671],[71.807847925583658,21.495250169840482],[71.807848391175142,21.495250347868314],[71.807848860024123,21.495250518334313],[71.807849331988763,21.495250681186896],[71.807849806926299,21.495250836376801],[71.807850284693018,21.495250983857069],[71.807850765144352,21.495251123583081],[71.807851248134995,21.495251255512564],[71.80785173351876,21.495251379605602],[71.807852221148835,21.49525149582465],[71.807852710877683,21.495251604134559],[71.807853202557098,21.49525170450254],[71.807853696038379,21.495251796898238],[71.807854191172197,21.495251881293697],[71.807854687808771,21.495251957663388],[71.807855185797806,21.495252025984197],[71.807855684988652,21.495252086235457],[71.807856185230307,21.495252138398939],[71.80785668637138,21.495252182458863],[71.807857188260286,21.495252218401902],[71.807857690745166,21.495252246217174],[71.807858193673994,21.495252265896262],[71.807858696894613,21.495252277433224],[71.807859200254782,21.495252280824555],[71.80785970360219,21.495252276069241],[71.807860206784554,21.495252263168712],[71.80786070964966,21.495252242126881],[71.807861212045353,21.49525221295011],[71.807861713819619,21.495252175647217],[71.807862214820673,21.495252130229495],[71.807862714896913,21.495252076710692],[71.807863213897065,21.495252015106988],[71.807863711670151,21.495251945437026],[71.807864208065567,21.49525186772189],[71.807864702933117,21.495251781985086],[71.807865196123103,21.495251688252552],[71.807865687486299,21.495251586552655],[71.807866176874043,21.495251476916152],[71.807866664138288,21.495251359376226],[71.807867149131582,21.495251233968428],[71.807867631707197,21.495251100730709],[71.807868111719173,21.495250959703373],[71.807868589022235,21.495250810929093],[71.807869063472012,21.495250654452864],[71.807869534924919,21.495250490322057],[71.807870003238349,21.495250318586308],[71.807870468270607,21.495250139297575],[71.807896166850782,21.495250022299999],[71.807921864463125,21.495250260525474],[71.807947555436357,21.495250853921419],[71.807973234100558,21.495251802356876],[71.807998894788639,21.495253105622517],[71.808024531837361,21.495254763430712],[71.808076322290503,21.495257687572852],[71.808128154001636,21.495259889705565],[71.808180015344817,21.495261369334933],[71.808180700119507,21.495261285792882],[71.808181386354377,21.495261213362525],[71.808182073841152,21.495261152065847],[71.808182762371217,21.495261101921436],[71.808183451735601,21.495261062944522],[71.808184141725121,21.495261035146925],[71.808184832130365,21.495261018537089],[71.808185522741823,21.495261013120054],[71.808186213349913,21.495261018897459],[71.808186903745039,21.495261035867554],[71.80818759371769,21.495261064025183],[71.80818828305847,21.495261103361813],[71.808188971558209,21.495261153865492],[71.808189659007937,21.495261215520902],[71.808190345199037,21.495261288309329],[71.808191029923279,21.495261372208692],[71.808191712972857,21.495261467193522],[71.808192394140463,21.495261573234991],[71.808193073219428,21.495261690300921],[71.80819375000361,21.495261818355786],[71.808194424287663,21.495261957360718],[71.808195095866964,21.49526210727355],[71.808195764537686,21.495262268048773],[71.808196430096899,21.495262439637596],[71.808197092342652,21.495262621987944],[71.808197751073919,21.495262815044498],[71.808198406090852,21.495263018748641],[71.808199057194628,21.495263233038571],[71.808199704187672,21.495263457849259],[71.808200346873633,21.49526369311247],[71.808200985057468,21.495263938756814],[71.80820161854551,21.495264194707744],[71.808202247145516,21.495264460887583],[71.808202870666705,21.495264737215557],[71.808203488919872,21.4952650236078],[71.808204101717379,21.495265319977403],[71.808204708873276,21.495265626234431],[71.808205310203277,21.495265942285926],[71.808205905524915,21.495266268035991],[71.80820649465754,21.495266603385765],[71.808207077422324,21.495266948233475],[71.808207653642455,21.495267302474467],[71.808208223143026,21.495267666001237],[71.808208785751248,21.495268038703475],[71.808209341296347,21.495268420468062],[71.808209889609742,21.495268811179152],[71.808210430525051,21.495269210718163],[71.808210963878096,21.495269618963857],[71.80821148950703,21.495270035792327],[71.808212007252322,21.495270461077098],[71.808212516956885,21.495270894689082],[71.80821301846602,21.495271336496707],[71.808213511627486,21.495271786365887],[71.808213996291698,21.495272244160102],[71.808214472311533,21.495272709740416],[71.808214939542509,21.495273182965544],[71.808215397842872,21.495273663691872],[71.808215847073527,21.495274151773515],[71.808216287098148,21.495274647062345],[71.808216717783182,21.495275149408066],[71.808217138997946,21.495275658658212],[71.8082175506146,21.495276174658255],[71.808217952508244,21.49527669725159],[71.808218344556863,21.495277226279626],[71.808218726641556,21.495277761581821],[71.808219098646333,21.495278302995725],[71.808219460458275,21.495278850357025],[71.808219811967632,21.495279403499612],[71.808220153067694,21.49527996225563],[71.808220483654978,21.495280526455502],[71.808220093155057,21.495282304516714],[71.808219669574186,21.495284076009554],[71.80821921303972,21.495285840401234],[71.808218723688995,21.495287597161095],[71.808218201669163,21.495289345760774],[71.808217647137241,21.495291085674356],[71.808217060260006,21.495292816378551],[71.808216441213986,21.495294537352841],[71.808215790185329,21.495296248079605],[71.808215107369861,21.495297948044339],[71.808214392972943,21.495299636735758],[71.808213647209442,21.495301313645967],[71.808212870303649,21.49530297827063],[71.808212062489218,21.495304630109086],[71.808211224009128,21.495306268664525],[71.808210355115534,21.495307893444146],[71.80820945606979,21.49530950395927],[71.808208527142284,21.49531109972553],[71.808207568612389,21.495312680262966],[71.808206580768399,21.495314245096235],[71.808205563907421,21.495315793754688],[71.808204518335302,21.495317325772547],[71.80820344436647,21.495318840689055],[71.808053640621864,21.49553881704162],[71.808046540918326,21.495562598249006],[71.808055060562566,21.495574488851236],[71.808139547034656,21.495589021808208],[71.808276571312916,21.495613463596197],[71.808364252651586,21.495631299492938],[71.808381291940051,21.495643850678231],[71.808382001910431,21.495663007748423],[71.808304615141864,21.495832778915474],[71.808277636268443,21.495887607693636],[71.808271246535256,21.495927242942091],[71.808276216327712,21.495947721149566],[71.808350763214861,21.496046148622675],[71.80846897327875,21.49621591934261],[71.808545650076937,21.496338127714882],[71.808588248298165,21.496414095029682],[71.808715332991468,21.496528376219832],[71.808779937563713,21.49659481430648],[71.808942299054522,21.496672325369222],[71.808943149114683,21.496716617386525],[71.808924447791142,21.496908812948259],[71.808921047550484,21.496967341587421],[71.80892614791145,21.497008469806236],[71.808977151521134,21.497070162112681],[71.809078308680313,21.497192755720906],[71.809235569810141,21.49738890527918],[71.809292098810872,21.497455342972817],[71.809385605428602,21.497694202049335],[71.80942173298547,21.497804931289508],[71.809442134429347,21.497895096465669],[71.809530115656017,21.498129209293719],[71.809562842972241,21.498211465062774],[71.809595145258342,21.498279484221289],[71.80969120205657,21.498416313362412],[71.809832312043341,21.498626697802294],[71.809980647541479,21.498831545517191],[71.810032076181244,21.498924873724071],[71.810119632377848,21.499120230031071],[71.810195287732199,21.499290276805361],[71.810254791943493,21.499421568597423],[71.810280293748335,21.499508569117243],[71.810290919500332,21.499561560317453],[71.810289219380024,21.499616133324341],[71.810262867515021,21.499847079735581],[71.81025266679309,21.499954643692369],[71.81031302106453,21.500083562153414],[71.810454981111462,21.500350098732024],[71.810541687247905,21.500507489538698],[71.81059354091775,21.50068465285603],[71.810618617692512,21.500757416298843],[71.810712974370389,21.500832552424423],[71.810786079544258,21.500877634081139],[71.811008795306506,21.500951979238881],[71.811312266784086,21.501060333283718],[71.811407473522124,21.501095133105807],[71.811559634291001,21.501193205286892],[71.811768324060594,21.501317377227767],[71.812035667981306,21.501480303307851],[71.812236707209422,21.501610011318782],[71.812495975558605,21.501712828562347],[71.812721241501336,21.501805364019393],[71.812830049201978,21.501847281771166],[71.813037463881329,21.501978571255123],[71.813341785419055,21.502164432671339],[71.813364737043386,21.502200814027141],[71.813410640292091,21.502337639479446],[71.813493521157824,21.502573326950927],[71.813587452805649,21.502857258666076],[71.813657157738859,21.503051818797054],[71.813646106956782,21.503070800259305],[71.813624855452758,21.503090572613193],[71.813481195285505,21.503206833999659],[71.813470994563559,21.503226606335048],[71.813480345225329,21.503249542240731],[71.813577252083718,21.503259032959267],[71.813710711529041,21.503262196531974],[71.813825894680875,21.50327010546345],[71.813825894680875,21.503297786720193],[71.813708586378624,21.503390321168791],[71.813450168089616,21.503570644540481],[71.813501171699286,21.503730404533876],[71.813591278076387,21.503966880637581],[71.813643131746218,21.504116358645231],[71.81368138445346,21.504187538594877],[71.813857346906843,21.504392378477792],[71.814043085052077,21.504631226162225],[71.81415316784296,21.504809175340981],[71.814180369768138,21.504870073454363],[71.814208421753449,21.504968933973721],[71.814224572896507,21.505019550533632]]]}},
{"type":"Feature","properties":{"id":2,"Name":"Steps"},"geometry":{"type":"MultiLineString","coordinates":[[[71.782517560243406,21.489357207586092],[71.782778931958177,21.489410357818866],[71.782886250145694,21.489437738234255],[71.783088769951178,21.489436127621719],[71.783177047815073,21.489423242720875],[71.783348249221291,21.489379797157277],[71.783474056315285,21.489355660727448],[71.783550578155939,21.489379797157277],[71.783706215797963,21.489519788371314],[71.783885847576443,21.489651331716949],[71.783896017861792,21.489642499317121],[71.783899407956909,21.48954345022517],[71.783948903345589,21.489514429459348],[71.784053996294176,21.489478468937147],[71.784202223707126,21.489488930026972],[71.7842663069233,21.489551088163665],[71.784341653250195,21.489563375234059],[71.784434088434736,21.489595177058483],[71.784515730160521,21.489622165093717],[71.784544734457853,21.489639157557775],[71.784616708084528,21.489698131388245],[71.784662900113588,21.489666145584852],[71.784712314842338,21.489575185918046],[71.784730025070331,21.489572439403357],[71.784754229048602,21.489624073870818],[71.784784336436175,21.489623524568074],[71.784791420527398,21.489606496181828],[71.784886465417628,21.489609242695867],[71.784895712024152,21.489586049788937],[71.784921441711973,21.489577071888483],[71.784972097034853,21.489529189743383],[71.784990590247986,21.489493278124229],[71.7849801375623,21.489427440132744],[71.785013505751209,21.489393024807157],[71.785069789443284,21.489298008539933],[71.785134113662835,21.489214214614996],[71.785156627139656,21.489161843387411],[71.785214518937238,21.489134161445214],[71.785346383587296,21.489090019958937],[71.78545975502422,21.489048122942609],[71.785564281880951,21.489001736946193],[71.785680065476114,21.488949365642149],[71.785778159910919,21.488925424468306],[71.785868213818262,21.488901483290537],[71.785982389307932,21.488859586219945],[71.786081287795483,21.488828163409085],[71.786191443021423,21.488775792042571],[71.786278280717795,21.48871967984326],[71.78641416563157,21.488656834154348],[71.786488942536792,21.488627655789553],[71.786544422176135,21.488593240274838],[71.78659829371,21.48855134311551],[71.78675588804785,21.488406947456134],[71.786838705480505,21.488328390171933],[71.786964137708608,21.488157808494567],[71.787043738930265,21.48797899678479],[71.787039718666549,21.487966277951877],[71.78695207691743,21.487892957599286],[71.786841921691476,21.487981989451193],[71.786722921885342,21.487991715616591],[71.786605530184715,21.487986478450683],[71.786548442439852,21.487932610447622],[71.786523516804778,21.487876497923217],[71.786484922273075,21.487773998989471],[71.786485726325807,21.48766850731074],[71.786471253376419,21.487476227954957],[71.786457986506136,21.487332579398871],[71.786578594417747,21.487197908748779],[71.786613972738508,21.487135062402764],[71.786623621371433,21.487048274546982],[71.786622817318687,21.486977198247235],[71.786865239221058,21.486657728555574],[71.786903833752802,21.486607600929066],[71.786944036389997,21.486577673979646],[71.787014793031474,21.486543257980195],[71.787067056459847,21.486512582843396],[71.787103238833353,21.486502856579158],[71.787134596890354,21.486511834669244],[71.787210981901069,21.486538768936192],[71.787252390617397,21.486514079191679],[71.787311086467724,21.486453477073759],[71.787419231561813,21.486353969837772],[71.787473103095664,21.486315812909684],[71.787539035420679,21.486281396848334],[71.787608183956678,21.486259699761977],[71.787725173630989,21.486217053755247],[71.787840957226138,21.486149717929717],[71.788036342042957,21.486128768999865],[71.788101470315254,21.486065174015774],[71.788142477005209,21.486018038891981],[71.788220470121402,21.485979881875835],[71.788296855132074,21.485937235787127],[71.788400175909729,21.485883367025632],[71.788566614827758,21.485795082067849],[71.788679182211951,21.485687344419716],[71.788763607750084,21.485528730514837],[71.789012060048037,21.485410518152577],[71.789145808422049,21.485350970621383],[71.789353150398981,21.485123498827971],[71.789538094322822,21.484919845768921],[71.789609768092632,21.48471738338101],[71.789636645756303,21.484629252606553],[71.789671202752444,21.484586378156436],[71.789709599414849,21.484564940926646],[71.789781273184644,21.484545885608622],[71.789897103116175,21.48451134783835],[71.790117243980561,21.484424407897599],[71.790250352410197,21.484382724345942],[71.79033866473371,21.484370814757558],[71.79057160448555,21.484329131190563],[71.790704712915172,21.48420050753716],[71.790780866295592,21.48412071317652],[71.791084199928491,21.484015908576712],[71.791189150805707,21.4838193997487],[71.791239066466801,21.483725313609863],[71.791216028469378,21.483653855742265],[71.791407371836939,21.483516894731331],[71.791566933792865,21.48339480286403],[71.791627260763633,21.483330903726188],[71.791700744148287,21.483248491712594],[71.791793801709588,21.483203702555208],[71.791827433350392,21.48319251242394],[71.791936917821133,21.483151149926289],[71.792138277028911,21.483069292939966],[71.792260141719808,21.483005459478335],[71.792392498072815,21.482884551315436],[71.792496607643173,21.482791429432087],[71.792598296060746,21.482717833062793],[71.792694335121766,21.482668268140046],[71.792865429919559,21.48263447386487],[71.793125300320014,21.482572893165475],[71.79332464190044,21.482524079177939],[71.793433593776413,21.482518071301417],[71.793670866750702,21.482501549639707]]]}},
{"type":"Feature","properties":{"id":1,"Name":"Steps"},"geometry":{"type":"MultiLineString","coordinates":[[[71.794746260198082,21.47974287695758],[71.79461449761385,21.479661811378278],[71.794407341532917,21.47949994452906],[71.794222324269796,21.479351321172661],[71.793995401387235,21.479226241992809],[71.793770850520886,21.479108520313606],[71.793694946002702,21.479076146835137],[71.793422954812456,21.47908056140081],[71.793230030828695,21.479101162705494],[71.792852089581828,21.479171795728],[71.79257061032682,21.479383694589949],[71.792127043298578,21.479695656242185],[71.792036116011147,21.479789833213406],[71.79184161068325,21.480016446300763],[71.791722219201489,21.480272489234835],[71.791665017498758,21.480365639402457],[71.791583300780616,21.480481601772745],[71.791538356585647,21.480601366091012],[71.791503626980443,21.480742041513629],[71.791526099077913,21.480880815783852],[71.791634373729465,21.481103234543802],[71.791732433791225,21.481344663069596],[71.7918080217555,21.481422604476691],[71.791948983094272,21.481553774067603],[71.792073601089427,21.481645022408962],[71.792149189053703,21.48176668677517],[71.792181875740965,21.481890252043016],[71.792173704069171,21.482017619209344],[71.791981669781549,21.482200115253459],[71.791942854340434,21.482375007081075],[71.791846837196616,21.482608829522388],[71.791827433350392,21.48319251242394]]]}},
{"type":"Feature","properties":{"id":2,"Name":"Steps"},"geometry":{"type":"MultiLineString","coordinates":[[[71.778918509471694,21.488074379245095],[71.779031925118133,21.488092396998027],[71.77913427582348,21.488132293443023],[71.779206197940709,21.488158033079152],[71.779296100587288,21.488187633655063],[71.779316847351865,21.488142589298018],[71.779423347410116,21.48817991176627],[71.779557509821117,21.488241686865123],[71.779662626761734,21.488331775503934],[71.779703428732077,21.488365236984141],[71.779786415790454,21.488546701031311],[71.779903980789811,21.488491360955795],[71.780028461377356,21.48855184894424],[71.780212416023389,21.488599467130232],[71.780453078492656,21.488653520187331],[71.780602455197709,21.488765487170326],[71.780736617608724,21.488941802819483],[71.781047127518761,21.489118118255039],[71.781300238046782,21.489367790842177],[71.782106595630566,21.489466887575041]]]}}
]
}
